{
"type": "FeatureCollection",
"name": "Malusak",
"crs": { "type": "name", "properties": { "name": "urn:ogc:def:crs:OGC:1.3:CRS84" } },
"features": [
{ "type": "Feature", "properties": { "Id": 0, "CLN": "18 RW", "PSGC": "174001035", "Barangay": "Malusak", "Land_Class": null, "PIN": "030-01-001-41-", "ALN": null, "Section": "41", "Brgy_Code": "01" }, "geometry": { "type": "Polygon", "coordinates": [ [ [ 121.840550655311304, 13.447192986223847 ], [ 121.840586765380493, 13.447198632534386 ], [ 121.840639357612218, 13.447057890732712 ], [ 121.840596160570271, 13.447055966560264 ], [ 121.840550655311304, 13.447192986223847 ] ] ] } },
{ "type": "Feature", "properties": { "Id": 0, "CLN": "17", "PSGC": "174001035", "Barangay": "Malusak", "Land_Class": null, "PIN": "030-01-001-41-", "ALN": "No ALN", "Section": "41", "Brgy_Code": "01" }, "geometry": { "type": "Polygon", "coordinates": [ [ [ 121.840550655311304, 13.447192986223847 ], [ 121.840596160570271, 13.447055966560264 ], [ 121.840559978975193, 13.447053438142024 ], [ 121.840540072486775, 13.447171017679128 ], [ 121.84053641630716, 13.44719042973661 ], [ 121.840550655311304, 13.447192986223847 ] ] ] } },
{ "type": "Feature", "properties": { "Id": 0, "CLN": "16", "PSGC": "174001035", "Barangay": "Malusak", "Land_Class": null, "PIN": "030-01-001-41-012", "ALN": "012", "Section": "41", "Brgy_Code": "01" }, "geometry": { "type": "Polygon", "coordinates": [ [ [ 121.840540072486775, 13.447171017679128 ], [ 121.840559978975193, 13.447053438142024 ], [ 121.840340579703266, 13.447051215632655 ], [ 121.840337132301883, 13.447062491758107 ], [ 121.840540072486775, 13.447171017679128 ] ] ] } },
{ "type": "Feature", "properties": { "Id": 0, "CLN": "8", "PSGC": "174001035", "Barangay": "Malusak", "Land_Class": null, "PIN": "030-01-001-41-009", "ALN": "009", "Section": "41", "Brgy_Code": "01" }, "geometry": { "type": "Polygon", "coordinates": [ [ [ 121.84053641630716, 13.447190429736626 ], [ 121.840347531145056, 13.44709527174707 ], [ 121.840342679020779, 13.447163444278353 ], [ 121.840346543731471, 13.44720975652122 ], [ 121.840354656472115, 13.447306974432804 ], [ 121.840400764194328, 13.447315157724931 ], [ 121.840403269945682, 13.447358566019179 ], [ 121.840501033628414, 13.447350159999823 ], [ 121.840542681128468, 13.447345037997195 ], [ 121.840550655311304, 13.447192986223847 ], [ 121.84053641630716, 13.447190429736626 ] ] ] } },
{ "type": "Feature", "properties": { "Id": 0, "CLN": "9 RW", "PSGC": "174001035", "Barangay": "Malusak", "Land_Class": null, "PIN": "030-01-001-41-", "ALN": null, "Section": "41", "Brgy_Code": "01" }, "geometry": { "type": "Polygon", "coordinates": [ [ [ 121.840542681128468, 13.447345037997184 ], [ 121.84060603590666, 13.447341787290394 ], [ 121.840586765380493, 13.447198632534386 ], [ 121.840550655311304, 13.447192986223847 ], [ 121.840542681128468, 13.447345037997184 ] ] ] } },
{ "type": "Feature", "properties": { "Id": 0, "CLN": "12", "PSGC": "174001035", "Barangay": "Malusak", "Land_Class": null, "PIN": "030-01-001-41-005", "ALN": "005", "Section": "41", "Brgy_Code": "01" }, "geometry": { "type": "Polygon", "coordinates": [ [ [ 121.840303051645847, 13.447312936167048 ], [ 121.840229742949177, 13.447310793218866 ], [ 121.840234573368932, 13.447391474760201 ], [ 121.840332574327533, 13.447383038396655 ], [ 121.840303051645847, 13.447312936167048 ] ] ] } },
{ "type": "Feature", "properties": { "Id": 0, "CLN": "10", "PSGC": "174001035", "Barangay": "Malusak", "Land_Class": null, "PIN": "030-01-001-41-007", "ALN": "007", "Section": "41", "Brgy_Code": "01" }, "geometry": { "type": "Polygon", "coordinates": [ [ [ 121.840403269945682, 13.447358566019197 ], [ 121.840400764194328, 13.447315157724931 ], [ 121.840354656472115, 13.447306974432804 ], [ 121.840303051645847, 13.447312936167048 ], [ 121.840332574327533, 13.447383038396655 ], [ 121.840327760526037, 13.44744324027098 ], [ 121.840410095359204, 13.447444505317845 ], [ 121.840403269945682, 13.447358566019197 ] ] ] } },
{ "type": "Feature", "properties": { "Id": 0, "CLN": "7", "PSGC": "174001035", "Barangay": "Malusak", "Land_Class": null, "PIN": "030-01-001-41-008", "ALN": "008", "Section": "41", "Brgy_Code": "01" }, "geometry": { "type": "Polygon", "coordinates": [ [ [ 121.840410095359204, 13.447444505317845 ], [ 121.840506945733253, 13.447437866386352 ], [ 121.840501033628414, 13.447350159999804 ], [ 121.840403269945682, 13.447358566019197 ], [ 121.840410095359204, 13.447444505317845 ] ] ] } },
{ "type": "Feature", "properties": { "Id": 0, "CLN": "5 RW", "PSGC": "174001035", "Barangay": "Malusak", "Land_Class": null, "PIN": "030-01-001-41-", "ALN": null, "Section": "41", "Brgy_Code": "01" }, "geometry": { "type": "Polygon", "coordinates": [ [ [ 121.84060603590666, 13.447341787290394 ], [ 121.840542681128468, 13.447345037997184 ], [ 121.840563767111462, 13.447558661997414 ], [ 121.840625863081257, 13.447546463316959 ], [ 121.84060603590666, 13.447341787290394 ] ] ] } },
{ "type": "Feature", "properties": { "Id": 0, "CLN": "4", "PSGC": "174001035", "Barangay": "Malusak", "Land_Class": null, "PIN": "030-01-001-41-002", "ALN": "002", "Section": "41", "Brgy_Code": "01" }, "geometry": { "type": "Polygon", "coordinates": [ [ [ 121.840563767111462, 13.447558661997396 ], [ 121.840542681128468, 13.447345037997184 ], [ 121.840501033628414, 13.447350159999804 ], [ 121.840506945733253, 13.447437866386352 ], [ 121.84051175282606, 13.447567193134349 ], [ 121.840563767111462, 13.447558661997396 ] ] ] } },
{ "type": "Feature", "properties": { "Id": 0, "CLN": "6", "PSGC": "174001035", "Barangay": "Malusak", "Land_Class": null, "PIN": "030-01-001-41-003", "ALN": "003", "Section": "41", "Brgy_Code": "01" }, "geometry": { "type": "Polygon", "coordinates": [ [ [ 121.84040856436016, 13.447574688506457 ], [ 121.84051175282606, 13.447567193134349 ], [ 121.840506945733253, 13.447437866386352 ], [ 121.840410095359204, 13.447444505317845 ], [ 121.84040856436016, 13.447574688506457 ] ] ] } },
{ "type": "Feature", "properties": { "Id": 0, "CLN": "11 pt", "PSGC": "174001035", "Barangay": "Malusak", "Land_Class": null, "PIN": "030-01-001-41-043", "ALN": "043", "Section": "41", "Brgy_Code": "01" }, "geometry": { "type": "Polygon", "coordinates": [ [ [ 121.840240515647693, 13.447490095316423 ], [ 121.840343439284084, 13.447486485088087 ], [ 121.840341529641336, 13.447443451830654 ], [ 121.840327760526037, 13.44744324027098 ], [ 121.840237912726494, 13.447447004672528 ], [ 121.840240515647693, 13.447490095316423 ] ] ] } },
{ "type": "Feature", "properties": { "Id": 0, "CLN": "3 RW", "PSGC": "174001035", "Barangay": "Malusak", "Land_Class": null, "PIN": "030-01-001-41-", "ALN": null, "Section": "41", "Brgy_Code": "01" }, "geometry": { "type": "Polygon", "coordinates": [ [ [ 121.840586672894105, 13.44779072230318 ], [ 121.840583748887113, 13.447761098970117 ], [ 121.83967623567861, 13.447810429012124 ], [ 121.839680697906758, 13.447839684781329 ], [ 121.840586672894105, 13.44779072230318 ] ] ] } },
{ "type": "Feature", "properties": { "Id": 0, "CLN": "1", "PSGC": "174001035", "Barangay": "Malusak", "Land_Class": null, "PIN": "030-01-001-41-001", "ALN": "001", "Section": "41", "Brgy_Code": "01" }, "geometry": { "type": "Polygon", "coordinates": [ [ [ 121.840583748887113, 13.447761098970117 ], [ 121.840563767111462, 13.447558661997414 ], [ 121.84051175282606, 13.447567193134365 ], [ 121.84040856436016, 13.447574688506457 ], [ 121.840245687218285, 13.447575709230501 ], [ 121.840212662491865, 13.447576661386199 ], [ 121.840179626425311, 13.447577176074198 ], [ 121.839953394457325, 13.447581447202463 ], [ 121.839891849272149, 13.447584706081411 ], [ 121.839769659464096, 13.447592113593471 ], [ 121.839643863138889, 13.447596847473124 ], [ 121.83967623567861, 13.447810429012124 ], [ 121.840583748887113, 13.447761098970117 ] ] ] } },
{ "type": "Feature", "properties": { "Id": 0, "CLN": "28 pt", "PSGC": "174001035", "Barangay": "Malusak", "Land_Class": null, "PIN": "030-01-001-41-036", "ALN": "036", "Section": "41", "Brgy_Code": "01" }, "geometry": { "type": "Polygon", "coordinates": [ [ [ 121.84016843855504, 13.447421671795146 ], [ 121.839940896276588, 13.447435169067765 ], [ 121.839953394457325, 13.447581447202463 ], [ 121.840179626425311, 13.447577176074198 ], [ 121.84016843855504, 13.447421671795146 ] ] ] } },
{ "type": "Feature", "properties": { "Id": 0, "CLN": "30 pt", "PSGC": "174001035", "Barangay": "Malusak", "Land_Class": null, "PIN": "030-01-001-41-030", "ALN": "030", "Section": "41", "Brgy_Code": "01" }, "geometry": { "type": "Polygon", "coordinates": [ [ [ 121.840038591696583, 13.447322854814397 ], [ 121.840060106300058, 13.447321609851226 ], [ 121.840045777788902, 13.447198673433052 ], [ 121.84002036564118, 13.447202698646832 ], [ 121.840038591696583, 13.447322854814397 ] ] ] } },
{ "type": "Feature", "properties": { "Id": 0, "CLN": "31", "PSGC": "174001035", "Barangay": "Malusak", "Land_Class": null, "PIN": "030-01-001-41-014", "ALN": "014", "Section": "41", "Brgy_Code": "01" }, "geometry": { "type": "Polygon", "coordinates": [ [ [ 121.84008031125714, 13.4473204406703 ], [ 121.840160361969012, 13.447315808436175 ], [ 121.840156137293235, 13.44725900958275 ], [ 121.840075305343149, 13.447263575195333 ], [ 121.84008031125714, 13.4473204406703 ] ] ] } },
{ "type": "Feature", "properties": { "Id": 0, "CLN": "32", "PSGC": "174001035", "Barangay": "Malusak", "Land_Class": null, "PIN": "030-01-001-41-013", "ALN": "013", "Section": "41", "Brgy_Code": "01" }, "geometry": { "type": "Polygon", "coordinates": [ [ [ 121.840075305343149, 13.447263575195333 ], [ 121.840156137293235, 13.44725900958275 ], [ 121.840147352048632, 13.447138631640469 ], [ 121.840068848036864, 13.447142028071957 ], [ 121.840069264494872, 13.447194953201455 ], [ 121.840075305343149, 13.447263575195333 ] ] ] } },
{ "type": "Feature", "properties": { "Id": 0, "CLN": "33", "PSGC": "174001035", "Barangay": "Malusak", "Land_Class": null, "PIN": "030-01-001-41-017", "ALN": "017", "Section": "41", "Brgy_Code": "01" }, "geometry": { "type": "Polygon", "coordinates": [ [ [ 121.84002036564118, 13.447202698646814 ], [ 121.840069264494872, 13.447194953201455 ], [ 121.840068848036864, 13.447142028071957 ], [ 121.84000687577128, 13.447144475258026 ], [ 121.84002036564118, 13.447202698646814 ] ] ] } },
{ "type": "Feature", "properties": { "Id": 0, "CLN": "34", "PSGC": "174001035", "Barangay": "Malusak", "Land_Class": null, "PIN": "030-01-001-41-029", "ALN": "029", "Section": "41", "Brgy_Code": "01" }, "geometry": { "type": "Polygon", "coordinates": [ [ [ 121.839923655871829, 13.447232392668461 ], [ 121.840005747839044, 13.447231857646468 ], [ 121.84000405750065, 13.447207051716102 ], [ 121.84002036564118, 13.447202698646814 ], [ 121.84000687577128, 13.447144475258026 ], [ 121.839916570806921, 13.447148195687266 ], [ 121.839923655871829, 13.447232392668461 ] ] ] } },
{ "type": "Feature", "properties": { "Id": 0, "CLN": "29 pt", "PSGC": "174001035", "Barangay": "Malusak", "Land_Class": null, "PIN": "030-01-001-41-040", "ALN": "040", "Section": "41", "Brgy_Code": "01" }, "geometry": { "type": "Polygon", "coordinates": [ [ [ 121.840009767275774, 13.447281205379083 ], [ 121.840005747839044, 13.447231857646468 ], [ 121.839923655871829, 13.447232392668461 ], [ 121.839928059164421, 13.44728435003017 ], [ 121.840009767275774, 13.447281205379083 ] ] ] } },
{ "type": "Feature", "properties": { "Id": 0, "CLN": "75", "PSGC": "174001035", "Barangay": "Malusak", "Land_Class": null, "PIN": "030-01-001-41-024", "ALN": "024", "Section": "41", "Brgy_Code": "01" }, "geometry": { "type": "Polygon", "coordinates": [ [ [ 121.839643863138889, 13.447596847473124 ], [ 121.839769659464082, 13.447592113593451 ], [ 121.839756434616547, 13.447444464270255 ], [ 121.839625096910453, 13.447447430474401 ], [ 121.839643863138889, 13.447596847473124 ] ] ] } },
{ "type": "Feature", "properties": { "Id": 0, "CLN": "74", "PSGC": "174001035", "Barangay": "Malusak", "Land_Class": null, "PIN": "030-01-001-41-025", "ALN": "025", "Section": "41", "Brgy_Code": "01" }, "geometry": { "type": "Polygon", "coordinates": [ [ [ 121.839756434616547, 13.447444464270255 ], [ 121.839748416027589, 13.447353822539288 ], [ 121.839744906023626, 13.447342846465881 ], [ 121.839612061667367, 13.4473432303124 ], [ 121.839625096910453, 13.447447430474401 ], [ 121.839756434616547, 13.447444464270255 ] ] ] } },
{ "type": "Feature", "properties": { "Id": 0, "CLN": "71", "PSGC": "174001035", "Barangay": "Malusak", "Land_Class": null, "PIN": "030-01-001-41-026", "ALN": "026", "Section": "41", "Brgy_Code": "01" }, "geometry": { "type": "Polygon", "coordinates": [ [ [ 121.839612061667339, 13.447343230312386 ], [ 121.839744906023611, 13.447342846465871 ], [ 121.839731612319881, 13.447249626104204 ], [ 121.839598280631193, 13.447245524109068 ], [ 121.839612061667339, 13.447343230312386 ] ] ] } },
{ "type": "Feature", "properties": { "Id": 0, "CLN": "69", "PSGC": "174001035", "Barangay": "Malusak", "Land_Class": null, "PIN": "030-01-001-41-021", "ALN": "021", "Section": "41", "Brgy_Code": "01" }, "geometry": { "type": "Polygon", "coordinates": [ [ [ 121.839742859865552, 13.447239216246473 ], [ 121.839792183789314, 13.447248909006269 ], [ 121.839791095603061, 13.447157737623174 ], [ 121.839731551673125, 13.447156466752611 ], [ 121.839742859865552, 13.447239216246473 ] ] ] } },
{ "type": "Feature", "properties": { "Id": 0, "CLN": "68", "PSGC": "174001035", "Barangay": "Malusak", "Land_Class": null, "PIN": "030-01-001-41-020", "ALN": "020", "Section": "41", "Brgy_Code": "01" }, "geometry": { "type": "Polygon", "coordinates": [ [ [ 121.839792183789314, 13.447248909006269 ], [ 121.839856604675987, 13.447240572611406 ], [ 121.839847626505829, 13.447150525582826 ], [ 121.839791095603061, 13.447157737623174 ], [ 121.839792183789314, 13.447248909006269 ] ] ] } },
{ "type": "Feature", "properties": { "Id": 0, "CLN": "70", "PSGC": "174001035", "Barangay": "Malusak", "Land_Class": null, "PIN": "030-01-001-41-027", "ALN": "027", "Section": "41", "Brgy_Code": "01" }, "geometry": { "type": "Polygon", "coordinates": [ [ [ 121.839731612319881, 13.447249626104204 ], [ 121.839742859865552, 13.447239216246473 ], [ 121.839731551673125, 13.447156466752611 ], [ 121.839600539602827, 13.447168778877622 ], [ 121.839598280631193, 13.447245524109068 ], [ 121.839731612319881, 13.447249626104204 ] ] ] } },
{ "type": "Feature", "properties": { "Id": 0, "CLN": "72", "PSGC": "174001035", "Barangay": "Malusak", "Land_Class": null, "PIN": "030-01-001-41-022", "ALN": "022", "Section": "41", "Brgy_Code": "01" }, "geometry": { "type": "Polygon", "coordinates": [ [ [ 121.839731612319881, 13.447249626104204 ], [ 121.839744906023611, 13.447342846465871 ], [ 121.839748416027589, 13.447353822539288 ], [ 121.83986573743104, 13.44732867125955 ], [ 121.839856604675987, 13.447240572611406 ], [ 121.839792183789314, 13.447248909006269 ], [ 121.839742859865552, 13.447239216246473 ], [ 121.839731612319881, 13.447249626104204 ] ] ] } },
{ "type": "Feature", "properties": { "Id": 0, "CLN": "46 pt", "PSGC": "174001035", "Barangay": "Malusak", "Land_Class": null, "PIN": "030-01-001-44-044", "ALN": "044", "Section": "44", "Brgy_Code": "01" }, "geometry": { "type": "Polygon", "coordinates": [ [ [ 121.839513104413825, 13.446910778369393 ], [ 121.839501028519265, 13.446817704522754 ], [ 121.839413154153519, 13.446839440488612 ], [ 121.839420972689339, 13.446922603040285 ], [ 121.839513104413825, 13.446910778369393 ] ] ] } },
{ "type": "Feature", "properties": { "Id": 0, "CLN": "47", "PSGC": "174001035", "Barangay": "Malusak", "Land_Class": null, "PIN": "030-01-001-44-023", "ALN": "023", "Section": "44", "Brgy_Code": "01" }, "geometry": { "type": "Polygon", "coordinates": [ [ [ 121.839420972689339, 13.446922603040285 ], [ 121.839413154153519, 13.446839440488612 ], [ 121.83931163495474, 13.446876169502632 ], [ 121.839367553104537, 13.44700679532343 ], [ 121.839428665078216, 13.447000699895709 ], [ 121.839420972689339, 13.446922603040285 ] ] ] } },
{ "type": "Feature", "properties": { "Id": 0, "CLN": "49", "PSGC": "174001035", "Barangay": "Malusak", "Land_Class": null, "PIN": "030-01-001-44-022", "ALN": "022", "Section": "44", "Brgy_Code": "01" }, "geometry": { "type": "Polygon", "coordinates": [ [ [ 121.839297099966259, 13.44705451427407 ], [ 121.839305164614444, 13.44705550910983 ], [ 121.839370687690959, 13.44703533494085 ], [ 121.839367553104537, 13.44700679532343 ], [ 121.83931163495474, 13.446876169502632 ], [ 121.839270317869179, 13.446925610638198 ], [ 121.839297099966259, 13.44705451427407 ] ] ] } },
{ "type": "Feature", "properties": { "Id": 0, "CLN": "56 pt", "PSGC": "174001035", "Barangay": "Malusak", "Land_Class": null, "PIN": "030-01-001-44-027", "ALN": "027", "Section": "44", "Brgy_Code": "01" }, "geometry": { "type": "Polygon", "coordinates": [ [ [ 121.839230655143979, 13.446973125558999 ], [ 121.839257325828868, 13.447070442871683 ], [ 121.839305164614444, 13.44705550910983 ], [ 121.839297099966259, 13.44705451427407 ], [ 121.839270317869179, 13.446925610638198 ], [ 121.839230655143979, 13.446973125558999 ] ] ] } },
{ "type": "Feature", "properties": { "Id": 0, "CLN": "60", "PSGC": "174001035", "Barangay": "Malusak", "Land_Class": null, "PIN": "030-01-001-44-019", "ALN": "019", "Section": "44", "Brgy_Code": "01" }, "geometry": { "type": "Polygon", "coordinates": [ [ [ 121.839212002997428, 13.447084722814575 ], [ 121.839195143942902, 13.447015564538855 ], [ 121.839154783470192, 13.447044099938539 ], [ 121.839165663961694, 13.447147744166523 ], [ 121.839224389108338, 13.447143232687111 ], [ 121.839212002997428, 13.447084722814575 ] ] ] } },
{ "type": "Feature", "properties": { "Id": 0, "CLN": "62", "PSGC": "174001035", "Barangay": "Malusak", "Land_Class": null, "PIN": "030-01-001-44-018", "ALN": "018", "Section": "44", "Brgy_Code": "01" }, "geometry": { "type": "Polygon", "coordinates": [ [ [ 121.839165663961694, 13.447147744166523 ], [ 121.839154783470192, 13.447044099938539 ], [ 121.839102532151898, 13.447081560915413 ], [ 121.839110403535486, 13.447151997208863 ], [ 121.839165663961694, 13.447147744166523 ] ] ] } },
{ "type": "Feature", "properties": { "Id": 0, "CLN": "64", "PSGC": "174001035", "Barangay": "Malusak", "Land_Class": null, "PIN": "030-01-001-44-017", "ALN": "017", "Section": "44", "Brgy_Code": "01" }, "geometry": { "type": "Polygon", "coordinates": [ [ [ 121.839102532151898, 13.447081560915413 ], [ 121.839057133193677, 13.447114120449363 ], [ 121.839062361703014, 13.447155770004294 ], [ 121.839110403535486, 13.447151997208863 ], [ 121.839102532151898, 13.447081560915413 ] ] ] } },
{ "type": "Feature", "properties": { "Id": 0, "CLN": "65 RW", "PSGC": "174001035", "Barangay": "Malusak", "Land_Class": null, "PIN": "030-01-001-44-", "ALN": null, "Section": "44", "Brgy_Code": "01" }, "geometry": { "type": "Polygon", "coordinates": [ [ [ 121.839062361703014, 13.447155770004272 ], [ 121.839057133193677, 13.447114120449342 ], [ 121.839034444371606, 13.447128186143141 ], [ 121.83903248546271, 13.447159174770535 ], [ 121.839062361703014, 13.447155770004272 ] ] ] } },
{ "type": "Feature", "properties": { "Id": 0, "CLN": "83", "PSGC": "174001035", "Barangay": "Malusak", "Land_Class": null, "PIN": "030-01-001-44-004", "ALN": "004", "Section": "44", "Brgy_Code": "01" }, "geometry": { "type": "Polygon", "coordinates": [ [ [ 121.839347736567902, 13.447618748580494 ], [ 121.839411108462528, 13.447611955669981 ], [ 121.839406955249643, 13.447534885172304 ], [ 121.839338167214919, 13.447538996160638 ], [ 121.839347736567902, 13.447618748580494 ] ] ] } },
{ "type": "Feature", "properties": { "Id": 0, "CLN": "81 pt", "PSGC": "174001035", "Barangay": "Malusak", "Land_Class": null, "PIN": "030-01-001-44-006", "ALN": "006", "Section": "44", "Brgy_Code": "01" }, "geometry": { "type": "Polygon", "coordinates": [ [ [ 121.839550950910791, 13.447344687811485 ], [ 121.839489500397548, 13.447348504133933 ], [ 121.839485574135267, 13.447299605897955 ], [ 121.839423454257343, 13.447302921580523 ], [ 121.839387210122553, 13.447313382201951 ], [ 121.839388844973001, 13.447349701294863 ], [ 121.839406955249643, 13.447534885172304 ], [ 121.839411108462528, 13.447611955669981 ], [ 121.839579469956107, 13.447599447358328 ], [ 121.839550950910791, 13.447344687811485 ] ] ] } },
{ "type": "Feature", "properties": { "Id": 0, "CLN": "82", "PSGC": "174001035", "Barangay": "Malusak", "Land_Class": null, "PIN": "030-01-001-44-005", "ALN": "005", "Section": "44", "Brgy_Code": "01" }, "geometry": { "type": "Polygon", "coordinates": [ [ [ 121.839338167214919, 13.447538996160638 ], [ 121.839406955249643, 13.447534885172304 ], [ 121.839388844973001, 13.447349701294847 ], [ 121.839312809868034, 13.447355550152931 ], [ 121.839338167214919, 13.447538996160638 ] ] ] } },
{ "type": "Feature", "properties": { "Id": 0, "CLN": "80 pt", "PSGC": "174001035", "Barangay": "Malusak", "Land_Class": null, "PIN": "030-01-001-44-033", "ALN": "033", "Section": "44", "Brgy_Code": "01" }, "geometry": { "type": "Polygon", "coordinates": [ [ [ 121.839417214424685, 13.447277016384778 ], [ 121.839382573824693, 13.447282835146801 ], [ 121.839384580800086, 13.447302740196552 ], [ 121.839307552740081, 13.44731402849991 ], [ 121.839312809868048, 13.447355550152931 ], [ 121.839388844973001, 13.447349701294863 ], [ 121.839387210122553, 13.447313382201951 ], [ 121.839423454257343, 13.447302921580523 ], [ 121.839417214424685, 13.447277016384778 ] ] ] } },
{ "type": "Feature", "properties": { "Id": 0, "CLN": "77", "PSGC": "174001035", "Barangay": "Malusak", "Land_Class": null, "PIN": "030-01-001-44-008", "ALN": "008", "Section": "44", "Brgy_Code": "01" }, "geometry": { "type": "Polygon", "coordinates": [ [ [ 121.839423454257343, 13.447302921580482 ], [ 121.839545639651689, 13.447296399853368 ], [ 121.83954055172893, 13.447225524576897 ], [ 121.839412933162961, 13.447232906895671 ], [ 121.839411921757332, 13.447255043422578 ], [ 121.839423454257343, 13.447302921580482 ] ] ] } },
{ "type": "Feature", "properties": { "Id": 0, "CLN": "79", "PSGC": "174001035", "Barangay": "Malusak", "Land_Class": null, "PIN": "030-01-001-44-011", "ALN": "011", "Section": "44", "Brgy_Code": "01" }, "geometry": { "type": "Polygon", "coordinates": [ [ [ 121.839301477781788, 13.447266047478005 ], [ 121.839342211924603, 13.447262692757674 ], [ 121.839327529529598, 13.447189652666713 ], [ 121.839290969514991, 13.44719337590703 ], [ 121.839301477781788, 13.447266047478005 ] ] ] } },
{ "type": "Feature", "properties": { "Id": 0, "CLN": "78", "PSGC": "174001035", "Barangay": "Malusak", "Land_Class": null, "PIN": "030-01-001-44-010", "ALN": "010", "Section": "44", "Brgy_Code": "01" }, "geometry": { "type": "Polygon", "coordinates": [ [ [ 121.839342211924603, 13.447262692757674 ], [ 121.839411921757332, 13.447255043422578 ], [ 121.839412933162961, 13.447232906895671 ], [ 121.839402322544274, 13.447181490398346 ], [ 121.839327529529598, 13.447189652666713 ], [ 121.839342211924603, 13.447262692757674 ] ] ] } },
{ "type": "Feature", "properties": { "Id": 0, "CLN": "76", "PSGC": "174001035", "Barangay": "Malusak", "Land_Class": null, "PIN": "030-01-001-44-009", "ALN": "009", "Section": "44", "Brgy_Code": "01" }, "geometry": { "type": "Polygon", "coordinates": [ [ [ 121.839412933162961, 13.447232906895671 ], [ 121.83954055172893, 13.447225524576897 ], [ 121.839532668342898, 13.447171463715778 ], [ 121.839402322544274, 13.447181490398346 ], [ 121.839412933162961, 13.447232906895671 ] ] ] } },
{ "type": "Feature", "properties": { "Id": 0, "CLN": "85", "PSGC": "174001035", "Barangay": "Malusak", "Land_Class": null, "PIN": "030-01-001-44-016", "ALN": "016", "Section": "44", "Brgy_Code": "01" }, "geometry": { "type": "Polygon", "coordinates": [ [ [ 121.83915844307262, 13.447280443743377 ], [ 121.839149791403372, 13.447198038610459 ], [ 121.839062868608622, 13.447210036706549 ], [ 121.839070572778496, 13.447301293944744 ], [ 121.839159271141199, 13.447296389219465 ], [ 121.83915844307262, 13.447280443743377 ] ] ] } },
{ "type": "Feature", "properties": { "Id": 0, "CLN": "86 RW", "PSGC": "174001035", "Barangay": "Malusak", "Land_Class": null, "PIN": "030-01-001-44-", "ALN": null, "Section": "44", "Brgy_Code": "01" }, "geometry": { "type": "Polygon", "coordinates": [ [ [ 121.839036185192711, 13.447302020956007 ], [ 121.839070572778496, 13.447301293944744 ], [ 121.839062868608622, 13.447210036706549 ], [ 121.83902394412253, 13.447213399730479 ], [ 121.839036185192711, 13.447302020956007 ] ] ] } },
{ "type": "Feature", "properties": { "Id": 0, "CLN": "88 pt", "PSGC": "174001035", "Barangay": "Malusak", "Land_Class": null, "PIN": "030-01-001-44-030", "ALN": "030", "Section": "44", "Brgy_Code": "01" }, "geometry": { "type": "Polygon", "coordinates": [ [ [ 121.839176987372753, 13.447346714739798 ], [ 121.839175868315621, 13.447331062294516 ], [ 121.839173110864863, 13.447279345197318 ], [ 121.839158443072648, 13.447280443743393 ], [ 121.839159271141199, 13.447296389219479 ], [ 121.839070572778496, 13.447301293944786 ], [ 121.839075868956499, 13.447352306254544 ], [ 121.839176987372753, 13.447346714739798 ] ] ] } },
{ "type": "Feature", "properties": { "Id": 0, "CLN": "91 RW", "PSGC": "174001035", "Barangay": "Malusak", "Land_Class": null, "PIN": "030-01-001-44-", "ALN": null, "Section": "44", "Brgy_Code": "01" }, "geometry": { "type": "Polygon", "coordinates": [ [ [ 121.839057594646647, 13.447553643623351 ], [ 121.839095610098369, 13.447551162052537 ], [ 121.839083543847025, 13.447426230086037 ], [ 121.839043723030372, 13.447427817680401 ], [ 121.839057594646647, 13.447553643623351 ] ] ] } },
{ "type": "Feature", "properties": { "Id": 0, "CLN": "94 RW", "PSGC": "174001035", "Barangay": "Malusak", "Land_Class": null, "PIN": "030-01-001-44-", "ALN": null, "Section": "44", "Brgy_Code": "01" }, "geometry": { "type": "Polygon", "coordinates": [ [ [ 121.839063591515426, 13.447623637443176 ], [ 121.839100702152791, 13.447621151698316 ], [ 121.839095610098369, 13.447551162052537 ], [ 121.839057594646647, 13.447553643623351 ], [ 121.839063591515426, 13.447623637443176 ] ] ] } },
{ "type": "Feature", "properties": { "Id": 0, "CLN": "93", "PSGC": "174001035", "Barangay": "Malusak", "Land_Class": null, "PIN": "030-01-001-44-001", "ALN": "001", "Section": "44", "Brgy_Code": "01" }, "geometry": { "type": "Polygon", "coordinates": [ [ [ 121.839100702152791, 13.447621151698316 ], [ 121.839204782667011, 13.447616317924945 ], [ 121.839181286239153, 13.447422252725017 ], [ 121.83912120251955, 13.447424929663651 ], [ 121.839125255692679, 13.447487439314717 ], [ 121.839117679666487, 13.447489173036542 ], [ 121.839121858557846, 13.447549511842714 ], [ 121.839095610098369, 13.447551162052537 ], [ 121.839100702152791, 13.447621151698316 ] ] ] } },
{ "type": "Feature", "properties": { "Id": 0, "CLN": "90", "PSGC": "174001035", "Barangay": "Malusak", "Land_Class": null, "PIN": "030-01-001-44-002", "ALN": "002", "Section": "44", "Brgy_Code": "01" }, "geometry": { "type": "Polygon", "coordinates": [ [ [ 121.839125255692679, 13.447487439314717 ], [ 121.83912120251955, 13.447424929663651 ], [ 121.839083543847025, 13.447426230086037 ], [ 121.839095610098369, 13.447551162052537 ], [ 121.839121858557846, 13.447549511842714 ], [ 121.839117679666487, 13.447489173036542 ], [ 121.839125255692679, 13.447487439314717 ] ] ] } },
{ "type": "Feature", "properties": { "Id": 0, "CLN": "92", "PSGC": "174001035", "Barangay": "Malusak", "Land_Class": null, "PIN": "030-01-001-44-003", "ALN": "003", "Section": "44", "Brgy_Code": "01" }, "geometry": { "type": "Polygon", "coordinates": [ [ [ 121.839204782667011, 13.447616317924945 ], [ 121.839288969811562, 13.447608735411075 ], [ 121.839266395195651, 13.447411131875121 ], [ 121.839211871848093, 13.447416526017667 ], [ 121.839181286239153, 13.447422252725017 ], [ 121.839204782667011, 13.447616317924945 ] ] ] } },
{ "type": "Feature", "properties": { "Id": 0, "CLN": "84", "PSGC": "174001035", "Barangay": "Malusak", "Land_Class": null, "PIN": "030-01-001-44-013", "ALN": "013", "Section": "44", "Brgy_Code": "01" }, "geometry": { "type": "Polygon", "coordinates": [ [ [ 121.83915844307262, 13.447280443743377 ], [ 121.839173110864863, 13.447279345197318 ], [ 121.839239110441, 13.447274282326546 ], [ 121.839229747150142, 13.4471939645166 ], [ 121.839149791403372, 13.447198038610459 ], [ 121.83915844307262, 13.447280443743377 ] ] ] } },
{ "type": "Feature", "properties": { "Id": 0, "CLN": "42 pt", "PSGC": "174001035", "Barangay": "Malusak", "Land_Class": null, "PIN": "030-01-001-42-012", "ALN": "012", "Section": "42", "Brgy_Code": "01" }, "geometry": { "type": "Polygon", "coordinates": [ [ [ 121.839715287568353, 13.446896647100095 ], [ 121.839705355942783, 13.446785657758975 ], [ 121.839552646032189, 13.446809086061618 ], [ 121.839564324105751, 13.446910781030727 ], [ 121.83966359581261, 13.446901496115231 ], [ 121.839715287568353, 13.446896647100095 ] ] ] } },
{ "type": "Feature", "properties": { "Id": 0, "CLN": "37", "PSGC": "174001035", "Barangay": "Malusak", "Land_Class": null, "PIN": "030-01-001-42-005", "ALN": "005", "Section": "42", "Brgy_Code": "01" }, "geometry": { "type": "Polygon", "coordinates": [ [ [ 121.839830969157902, 13.446885649330385 ], [ 121.839841760212295, 13.447087626772369 ], [ 121.839916873363805, 13.44708531608808 ], [ 121.839920666470931, 13.446860898222189 ], [ 121.839832223431017, 13.446813031993294 ], [ 121.839830969157902, 13.446885649330385 ] ] ] } },
{ "type": "Feature", "properties": { "Id": 0, "CLN": "36", "PSGC": "174001035", "Barangay": "Malusak", "Land_Class": null, "PIN": "030-01-001-42-006", "ALN": "006", "Section": "42", "Brgy_Code": "01" }, "geometry": { "type": "Polygon", "coordinates": [ [ [ 121.839916873363805, 13.44708531608808 ], [ 121.840013685241203, 13.447086647989391 ], [ 121.840036033751787, 13.446923176916165 ], [ 121.839920666470931, 13.446860898222189 ], [ 121.839916873363805, 13.44708531608808 ] ] ] } },
{ "type": "Feature", "properties": { "Id": 0, "CLN": "35", "PSGC": "174001035", "Barangay": "Malusak", "Land_Class": null, "PIN": "030-01-001-42-007", "ALN": "007", "Section": "42", "Brgy_Code": "01" }, "geometry": { "type": "Polygon", "coordinates": [ [ [ 121.840013685241203, 13.447086647989391 ], [ 121.840135857752045, 13.447082782850085 ], [ 121.840136364755153, 13.446977393090393 ], [ 121.840036033751787, 13.446923176916165 ], [ 121.840013685241203, 13.447086647989391 ] ] ] } },
{ "type": "Feature", "properties": { "Id": 0, "CLN": "58 pt", "PSGC": "174001035", "Barangay": "Malusak", "Land_Class": null, "PIN": "030-01-001-43-007", "ALN": "007", "Section": "43", "Brgy_Code": "01" }, "geometry": { "type": "Polygon", "coordinates": [ [ [ 121.838935615950717, 13.446035426331173 ], [ 121.839818695183837, 13.446109346891335 ], [ 121.840114595579749, 13.446129064404792 ], [ 121.840087396078815, 13.445062498967477 ], [ 121.840052337794475, 13.445030156220451 ], [ 121.839912338300479, 13.445032281799223 ], [ 121.838849160122152, 13.445060633338448 ], [ 121.838935615950717, 13.446035426331173 ] ] ] } },
{ "type": "Feature", "properties": { "Id": 0, "CLN": "108 RW", "PSGC": "174001035", "Barangay": "Malusak", "Land_Class": null, "PIN": "030-01-001-45-", "ALN": null, "Section": "45", "Brgy_Code": "01" }, "geometry": { "type": "Polygon", "coordinates": [ [ [ 121.839078598978318, 13.447889400932656 ], [ 121.83914013144242, 13.447888799143497 ], [ 121.839138522219557, 13.44784716628611 ], [ 121.839114983941826, 13.447849714645077 ], [ 121.839107051931222, 13.447745224678016 ], [ 121.839076566848135, 13.447747687955001 ], [ 121.839078598978318, 13.447889400932656 ] ] ] } },
{ "type": "Feature", "properties": { "Id": 0, "CLN": "104 RW", "PSGC": "174001035", "Barangay": "Malusak", "Land_Class": null, "PIN": "030-01-001-45-", "ALN": null, "Section": "45", "Brgy_Code": "01" }, "geometry": { "type": "Polygon", "coordinates": [ [ [ 121.83914013144242, 13.447888799143497 ], [ 121.839205300270336, 13.447884671522811 ], [ 121.839201872855071, 13.447844801573151 ], [ 121.839138522219557, 13.44784716628611 ], [ 121.83914013144242, 13.447888799143497 ] ] ] } },
{ "type": "Feature", "properties": { "Id": 0, "CLN": "102 RW", "PSGC": "174001035", "Barangay": "Malusak", "Land_Class": null, "PIN": "030-01-001-45-", "ALN": null, "Section": "45", "Brgy_Code": "01" }, "geometry": { "type": "Polygon", "coordinates": [ [ [ 121.839205300270336, 13.447884671522811 ], [ 121.839313025789295, 13.447874540641315 ], [ 121.839306888140968, 13.447833772543659 ], [ 121.839201872855071, 13.447844801573151 ], [ 121.839205300270336, 13.447884671522811 ] ] ] } },
{ "type": "Feature", "properties": { "Id": 0, "CLN": "101 pt", "PSGC": "174001035", "Barangay": "Malusak", "Land_Class": null, "PIN": "030-01-001-45-011", "ALN": "011", "Section": "45", "Brgy_Code": "01" }, "geometry": { "type": "Polygon", "coordinates": [ [ [ 121.839298540878616, 13.447764486320294 ], [ 121.83919639200009, 13.447763339565041 ], [ 121.839201872855085, 13.447844801573172 ], [ 121.839306888140996, 13.44783377254366 ], [ 121.839298540878616, 13.447764486320294 ] ] ] } },
{ "type": "Feature", "properties": { "Id": 0, "CLN": "103 pt", "PSGC": "174001035", "Barangay": "Malusak", "Land_Class": null, "PIN": "030-01-001-45-009", "ALN": "009", "Section": "45", "Brgy_Code": "01" }, "geometry": { "type": "Polygon", "coordinates": [ [ [ 121.839156938574817, 13.447780827674844 ], [ 121.839197499845824, 13.447779805490562 ], [ 121.839191739860539, 13.447694194747699 ], [ 121.839132603684675, 13.447692151189443 ], [ 121.839148982773608, 13.447741822483373 ], [ 121.839157126206928, 13.447741860048442 ], [ 121.839156938574817, 13.447780827674844 ] ] ] } },
{ "type": "Feature", "properties": { "Id": 0, "CLN": "105", "PSGC": "174001035", "Barangay": "Malusak", "Land_Class": null, "PIN": "030-01-001-45-001", "ALN": "001", "Section": "45", "Brgy_Code": "01" }, "geometry": { "type": "Polygon", "coordinates": [ [ [ 121.839107051931222, 13.447745224678016 ], [ 121.839114983941826, 13.447849714645077 ], [ 121.839138522219557, 13.44784716628611 ], [ 121.839137019607946, 13.447783392731981 ], [ 121.839156938574817, 13.447780827674844 ], [ 121.839157126206928, 13.447741860048426 ], [ 121.839148982773608, 13.447741822483357 ], [ 121.839107051931222, 13.447745224678016 ] ] ] } },
{ "type": "Feature", "properties": { "Id": 0, "CLN": "106", "PSGC": "174001035", "Barangay": "Malusak", "Land_Class": null, "PIN": "030-01-001-45-010", "ALN": "010", "Section": "45", "Brgy_Code": "01" }, "geometry": { "type": "Polygon", "coordinates": [ [ [ 121.839107051931222, 13.447745224678016 ], [ 121.839148982773608, 13.447741822483357 ], [ 121.839132603684675, 13.447692151189443 ], [ 121.839101252371094, 13.447691070259648 ], [ 121.839107051931222, 13.447745224678016 ] ] ] } },
{ "type": "Feature", "properties": { "Id": 0, "CLN": "107 RW", "PSGC": "174001035", "Barangay": "Malusak", "Land_Class": null, "PIN": "030-01-001-45-", "ALN": null, "Section": "45", "Brgy_Code": "01" }, "geometry": { "type": "Polygon", "coordinates": [ [ [ 121.839076686081995, 13.447747688505055 ], [ 121.839107051931222, 13.447745224678016 ], [ 121.839101252371094, 13.447691070259648 ], [ 121.839074129573135, 13.447690109622195 ], [ 121.839076566848135, 13.447747687955001 ], [ 121.839076686081995, 13.447747688505055 ] ] ] } },
{ "type": "Feature", "properties": { "Id": 0, "CLN": "100 RW", "PSGC": "174001035", "Barangay": "Malusak", "Land_Class": null, "PIN": "030-01-001-45-", "ALN": null, "Section": "45", "Brgy_Code": "01" }, "geometry": { "type": "Polygon", "coordinates": [ [ [ 121.839497937967352, 13.447823822076842 ], [ 121.83937713857344, 13.447833321529055 ], [ 121.839380913357232, 13.447869539866677 ], [ 121.839498596222739, 13.447858569180664 ], [ 121.839498311518255, 13.447843540581641 ], [ 121.839497937967352, 13.447823822076842 ] ] ] } },
{ "type": "Feature", "properties": { "Id": 0, "CLN": "99", "PSGC": "174001035", "Barangay": "Malusak", "Land_Class": null, "PIN": "030-01-001-45-004", "ALN": "004", "Section": "45", "Brgy_Code": "01" }, "geometry": { "type": "Polygon", "coordinates": [ [ [ 121.83937713857344, 13.447833321529055 ], [ 121.839497937967323, 13.447823822076844 ], [ 121.83949811770951, 13.447770002210268 ], [ 121.839475484266458, 13.447772554776561 ], [ 121.839475424581593, 13.447784953568171 ], [ 121.839373123797515, 13.447795995189786 ], [ 121.83937713857344, 13.447833321529055 ] ] ] } },
{ "type": "Feature", "properties": { "Id": 0, "CLN": "20546 RW", "PSGC": "174001035", "Barangay": "Malusak", "Land_Class": null, "PIN": "030-01-001-45-", "ALN": null, "Section": "45", "Brgy_Code": "01" }, "geometry": { "type": "Polygon", "coordinates": [ [ [ 121.839498311518284, 13.447843540581642 ], [ 121.839498596222768, 13.44785856918066 ], [ 121.839607235080265, 13.447846671087907 ], [ 121.839605825936886, 13.447835136516623 ], [ 121.839498311518284, 13.447843540581642 ] ] ] } },
{ "type": "Feature", "properties": { "Id": 0, "CLN": "98 RW", "PSGC": "174001035", "Barangay": "Malusak", "Land_Class": null, "PIN": "030-01-001-45-", "ALN": null, "Section": "45", "Brgy_Code": "01" }, "geometry": { "type": "Polygon", "coordinates": [ [ [ 121.839603472355236, 13.44781555090535 ], [ 121.839497937967323, 13.447823822076844 ], [ 121.839498311518284, 13.447843540581642 ], [ 121.839605825936886, 13.447835136516623 ], [ 121.839603472355236, 13.44781555090535 ] ] ] } },
{ "type": "Feature", "properties": { "Id": 0, "CLN": "97", "PSGC": "174001035", "Barangay": "Malusak", "Land_Class": null, "PIN": "030-01-001-45-005", "ALN": "005", "Section": "45", "Brgy_Code": "01" }, "geometry": { "type": "Polygon", "coordinates": [ [ [ 121.839497937967352, 13.447823822076842 ], [ 121.839603472355236, 13.44781555090535 ], [ 121.839596790651015, 13.447760715103291 ], [ 121.83949811770951, 13.447770002210268 ], [ 121.839497937967352, 13.447823822076842 ] ] ] } },
{ "type": "Feature", "properties": { "Id": 0, "CLN": "95", "PSGC": "174001035", "Barangay": "Malusak", "Land_Class": null, "PIN": "030-01-001-45-006", "ALN": "006", "Section": "45", "Brgy_Code": "01" }, "geometry": { "type": "Polygon", "coordinates": [ [ [ 121.839475484266458, 13.447772554776561 ], [ 121.83949811770951, 13.447770002210268 ], [ 121.839596790651015, 13.447760715103291 ], [ 121.839589961267194, 13.447675661435476 ], [ 121.839473204633947, 13.447682208204828 ], [ 121.839475484266458, 13.447772554776561 ] ] ] } },
{ "type": "Feature", "properties": { "Id": 0, "CLN": "96", "PSGC": "174001035", "Barangay": "Malusak", "Land_Class": null, "PIN": "030-01-001-45-007", "ALN": "007", "Section": "45", "Brgy_Code": "01" }, "geometry": { "type": "Polygon", "coordinates": [ [ [ 121.839373123797515, 13.447795995189786 ], [ 121.839475424581593, 13.447784953568171 ], [ 121.839475484266458, 13.447772554776561 ], [ 121.839473204633947, 13.447682208204828 ], [ 121.839366418136876, 13.447685258312118 ], [ 121.839373123797515, 13.447795995189786 ] ] ] } },
{ "type": "Feature", "properties": { "Id": 0, "CLN": "20543 RW", "PSGC": "174001035", "Barangay": "Malusak", "Land_Class": null, "PIN": "030-01-001-40-", "ALN": null, "Section": "40", "Brgy_Code": "01" }, "geometry": { "type": "Polygon", "coordinates": [ [ [ 121.840773034357809, 13.448158527474209 ], [ 121.840753314185093, 13.447994296539257 ], [ 121.84073172892667, 13.447967037231541 ], [ 121.840754937797669, 13.448158444109568 ], [ 121.840773034357809, 13.448158527474209 ] ] ] } },
{ "type": "Feature", "properties": { "Id": 0, "CLN": "20411 pt", "PSGC": "174001035", "Barangay": "Malusak", "Land_Class": null, "PIN": "030-01-001-40-030", "ALN": "030", "Section": "40", "Brgy_Code": "01" }, "geometry": { "type": "Polygon", "coordinates": [ [ [ 121.840861055598282, 13.447926448412025 ], [ 121.840784172684707, 13.447928442418069 ], [ 121.840790021604846, 13.447990172151197 ], [ 121.840864368800027, 13.447981818600057 ], [ 121.840861055598282, 13.447926448412025 ] ] ] } },
{ "type": "Feature", "properties": { "Id": 0, "CLN": "20409", "PSGC": "174001035", "Barangay": "Malusak", "Land_Class": null, "PIN": "030-01-001-40-011", "ALN": "011", "Section": "40", "Brgy_Code": "01" }, "geometry": { "type": "Polygon", "coordinates": [ [ [ 121.840765327680813, 13.447734757160005 ], [ 121.84077688376685, 13.447859786620711 ], [ 121.841016094335714, 13.447841044666729 ], [ 121.840999871753027, 13.447758939202449 ], [ 121.840862100738022, 13.447700762515058 ], [ 121.840864388704503, 13.447726752062549 ], [ 121.840765327680813, 13.447734757160005 ] ] ] } },
{ "type": "Feature", "properties": { "Id": 0, "CLN": "20410 RW", "PSGC": "174001035", "Barangay": "Malusak", "Land_Class": null, "PIN": "030-01-001-40-", "ALN": null, "Section": "40", "Brgy_Code": "01" }, "geometry": { "type": "Polygon", "coordinates": [ [ [ 121.840723777877074, 13.447864265438087 ], [ 121.84077688376685, 13.447859786620679 ], [ 121.840765327680813, 13.447734757160005 ], [ 121.840712315410414, 13.447739041052435 ], [ 121.840723777877074, 13.447864265438087 ] ] ] } },
{ "type": "Feature", "properties": { "Id": 0, "CLN": "20407 pt", "PSGC": "174001035", "Barangay": "Malusak", "Land_Class": null, "PIN": "030-01-001-40-012", "ALN": "012", "Section": "40", "Brgy_Code": "01" }, "geometry": { "type": "Polygon", "coordinates": [ [ [ 121.840765327680813, 13.447734757160005 ], [ 121.840864388704503, 13.447726752062549 ], [ 121.840862100738022, 13.447700762515058 ], [ 121.840999871753027, 13.447758939202449 ], [ 121.841082494276677, 13.447742634251684 ], [ 121.841011964831651, 13.447647063504174 ], [ 121.840757446192072, 13.447646369737173 ], [ 121.840765327680813, 13.447734757160005 ] ] ] } },
{ "type": "Feature", "properties": { "Id": 0, "CLN": "20397 pt", "PSGC": "174001035", "Barangay": "Malusak", "Land_Class": null, "PIN": "030-01-001-40-020", "ALN": "020", "Section": "40", "Brgy_Code": "01" }, "geometry": { "type": "Polygon", "coordinates": [ [ [ 121.841196830371175, 13.447646573837147 ], [ 121.841121578577585, 13.447575056746748 ], [ 121.840970533779341, 13.447476288555551 ], [ 121.840933288861919, 13.447448385494116 ], [ 121.840883336830387, 13.447549709731613 ], [ 121.841011964831651, 13.447647063504174 ], [ 121.841057181276824, 13.447708333945101 ], [ 121.841196830371175, 13.447646573837147 ] ] ] } },
{ "type": "Feature", "properties": { "Id": 0, "CLN": "20398", "PSGC": "174001035", "Barangay": "Malusak", "Land_Class": null, "PIN": "030-01-001-40-015", "ALN": "015", "Section": "40", "Brgy_Code": "01" }, "geometry": { "type": "Polygon", "coordinates": [ [ [ 121.840772327839346, 13.447552740992927 ], [ 121.840883336830387, 13.447549709731581 ], [ 121.840933288861919, 13.447448385494116 ], [ 121.840774510849656, 13.447349642436301 ], [ 121.840771711895968, 13.447429928297367 ], [ 121.840772327839346, 13.447552740992927 ] ] ] } },
{ "type": "Feature", "properties": { "Id": 0, "CLN": "20404", "PSGC": "174001035", "Barangay": "Malusak", "Land_Class": null, "PIN": "030-01-001-40-017", "ALN": "017", "Section": "40", "Brgy_Code": "01" }, "geometry": { "type": "Polygon", "coordinates": [ [ [ 121.840737344889703, 13.44743421938538 ], [ 121.840771711895968, 13.447429928297367 ], [ 121.840774510849656, 13.447349642436301 ], [ 121.840726401144806, 13.447318718356648 ], [ 121.840737344889703, 13.44743421938538 ] ] ] } },
{ "type": "Feature", "properties": { "Id": 0, "CLN": "PSU-210533", "PSGC": "174001035", "Barangay": "Malusak", "Land_Class": null, "PIN": "030-01-001-40-031", "ALN": "031", "Section": "40", "Brgy_Code": "01" }, "geometry": { "type": "Polygon", "coordinates": [ [ [ 121.840834193822388, 13.447231830944091 ], [ 121.840837648750338, 13.447218244315243 ], [ 121.840744867804901, 13.447186782272047 ], [ 121.840726401144806, 13.447318718356673 ], [ 121.840774510849656, 13.447349642436301 ], [ 121.840933288861919, 13.447448385494116 ], [ 121.840970533779341, 13.447476288555551 ], [ 121.841064865387494, 13.447307169812099 ], [ 121.841017593720409, 13.447291471738311 ], [ 121.840834193822388, 13.447231830944091 ] ] ] } },
{ "type": "Feature", "properties": { "Id": 0, "CLN": "20402 RW", "PSGC": "174001035", "Barangay": "Malusak", "Land_Class": null, "PIN": "030-01-001-40-032", "ALN": "032", "Section": "40", "Brgy_Code": "01" }, "geometry": { "type": "Polygon", "coordinates": [ [ [ 121.840685507337952, 13.447292550966225 ], [ 121.840726401144806, 13.447318718356648 ], [ 121.840744867804901, 13.447186782272047 ], [ 121.840703456343476, 13.447172739621138 ], [ 121.840685507337952, 13.447292550966225 ] ] ] } },
{ "type": "Feature", "properties": { "Id": 0, "CLN": "20544", "PSGC": "174001035", "Barangay": "Malusak", "Land_Class": null, "PIN": "030-01-001-40-019", "ALN": "019", "Section": "40", "Brgy_Code": "01" }, "geometry": { "type": "Polygon", "coordinates": [ [ [ 121.840744867804901, 13.447186782272047 ], [ 121.840837648750338, 13.447218244315243 ], [ 121.84085878801055, 13.447135113371033 ], [ 121.840774462661258, 13.447108745948851 ], [ 121.840744867804901, 13.447186782272047 ] ] ] } },
{ "type": "Feature", "properties": { "Id": 0, "CLN": "20401 RW", "PSGC": "174001035", "Barangay": "Malusak", "Land_Class": null, "PIN": "030-01-001-40-", "ALN": null, "Section": "40", "Brgy_Code": "01" }, "geometry": { "type": "Polygon", "coordinates": [ [ [ 121.840703456343476, 13.447172739621138 ], [ 121.840744867804901, 13.447186782272047 ], [ 121.840774462661258, 13.447108745948851 ], [ 121.84073350074847, 13.447096748622961 ], [ 121.840703456343476, 13.447172739621138 ] ] ] } },
{ "type": "Feature", "properties": { "Id": 0, "CLN": "20392 RW", "PSGC": "174001035", "Barangay": "Malusak", "Land_Class": null, "PIN": "030-01-001-40-", "ALN": null, "Section": "40", "Brgy_Code": "01" }, "geometry": { "type": "Polygon", "coordinates": [ [ [ 121.841165884395096, 13.448157715453029 ], [ 121.841271125921736, 13.448164444926201 ], [ 121.841265372382267, 13.448120341952391 ], [ 121.84116156264146, 13.448119931982166 ], [ 121.841165884395096, 13.448157715453029 ] ] ] } },
{ "type": "Feature", "properties": { "Id": 0, "CLN": "20395", "PSGC": "174001035", "Barangay": "Malusak", "Land_Class": null, "PIN": "030-01-001-40-005", "ALN": "005", "Section": "40", "Brgy_Code": "01" }, "geometry": { "type": "Polygon", "coordinates": [ [ [ 121.841056767033436, 13.448055148647562 ], [ 121.841152988231315, 13.448044969107851 ], [ 121.841141572415196, 13.447958060970487 ], [ 121.841138939913222, 13.447945754295846 ], [ 121.841040066404531, 13.447983060790168 ], [ 121.841056767033436, 13.448055148647562 ] ] ] } },
{ "type": "Feature", "properties": { "Id": 0, "CLN": "20391", "PSGC": "174001035", "Barangay": "Malusak", "Land_Class": null, "PIN": "030-01-001-40-006", "ALN": "006", "Section": "40", "Brgy_Code": "01" }, "geometry": { "type": "Polygon", "coordinates": [ [ [ 121.84116156264146, 13.448119931982166 ], [ 121.841265372382267, 13.448120341952391 ], [ 121.841243002432165, 13.447948868039413 ], [ 121.841141572415182, 13.447958060970453 ], [ 121.841152988231315, 13.448044969107844 ], [ 121.84116156264146, 13.448119931982166 ] ] ] } },
{ "type": "Feature", "properties": { "Id": 0, "CLN": "20390 RW", "PSGC": "174001035", "Barangay": "Malusak", "Land_Class": null, "PIN": "030-01-001-40-", "ALN": null, "Section": "40", "Brgy_Code": "01" }, "geometry": { "type": "Polygon", "coordinates": [ [ [ 121.841265372378388, 13.448120341922815 ], [ 121.841271125921736, 13.448164444926201 ], [ 121.841442970805645, 13.448158796147977 ], [ 121.841440139597623, 13.448121028544644 ], [ 121.841265372378388, 13.448120341922815 ] ] ] } },
{ "type": "Feature", "properties": { "Id": 0, "CLN": "20389", "PSGC": "174001035", "Barangay": "Malusak", "Land_Class": null, "PIN": "030-01-001-40-007", "ALN": "007", "Section": "40", "Brgy_Code": "01" }, "geometry": { "type": "Polygon", "coordinates": [ [ [ 121.841243002432165, 13.447948868039413 ], [ 121.841265372382267, 13.448120341952391 ], [ 121.841440139597623, 13.448121028544644 ], [ 121.841428642627335, 13.447966408250194 ], [ 121.841418116781298, 13.447916303396205 ], [ 121.841243002432165, 13.447948868039413 ] ] ] } },
{ "type": "Feature", "properties": { "Id": 0, "CLN": "20396 pt", "PSGC": "174001035", "Barangay": "Malusak", "Land_Class": null, "PIN": "030-01-001-40-010", "ALN": "010", "Section": "40", "Brgy_Code": "01" }, "geometry": { "type": "Polygon", "coordinates": [ [ [ 121.841115116838907, 13.447860026822093 ], [ 121.841082494276677, 13.447742634251684 ], [ 121.840999871753027, 13.447758939202449 ], [ 121.841020017620778, 13.44786090112477 ], [ 121.841022328359855, 13.447874980742448 ], [ 121.841115116838907, 13.447860026822093 ] ] ] } },
{ "type": "Feature", "properties": { "Id": 0, "CLN": "20 pt", "PSGC": "174001035", "Barangay": "Malusak", "Land_Class": null, "PIN": "030-01-001-43-006", "ALN": "006", "Section": "43", "Brgy_Code": "01" }, "geometry": { "type": "Polygon", "coordinates": [ [ [ 121.840176858707622, 13.445584763857093 ], [ 121.840441462563575, 13.445584655498832 ], [ 121.840505361968667, 13.445583837212114 ], [ 121.840253064617741, 13.44519423959418 ], [ 121.840169495423538, 13.445130061558755 ], [ 121.840176858707622, 13.445584763857093 ] ] ] } },
{ "type": "Feature", "properties": { "Id": 0, "CLN": "28 pt", "PSGC": "174001035", "Barangay": "Malusak", "Land_Class": null, "PIN": "030-01-001-41-035", "ALN": "035", "Section": "41", "Brgy_Code": "01" }, "geometry": { "type": "Polygon", "coordinates": [ [ [ 121.84016843855504, 13.447421671795146 ], [ 121.840160361969012, 13.447315808436175 ], [ 121.84008031125714, 13.4473204406703 ], [ 121.840060106300058, 13.447321609851226 ], [ 121.840038591696583, 13.447322854814397 ], [ 121.840013346713917, 13.447324315637175 ], [ 121.839931810117264, 13.447329033805413 ], [ 121.839940896276588, 13.447435169067765 ], [ 121.84016843855504, 13.447421671795146 ] ] ] } },
{ "type": "Feature", "properties": { "Id": 0, "CLN": "29 pt", "PSGC": "174001035", "Barangay": "Malusak", "Land_Class": null, "PIN": "030-01-001-41-028", "ALN": "028", "Section": "41", "Brgy_Code": "01" }, "geometry": { "type": "Polygon", "coordinates": [ [ [ 121.840013346713917, 13.447324315637175 ], [ 121.840038591696583, 13.447322854814397 ], [ 121.84002036564118, 13.447202698646832 ], [ 121.84000405750065, 13.447207051716102 ], [ 121.840005747839044, 13.447231857646468 ], [ 121.840009767275774, 13.447281205379083 ], [ 121.840013346713917, 13.447324315637175 ] ] ] } },
{ "type": "Feature", "properties": { "Id": 0, "CLN": "29 pt", "PSGC": "174001035", "Barangay": "Malusak", "Land_Class": null, "PIN": "030-01-001-41-039", "ALN": "039", "Section": "41", "Brgy_Code": "01" }, "geometry": { "type": "Polygon", "coordinates": [ [ [ 121.839931810117264, 13.447329033805413 ], [ 121.840013346713917, 13.447324315637175 ], [ 121.840009767275774, 13.447281205379083 ], [ 121.839928059164421, 13.44728435003017 ], [ 121.839931810117264, 13.447329033805413 ] ] ] } },
{ "type": "Feature", "properties": { "Id": 0, "CLN": "30 pt", "PSGC": "174001035", "Barangay": "Malusak", "Land_Class": null, "PIN": "030-01-001-41-016", "ALN": "016", "Section": "41", "Brgy_Code": "01" }, "geometry": { "type": "Polygon", "coordinates": [ [ [ 121.840060106300058, 13.447321609851226 ], [ 121.840080311257111, 13.447320440670302 ], [ 121.840075305343149, 13.447263575195333 ], [ 121.840069264494872, 13.447194953201455 ], [ 121.840045777788902, 13.447198673433052 ], [ 121.840060106300058, 13.447321609851226 ] ] ] } },
{ "type": "Feature", "properties": { "Id": 0, "CLN": "11 pt", "PSGC": "174001035", "Barangay": "Malusak", "Land_Class": null, "PIN": "030-01-001-41-032", "ALN": "032", "Section": "41", "Brgy_Code": "01" }, "geometry": { "type": "Polygon", "coordinates": [ [ [ 121.840237912726494, 13.447447004672528 ], [ 121.840327760526037, 13.44744324027098 ], [ 121.840332574327533, 13.447383038396655 ], [ 121.840234573368932, 13.447391474760201 ], [ 121.840237912726494, 13.447447004672528 ] ] ] } },
{ "type": "Feature", "properties": { "Id": 0, "CLN": "42 pt", "PSGC": "174001035", "Barangay": "Malusak", "Land_Class": null, "PIN": "030-01-001-42-011", "ALN": "011", "Section": "42", "Brgy_Code": "01" }, "geometry": { "type": "Polygon", "coordinates": [ [ [ 121.839705355942783, 13.446785657758975 ], [ 121.839715287568353, 13.446896647100095 ], [ 121.839766810643255, 13.446891696394161 ], [ 121.83983096915793, 13.446885649330397 ], [ 121.839832223431017, 13.44681303199331 ], [ 121.839802492133899, 13.446786325498541 ], [ 121.839760008092782, 13.446777273163917 ], [ 121.839705355942783, 13.446785657758975 ] ] ] } },
{ "type": "Feature", "properties": { "Id": 0, "CLN": "20 pt", "PSGC": "174001035", "Barangay": "Malusak", "Land_Class": null, "PIN": "030-01-001-43-003", "ALN": "003", "Section": "43", "Brgy_Code": "01" }, "geometry": { "type": "Polygon", "coordinates": [ [ [ 121.840596535260957, 13.446826835061559 ], [ 121.840341135764419, 13.446825648179658 ], [ 121.840340042362413, 13.447052973223986 ], [ 121.840340579703266, 13.447051215632682 ], [ 121.840559978975193, 13.44705343814204 ], [ 121.840596535260957, 13.446826835061559 ] ] ] } },
{ "type": "Feature", "properties": { "Id": 0, "CLN": "88 pt", "PSGC": "174001035", "Barangay": "Malusak", "Land_Class": null, "PIN": "030-01-001-44-036", "ALN": "036", "Section": "44", "Brgy_Code": "01" }, "geometry": { "type": "Polygon", "coordinates": [ [ [ 121.83912120251955, 13.447424929663651 ], [ 121.839118949715512, 13.447399407897006 ], [ 121.839080897425191, 13.447400740000118 ], [ 121.839083543847025, 13.447426230086037 ], [ 121.83912120251955, 13.447424929663651 ] ] ] } },
{ "type": "Feature", "properties": { "Id": 0, "CLN": "88 pt", "PSGC": "174001035", "Barangay": "Malusak", "Land_Class": null, "PIN": "030-01-001-44-029", "ALN": "029", "Section": "44", "Brgy_Code": "01" }, "geometry": { "type": "Polygon", "coordinates": [ [ [ 121.839179864780803, 13.447397275420711 ], [ 121.839176987372753, 13.447346714739798 ], [ 121.839075868956499, 13.447352306254544 ], [ 121.839080897425191, 13.447400740000118 ], [ 121.839179864780803, 13.447397275420711 ] ] ] } },
{ "type": "Feature", "properties": { "Id": 0, "CLN": "89 RW", "PSGC": "174001035", "Barangay": "Malusak", "Land_Class": null, "PIN": "030-01-001-44-", "ALN": null, "Section": "44", "Brgy_Code": "01" }, "geometry": { "type": "Polygon", "coordinates": [ [ [ 121.839080897425191, 13.447400740000118 ], [ 121.839075868956499, 13.447352306254544 ], [ 121.839070572778496, 13.447301293944786 ], [ 121.839036174223949, 13.447302032070425 ], [ 121.839043723030372, 13.44742781768038 ], [ 121.839083543847025, 13.447426230086037 ], [ 121.839080897425191, 13.447400740000118 ] ] ] } },
{ "type": "Feature", "properties": { "Id": 0, "CLN": "80 pt", "PSGC": "174001035", "Barangay": "Malusak", "Land_Class": null, "PIN": "030-01-001-44-034", "ALN": "034", "Section": "44", "Brgy_Code": "01" }, "geometry": { "type": "Polygon", "coordinates": [ [ [ 121.839417214424685, 13.447277016384778 ], [ 121.839411921757332, 13.447255043422592 ], [ 121.839342211924603, 13.447262692757688 ], [ 121.839301477781817, 13.447266047478022 ], [ 121.839307552740081, 13.44731402849991 ], [ 121.839384580800086, 13.447302740196552 ], [ 121.839382573824693, 13.447282835146801 ], [ 121.839417214424685, 13.447277016384778 ] ] ] } },
{ "type": "Feature", "properties": { "Id": 0, "CLN": "81 pt", "PSGC": "174001035", "Barangay": "Malusak", "Land_Class": null, "PIN": "030-01-001-44-007", "ALN": "007", "Section": "44", "Brgy_Code": "01" }, "geometry": { "type": "Polygon", "coordinates": [ [ [ 121.839550950910791, 13.447344687811485 ], [ 121.839545639651689, 13.447296399853368 ], [ 121.839485574135267, 13.447299605897955 ], [ 121.839489500397548, 13.447348504133933 ], [ 121.839550950910791, 13.447344687811485 ] ] ] } },
{ "type": "Feature", "properties": { "Id": 0, "CLN": "46 pt", "PSGC": "174001035", "Barangay": "Malusak", "Land_Class": null, "PIN": "030-01-001-44-045", "ALN": "045", "Section": "44", "Brgy_Code": "01" }, "geometry": { "type": "Polygon", "coordinates": [ [ [ 121.839513104413825, 13.446910778369393 ], [ 121.839420972689339, 13.446922603040285 ], [ 121.839428665078216, 13.447000699895709 ], [ 121.839521003940092, 13.446991383583715 ], [ 121.839513104413825, 13.446910778369393 ] ] ] } },
{ "type": "Feature", "properties": { "Id": 0, "CLN": "56 pt", "PSGC": "174001035", "Barangay": "Malusak", "Land_Class": null, "PIN": "030-01-001-44-035", "ALN": "035", "Section": "44", "Brgy_Code": "01" }, "geometry": { "type": "Polygon", "coordinates": [ [ [ 121.839257325828868, 13.447070442871683 ], [ 121.839230655143979, 13.446973125558999 ], [ 121.839195143942902, 13.447015564538855 ], [ 121.839212002997428, 13.447084722814575 ], [ 121.839257325828868, 13.447070442871683 ] ] ] } },
{ "type": "Feature", "properties": { "Id": 0, "CLN": "103 pt", "PSGC": "174001035", "Barangay": "Malusak", "Land_Class": null, "PIN": "030-01-001-45-002", "ALN": "002", "Section": "45", "Brgy_Code": "01" }, "geometry": { "type": "Polygon", "coordinates": [ [ [ 121.839197499845824, 13.447779805490562 ], [ 121.839156938574817, 13.447780827674844 ], [ 121.839137019607946, 13.447783392731981 ], [ 121.839138522219557, 13.447847166286126 ], [ 121.839201872855085, 13.447844801573172 ], [ 121.839197499845824, 13.447779805490562 ] ] ] } },
{ "type": "Feature", "properties": { "Id": 0, "CLN": "101 pt", "PSGC": "174001035", "Barangay": "Malusak", "Land_Class": null, "PIN": "030-01-001-45-008", "ALN": "008", "Section": "45", "Brgy_Code": "01" }, "geometry": { "type": "Polygon", "coordinates": [ [ [ 121.83919639200009, 13.447763339565041 ], [ 121.839298540878616, 13.447764486320294 ], [ 121.839289486627351, 13.44768933172546 ], [ 121.839191739860539, 13.447694194747699 ], [ 121.83919639200009, 13.447763339565041 ] ] ] } },
{ "type": "Feature", "properties": { "Id": 0, "CLN": "20396 pt", "PSGC": "174001035", "Barangay": "Malusak", "Land_Class": null, "PIN": "030-01-001-40-009", "ALN": "009", "Section": "40", "Brgy_Code": "01" }, "geometry": { "type": "Polygon", "coordinates": [ [ [ 121.841115116838907, 13.447860026822093 ], [ 121.841022328359855, 13.447874980742448 ], [ 121.841040066404531, 13.447983060790168 ], [ 121.841138939913222, 13.447945754295846 ], [ 121.841115116838907, 13.447860026822093 ] ] ] } },
{ "type": "Feature", "properties": { "Id": 0, "CLN": "20407 pt", "PSGC": "174001035", "Barangay": "Malusak", "Land_Class": null, "PIN": "030-01-001-40-013", "ALN": "013", "Section": "40", "Brgy_Code": "01" }, "geometry": { "type": "Polygon", "coordinates": [ [ [ 121.840757446192072, 13.447646369737173 ], [ 121.841011964831651, 13.447647063504174 ], [ 121.840883336830387, 13.447549709731613 ], [ 121.840772327839346, 13.447552740992927 ], [ 121.840748909108541, 13.447556268870773 ], [ 121.840757446192072, 13.447646369737173 ] ] ] } },
{ "type": "Feature", "properties": { "Id": 0, "CLN": "20397 pt", "PSGC": "174001035", "Barangay": "Malusak", "Land_Class": null, "PIN": "030-01-001-40-023", "ALN": "023", "Section": "40", "Brgy_Code": "01" }, "geometry": { "type": "Polygon", "coordinates": [ [ [ 121.841115116838907, 13.447860026822093 ], [ 121.841138939913222, 13.447945754295846 ], [ 121.841141572415196, 13.447958060970487 ], [ 121.841243002432165, 13.447948868039413 ], [ 121.841201419707772, 13.44785945926462 ], [ 121.841266817855441, 13.447850166939697 ], [ 121.841353837806082, 13.44783780237734 ], [ 121.841300999566414, 13.447773273366129 ], [ 121.841115116838907, 13.447860026822093 ] ] ] } },
{ "type": "Feature", "properties": { "Id": 0, "CLN": "20397 pt", "PSGC": "174001035", "Barangay": "Malusak", "Land_Class": null, "PIN": "030-01-001-40-024", "ALN": "024", "Section": "40", "Brgy_Code": "01" }, "geometry": { "type": "Polygon", "coordinates": [ [ [ 121.841266817855441, 13.447850166939697 ], [ 121.841201419707772, 13.44785945926462 ], [ 121.841242622708364, 13.447948902455087 ], [ 121.841243002432165, 13.447948868039413 ], [ 121.841312142722373, 13.447936010577362 ], [ 121.841266817855441, 13.447850166939697 ] ] ] } },
{ "type": "Feature", "properties": { "Id": 0, "CLN": "20397 pt", "PSGC": "174001035", "Barangay": "Malusak", "Land_Class": null, "PIN": "030-01-001-40-021", "ALN": "021", "Section": "40", "Brgy_Code": "01" }, "geometry": { "type": "Polygon", "coordinates": [ [ [ 121.841196830371175, 13.447646573837147 ], [ 121.841057181276824, 13.447708333945101 ], [ 121.841082494276677, 13.447742634251684 ], [ 121.841115116838907, 13.447860026822093 ], [ 121.841300999566414, 13.447773273366129 ], [ 121.84119868882054, 13.447648325643064 ], [ 121.841196830371175, 13.447646573837147 ] ] ] } },
{ "type": "Feature", "properties": { "Id": 0, "CLN": "20 pt", "PSGC": "174001035", "Barangay": "Malusak", "Land_Class": null, "PIN": "030-01-001-43-002", "ALN": "002", "Section": "43", "Brgy_Code": "01" }, "geometry": { "type": "Polygon", "coordinates": [ [ [ 121.840740042531252, 13.445941273282401 ], [ 121.840433440889058, 13.445929668635824 ], [ 121.840182426862611, 13.445920058910465 ], [ 121.840199889381154, 13.446983173777344 ], [ 121.840337132301883, 13.447062491758121 ], [ 121.840340042362413, 13.447052973223986 ], [ 121.840341135764419, 13.446825648179658 ], [ 121.840596535260957, 13.446826835061559 ], [ 121.840660090544432, 13.446433351799447 ], [ 121.840673704969603, 13.446349330204782 ], [ 121.840686948092355, 13.446267595702604 ], [ 121.840719491960712, 13.446063289716538 ], [ 121.840740042531252, 13.445941273282401 ] ] ] } },
{ "type": "Feature", "properties": { "Id": 0, "CLN": "58 pt", "PSGC": "174001035", "Barangay": "Malusak", "Land_Class": null, "PIN": "030-01-001-43-001", "ALN": "001", "Section": "43", "Brgy_Code": "01" }, "geometry": { "type": "Polygon", "coordinates": [ [ [ 121.840135986712994, 13.44694998494268 ], [ 121.840114595579749, 13.446129064404792 ], [ 121.839818695183837, 13.446109346891335 ], [ 121.838935615950717, 13.446035426331173 ], [ 121.839029202156922, 13.447066127992995 ], [ 121.839348817256194, 13.44682744585433 ], [ 121.839507161994945, 13.446781015327815 ], [ 121.839707880606952, 13.446748263284075 ], [ 121.839758684547164, 13.44674306210249 ], [ 121.83980324940697, 13.446752597602064 ], [ 121.839840951077889, 13.446775728898963 ], [ 121.840135986712994, 13.44694998494268 ] ] ] } },
{ "type": "Feature", "properties": { "Id": 0, "CLN": "20 pt", "PSGC": "174001035", "Barangay": "Malusak", "Land_Class": null, "PIN": "030-01-001-43-005", "ALN": "005", "Section": "43", "Brgy_Code": "01" }, "geometry": { "type": "Polygon", "coordinates": [ [ [ 121.840433440889058, 13.445929668635824 ], [ 121.840441462563575, 13.445584655498832 ], [ 121.840176858707622, 13.445584763857093 ], [ 121.840182426862611, 13.445920058910465 ], [ 121.840433440889058, 13.445929668635824 ] ] ] } },
{ "type": "Feature", "properties": { "Id": 0, "CLN": "20 pt", "PSGC": "174001035", "Barangay": "Malusak", "Land_Class": null, "PIN": "030-01-001-43-004", "ALN": "004", "Section": "43", "Brgy_Code": "01" }, "geometry": { "type": "Polygon", "coordinates": [ [ [ 121.840739548833767, 13.445941254500331 ], [ 121.840740042531252, 13.445941273282401 ], [ 121.840505361968667, 13.445583837212114 ], [ 121.840441462563575, 13.445584655498832 ], [ 121.840433440889058, 13.445929668635824 ], [ 121.840739548833767, 13.445941254500331 ] ] ] } },
{ "type": "Feature", "properties": { "Id": 0, "CLN": "20412 RW", "PSGC": "174001035", "Barangay": "Malusak", "Land_Class": null, "PIN": "030-01-001-40-", "ALN": null, "Section": "40", "Brgy_Code": "01" }, "geometry": { "type": "Polygon", "coordinates": [ [ [ 121.840753314185093, 13.447994296539257 ], [ 121.840790021604846, 13.447990172151197 ], [ 121.840780340414781, 13.447887996480938 ], [ 121.840725509704754, 13.44788553607018 ], [ 121.84073172892667, 13.447967037231541 ], [ 121.840753314185093, 13.447994296539257 ] ] ] } },
{ "type": "Feature", "properties": { "Id": 0, "CLN": "20403 RW", "PSGC": "174001035", "Barangay": "Malusak", "Land_Class": null, "PIN": "030-01-001-40-", "ALN": null, "Section": "40", "Brgy_Code": "01" }, "geometry": { "type": "Polygon", "coordinates": [ [ [ 121.840737344889703, 13.44743421938538 ], [ 121.840726401144806, 13.447318718356648 ], [ 121.840685507337952, 13.447292550966225 ], [ 121.840689623302083, 13.447440177927469 ], [ 121.840737344889703, 13.44743421938538 ] ] ] } },
{ "type": "Feature", "properties": { "Id": 0, "CLN": "20411 pt", "PSGC": "174001035", "Barangay": "Malusak", "Land_Class": null, "PIN": "030-01-001-40-029", "ALN": "029", "Section": "40", "Brgy_Code": "01" }, "geometry": { "type": "Polygon", "coordinates": [ [ [ 121.840784172684707, 13.447928442418069 ], [ 121.840861055598282, 13.447926448412025 ], [ 121.84085878514523, 13.447888504623368 ], [ 121.840780340414781, 13.447887996480938 ], [ 121.840784172684707, 13.447928442418069 ] ] ] } },
{ "type": "Feature", "properties": { "Id": 0, "CLN": "20413", "PSGC": "174001035", "Barangay": "Malusak", "Land_Class": null, "PIN": "030-01-001-40-001", "ALN": "001", "Section": "40", "Brgy_Code": "01" }, "geometry": { "type": "Polygon", "coordinates": [ [ [ 121.840970757631894, 13.448119178334524 ], [ 121.84095353723724, 13.448004665728902 ], [ 121.841040066404531, 13.447983060790168 ], [ 121.841020017620778, 13.44786090112477 ], [ 121.84085878514523, 13.44788850462338 ], [ 121.840864368800027, 13.447981818600057 ], [ 121.840790021604846, 13.447990172151197 ], [ 121.840802181903882, 13.448118512368426 ], [ 121.840970757631894, 13.448119178334524 ] ] ] } },
{ "type": "Feature", "properties": { "Id": 0, "CLN": "20414 RW", "PSGC": "174001035", "Barangay": "Malusak", "Land_Class": null, "PIN": "030-01-001-40-", "ALN": null, "Section": "40", "Brgy_Code": "01" }, "geometry": { "type": "Polygon", "coordinates": [ [ [ 121.840975749902199, 13.448152376041934 ], [ 121.840970757631894, 13.448119178334533 ], [ 121.840802181903925, 13.448118512369058 ], [ 121.840802181903882, 13.448118512368426 ], [ 121.840790021604846, 13.447990172151197 ], [ 121.840753314185093, 13.447994296539257 ], [ 121.840773034357809, 13.448158527474209 ], [ 121.840975749902199, 13.448152376041934 ] ] ] } },
{ "type": "Feature", "properties": { "Id": 0, "CLN": "20542 RW", "PSGC": "174001035", "Barangay": "Malusak", "Land_Class": null, "PIN": "030-01-001-40-", "ALN": null, "Section": "40", "Brgy_Code": "01" }, "geometry": { "type": "Polygon", "coordinates": [ [ [ 121.841055797767382, 13.448163453324922 ], [ 121.841056190984176, 13.44811951579976 ], [ 121.840970757631894, 13.448119178334524 ], [ 121.840975749902199, 13.448152376041952 ], [ 121.841055797767382, 13.448163453324922 ] ] ] } },
{ "type": "Feature", "properties": { "Id": 0, "CLN": "20415", "PSGC": "174001035", "Barangay": "Malusak", "Land_Class": null, "PIN": "030-01-001-40-003", "ALN": "003", "Section": "40", "Brgy_Code": "01" }, "geometry": { "type": "Polygon", "coordinates": [ [ [ 121.841056190984176, 13.44811951579976 ], [ 121.841056767033436, 13.448055148647562 ], [ 121.841040066404531, 13.447983060790168 ], [ 121.84095353723724, 13.448004665728902 ], [ 121.840970757631894, 13.448119178334524 ], [ 121.841056190984176, 13.44811951579976 ] ] ] } },
{ "type": "Feature", "properties": { "Id": 0, "CLN": "20394 RW", "PSGC": "174001035", "Barangay": "Malusak", "Land_Class": null, "PIN": "030-01-001-40-", "ALN": null, "Section": "40", "Brgy_Code": "01" }, "geometry": { "type": "Polygon", "coordinates": [ [ [ 121.841165884395096, 13.448157715453029 ], [ 121.84116156264146, 13.448119931982166 ], [ 121.841056190984176, 13.44811951579976 ], [ 121.841055797767382, 13.448163453324922 ], [ 121.841165884395096, 13.448157715453029 ] ] ] } },
{ "type": "Feature", "properties": { "Id": 0, "CLN": "20393", "PSGC": "174001035", "Barangay": "Malusak", "Land_Class": null, "PIN": "030-01-001-40-004", "ALN": "004", "Section": "40", "Brgy_Code": "01" }, "geometry": { "type": "Polygon", "coordinates": [ [ [ 121.84116156264146, 13.448119931982166 ], [ 121.841152988231315, 13.448044969107853 ], [ 121.841056767033436, 13.448055148647562 ], [ 121.841056190984176, 13.44811951579976 ], [ 121.84116156264146, 13.448119931982166 ] ] ] } },
{ "type": "Feature", "properties": { "Id": 0, "CLN": "20397 pt", "PSGC": "174001035", "Barangay": "Malusak", "Land_Class": null, "PIN": "030-01-001-40-025", "ALN": "025", "Section": "40", "Brgy_Code": "01" }, "geometry": { "type": "Polygon", "coordinates": [ [ [ 121.841266817855441, 13.447850166939697 ], [ 121.841312142722373, 13.447936010577362 ], [ 121.841418116781298, 13.447916303396205 ], [ 121.841353837806082, 13.44783780237734 ], [ 121.841266817855441, 13.447850166939697 ] ] ] } },
{ "type": "Feature", "properties": { "Id": 0, "CLN": "20408 RW", "PSGC": "174001035", "Barangay": "Malusak", "Land_Class": null, "PIN": "030-01-001-40-", "ALN": null, "Section": "40", "Brgy_Code": "01" }, "geometry": { "type": "Polygon", "coordinates": [ [ [ 121.840757446192072, 13.447646369737173 ], [ 121.840748909108541, 13.447556268870773 ], [ 121.840696265696593, 13.447564199246269 ], [ 121.84070378589584, 13.447646122544215 ], [ 121.840712315410443, 13.447739041052449 ], [ 121.840765327680813, 13.447734757160005 ], [ 121.840757446192072, 13.447646369737173 ] ] ] } },
{ "type": "Feature", "properties": { "Id": 0, "CLN": "20406", "PSGC": "174001035", "Barangay": "Malusak", "Land_Class": null, "PIN": "030-01-001-40-016", "ALN": "016", "Section": "40", "Brgy_Code": "01" }, "geometry": { "type": "Polygon", "coordinates": [ [ [ 121.840771711895968, 13.447429928297367 ], [ 121.840737344889703, 13.44743421938538 ], [ 121.840748909108541, 13.447556268870773 ], [ 121.840772327839346, 13.447552740992927 ], [ 121.840771711895968, 13.447429928297367 ] ] ] } },
{ "type": "Feature", "properties": { "Id": 0, "CLN": "20405 RW", "PSGC": "174001035", "Barangay": "Malusak", "Land_Class": null, "PIN": "030-01-001-40-", "ALN": null, "Section": "40", "Brgy_Code": "01" }, "geometry": { "type": "Polygon", "coordinates": [ [ [ 121.840737344889703, 13.44743421938538 ], [ 121.840689623302083, 13.447440177927469 ], [ 121.840696265696593, 13.447564199246269 ], [ 121.840748909108541, 13.447556268870773 ], [ 121.840737344889703, 13.44743421938538 ] ] ] } },
{ "type": "Feature", "properties": { "Id": 0, "CLN": "2 RW", "PSGC": "174001035", "Barangay": "Malusak", "Land_Class": null, "PIN": "030-01-001-41-", "ALN": null, "Section": "41", "Brgy_Code": "01" }, "geometry": { "type": "Polygon", "coordinates": [ [ [ 121.840583748887113, 13.447761098970117 ], [ 121.840586672894105, 13.44779072230318 ], [ 121.84064188538423, 13.447787444544641 ], [ 121.840625863081257, 13.447546463316998 ], [ 121.840563767111462, 13.447558661997396 ], [ 121.840583748887113, 13.447761098970117 ] ] ] } },
{ "type": "Feature", "properties": { "Id": 0, "CLN": "11 pt", "PSGC": "174001035", "Barangay": "Malusak", "Land_Class": null, "PIN": "030-01-001-41-038", "ALN": "038", "Section": "41", "Brgy_Code": "01" }, "geometry": { "type": "Polygon", "coordinates": [ [ [ 121.840341529641336, 13.447443451830654 ], [ 121.840347370415188, 13.447575072011137 ], [ 121.84040856436016, 13.447574688506457 ], [ 121.840410095359204, 13.447444505317845 ], [ 121.840341529641336, 13.447443451830654 ] ] ] } },
{ "type": "Feature", "properties": { "Id": 0, "CLN": "11 pt", "PSGC": "174001035", "Barangay": "Malusak", "Land_Class": null, "PIN": "030-01-001-41-046", "ALN": "046", "Section": "41", "Brgy_Code": "01" }, "geometry": { "type": "Polygon", "coordinates": [ [ [ 121.840243163672895, 13.447533932640185 ], [ 121.840345345055795, 13.447529431113002 ], [ 121.840343439284084, 13.447486485088087 ], [ 121.840240515647693, 13.447490095316423 ], [ 121.840243163672895, 13.447533932640185 ] ] ] } },
{ "type": "Feature", "properties": { "Id": 0, "CLN": "11 pt", "PSGC": "174001035", "Barangay": "Malusak", "Land_Class": null, "PIN": "030-01-001-41-045", "ALN": "045", "Section": "41", "Brgy_Code": "01" }, "geometry": { "type": "Polygon", "coordinates": [ [ [ 121.840345345055795, 13.447529431113002 ], [ 121.840243163672895, 13.447533932640185 ], [ 121.840245687218285, 13.447575709230501 ], [ 121.840347370415188, 13.447575072011137 ], [ 121.840345345055795, 13.447529431113002 ] ] ] } },
{ "type": "Feature", "properties": { "Id": 0, "CLN": "13", "PSGC": "174001035", "Barangay": "Malusak", "Land_Class": null, "PIN": "030-01-001-41-006", "ALN": "006", "Section": "41", "Brgy_Code": "01" }, "geometry": { "type": "Polygon", "coordinates": [ [ [ 121.840354656472115, 13.447306974432804 ], [ 121.840346543731471, 13.44720975652122 ], [ 121.840224766448316, 13.447222239315872 ], [ 121.840229742949177, 13.447310793218866 ], [ 121.840303051645847, 13.447312936167048 ], [ 121.840354656472115, 13.447306974432804 ] ] ] } },
{ "type": "Feature", "properties": { "Id": 0, "CLN": "14", "PSGC": "174001035", "Barangay": "Malusak", "Land_Class": null, "PIN": "030-01-001-41-010", "ALN": "010", "Section": "41", "Brgy_Code": "01" }, "geometry": { "type": "Polygon", "coordinates": [ [ [ 121.840346543731471, 13.44720975652122 ], [ 121.840342679020793, 13.447163444278525 ], [ 121.840342679020779, 13.447163444278353 ], [ 121.840218559983825, 13.447167587570247 ], [ 121.840224766448316, 13.447222239315872 ], [ 121.840346543731471, 13.44720975652122 ] ] ] } },
{ "type": "Feature", "properties": { "Id": 0, "CLN": "15", "PSGC": "174001035", "Barangay": "Malusak", "Land_Class": null, "PIN": "030-01-001-41-011", "ALN": "011", "Section": "41", "Brgy_Code": "01" }, "geometry": { "type": "Polygon", "coordinates": [ [ [ 121.840212844246054, 13.447120456578574 ], [ 121.840218559983825, 13.447167587570247 ], [ 121.840342679020779, 13.447163444278353 ], [ 121.840345704804577, 13.44712093190798 ], [ 121.840347531145056, 13.44709527174707 ], [ 121.840200424023237, 13.447015771176268 ], [ 121.840212844246054, 13.447120456578574 ] ] ] } },
{ "type": "Feature", "properties": { "Id": 0, "CLN": "124130", "PSGC": "174001035", "Barangay": "Malusak", "Land_Class": null, "PIN": "030-01-001-41-047", "ALN": "023", "Section": "41", "Brgy_Code": "01" }, "geometry": { "type": "Polygon", "coordinates": [ [ [ 121.839890582761356, 13.447572287551946 ], [ 121.839874880190834, 13.447418318934226 ], [ 121.839755270570194, 13.447431305950428 ], [ 121.839756434616547, 13.447444464270278 ], [ 121.839768549966323, 13.447579726566763 ], [ 121.839890582761356, 13.447572287551946 ] ] ] } },
{ "type": "Feature", "properties": { "Id": 0, "CLN": "40", "PSGC": "174001035", "Barangay": "Malusak", "Land_Class": null, "PIN": "030-01-001-42-001", "ALN": "001", "Section": "42", "Brgy_Code": "01" }, "geometry": { "type": "Polygon", "coordinates": [ [ [ 121.839644485147332, 13.446987938598193 ], [ 121.839573975183256, 13.446994230125199 ], [ 121.839587393940377, 13.447109480860114 ], [ 121.839658000025437, 13.447103606880836 ], [ 121.839644485147332, 13.446987938598193 ] ] ] } },
{ "type": "Feature", "properties": { "Id": 0, "CLN": "39 pt", "PSGC": "174001035", "Barangay": "Malusak", "Land_Class": null, "PIN": "030-01-001-42-008", "ALN": "008", "Section": "42", "Brgy_Code": "01" }, "geometry": { "type": "Polygon", "coordinates": [ [ [ 121.839725370367916, 13.44698067862282 ], [ 121.83967250442079, 13.446985804317299 ], [ 121.839644485147332, 13.446987938598193 ], [ 121.839658000025437, 13.447103606880868 ], [ 121.83973493987456, 13.447097762082802 ], [ 121.839725370367916, 13.44698067862282 ] ] ] } },
{ "type": "Feature", "properties": { "Id": 0, "CLN": "39 pt", "PSGC": "174001035", "Barangay": "Malusak", "Land_Class": null, "PIN": "030-01-001-42-010", "ALN": "010", "Section": "42", "Brgy_Code": "01" }, "geometry": { "type": "Polygon", "coordinates": [ [ [ 121.839766810643283, 13.446891696394161 ], [ 121.839715287568353, 13.446896647100095 ], [ 121.83966359581261, 13.446901496115231 ], [ 121.83967250442079, 13.446985804317299 ], [ 121.839725370367916, 13.44698067862282 ], [ 121.839769902790735, 13.446977475177684 ], [ 121.839769902790735, 13.446977475177684 ], [ 121.839766810643283, 13.446891696394161 ] ] ] } },
{ "type": "Feature", "properties": { "Id": 0, "CLN": "38", "PSGC": "174001035", "Barangay": "Malusak", "Land_Class": null, "PIN": "030-01-001-42-003", "ALN": "003", "Section": "42", "Brgy_Code": "01" }, "geometry": { "type": "Polygon", "coordinates": [ [ [ 121.839830969157902, 13.446885649330397 ], [ 121.839766810643255, 13.446891696394161 ], [ 121.839769902790735, 13.446977475177684 ], [ 121.839725370367916, 13.44698067862282 ], [ 121.83973493987456, 13.447097762082786 ], [ 121.839841760212295, 13.447087626772369 ], [ 121.839830969157902, 13.446885649330397 ] ] ] } },
{ "type": "Feature", "properties": { "Id": 0, "CLN": "39 pt", "PSGC": "174001035", "Barangay": "Malusak", "Land_Class": null, "PIN": "030-01-001-42-009", "ALN": "009", "Section": "42", "Brgy_Code": "01" }, "geometry": { "type": "Polygon", "coordinates": [ [ [ 121.83966359581261, 13.446901496115231 ], [ 121.839564324105751, 13.446910781030727 ], [ 121.839573975183256, 13.446994230125199 ], [ 121.839644485147332, 13.446987938598193 ], [ 121.83967250442079, 13.446985804317299 ], [ 121.83966359581261, 13.446901496115231 ] ] ] } },
{ "type": "Feature", "properties": { "Id": 0, "CLN": "87", "PSGC": "174001035", "Barangay": "Malusak", "Land_Class": null, "PIN": "030-01-001-44-038", "ALN": "038", "Section": "44", "Brgy_Code": "01" }, "geometry": { "type": "Polygon", "coordinates": [ [ [ 121.839175868315621, 13.447331062294516 ], [ 121.839176987372753, 13.447346714739798 ], [ 121.839179864780803, 13.447397275420713 ], [ 121.839181286239153, 13.447422252725017 ], [ 121.839211871848093, 13.447416526017667 ], [ 121.839266395195651, 13.447411131875137 ], [ 121.839250223785953, 13.447330022488927 ], [ 121.839239110441, 13.447274282326546 ], [ 121.839173110864863, 13.447279345197318 ], [ 121.839175868315621, 13.447331062294516 ] ] ] } },
{ "type": "Feature", "properties": { "Id": 0, "CLN": "88 pt", "PSGC": "174001035", "Barangay": "Malusak", "Land_Class": null, "PIN": "030-01-001-44-037", "ALN": "037", "Section": "44", "Brgy_Code": "01" }, "geometry": { "type": "Polygon", "coordinates": [ [ [ 121.839118949715512, 13.447399407897006 ], [ 121.83912120251955, 13.447424929663651 ], [ 121.839181286239153, 13.447422252725017 ], [ 121.839179864780803, 13.447397275420713 ], [ 121.839118949715512, 13.447399407897006 ] ] ] } },
{ "type": "Feature", "properties": { "Id": 0, "CLN": "55", "PSGC": "174001035", "Barangay": "Malusak", "Land_Class": null, "PIN": "030-01-001-44-021", "ALN": "021", "Section": "44", "Brgy_Code": "01" }, "geometry": { "type": "Polygon", "coordinates": [ [ [ 121.839370687690959, 13.44703533494085 ], [ 121.839305164614444, 13.44705550910983 ], [ 121.83931672802683, 13.44713391645521 ], [ 121.839452515530795, 13.447121257966996 ], [ 121.839435664930434, 13.447050328445753 ], [ 121.839372743925296, 13.447056227564859 ], [ 121.839370687690959, 13.44703533494085 ] ] ] } },
{ "type": "Feature", "properties": { "Id": 0, "CLN": "56 pt", "PSGC": "174001035", "Barangay": "Malusak", "Land_Class": null, "PIN": "030-01-001-44-026", "ALN": "026", "Section": "44", "Brgy_Code": "01" }, "geometry": { "type": "Polygon", "coordinates": [ [ [ 121.839305164614444, 13.44705550910983 ], [ 121.839257325828868, 13.447070442871683 ], [ 121.839212002997428, 13.447084722814575 ], [ 121.839224389108338, 13.447143232687081 ], [ 121.83931672802683, 13.447133916455197 ], [ 121.839305164614444, 13.44705550910983 ] ] ] } },
{ "type": "Feature", "properties": { "Id": 0, "CLN": "54", "PSGC": "174001035", "Barangay": "Malusak", "Land_Class": null, "PIN": "030-01-001-44-024", "ALN": "024", "Section": "44", "Brgy_Code": "01" }, "geometry": { "type": "Polygon", "coordinates": [ [ [ 121.839372743925296, 13.447056227564859 ], [ 121.839435664930434, 13.447050328445753 ], [ 121.839452515530795, 13.447121257966996 ], [ 121.83953307468002, 13.447115429922023 ], [ 121.839521003940092, 13.446991383583715 ], [ 121.839428665078216, 13.447000699895709 ], [ 121.839367553104537, 13.44700679532343 ], [ 121.839370687690959, 13.44703533494085 ], [ 121.839372743925296, 13.447056227564859 ] ] ] } },
{ "type": "Feature", "properties": { "Id": 0, "CLN": "73-C", "PSGC": "174001035", "Barangay": "Malusak", "Land_Class": null, "PIN": "030-01-001-41-048", "ALN": "023", "Section": "41", "Brgy_Code": "01" }, "geometry": { "type": "Polygon", "coordinates": [ [ [ 121.839890582761356, 13.447572287551946 ], [ 121.839768549966323, 13.447579726566763 ], [ 121.839769659464096, 13.447592113593471 ], [ 121.839891849272149, 13.447584706081411 ], [ 121.839890582761356, 13.447572287551946 ] ] ] } },
{ "type": "Feature", "properties": { "Id": 0, "CLN": "73-A", "PSGC": "174001035", "Barangay": "Malusak", "Land_Class": null, "PIN": "030-01-001-41-041", "ALN": "023", "Section": "41", "Brgy_Code": "01" }, "geometry": { "type": "Polygon", "coordinates": [ [ [ 121.839874880190834, 13.447418318934226 ], [ 121.83986573743104, 13.447328671259548 ], [ 121.839748416027589, 13.447353822539288 ], [ 121.839755270570194, 13.447431305950428 ], [ 121.839874880190834, 13.447418318934226 ] ] ] } }
]
}
