{
"type": "FeatureCollection",
"name": "Tumagabok",
"crs": { "type": "name", "properties": { "name": "urn:ogc:def:crs:OGC:1.3:CRS84" } },
"features": [
{ "type": "Feature", "properties": { "Id": 0, "CLN": "19645", "PSGC": "174001059", "Barangay": "Tumagabok", "Land_Class": null, "PIN": "030-01-054-02-012", "ALN": "012", "Section": "02", "Brgy_Code": "054" }, "geometry": { "type": "Polygon", "coordinates": [ [ [ 121.968094550357605, 13.345598426778635 ], [ 121.967707812740286, 13.34620451697133 ], [ 121.967269275495894, 13.348568283275414 ], [ 121.967108681320568, 13.349042394601065 ], [ 121.968085968498656, 13.349041247822585 ], [ 121.969026905555282, 13.349162224928847 ], [ 121.970101452596154, 13.348609705018703 ], [ 121.97096999069494, 13.348116643585994 ], [ 121.971518405301182, 13.347912606256179 ], [ 121.971698997942184, 13.346945346534916 ], [ 121.971835473103354, 13.346776039266407 ], [ 121.971973413958949, 13.346261573605386 ], [ 121.972785193581501, 13.342158657959857 ], [ 121.972629765204744, 13.341611273091381 ], [ 121.972197598310657, 13.341163227828572 ], [ 121.971595045573139, 13.340900544998355 ], [ 121.968469519037768, 13.341643912901613 ], [ 121.968345768660285, 13.343612820082695 ], [ 121.968408441701982, 13.344186880367811 ], [ 121.96840456272605, 13.345100702456055 ], [ 121.968094550357605, 13.345598426778635 ] ] ] } },
{ "type": "Feature", "properties": { "Id": 0, "CLN": "19644", "PSGC": "174001059", "Barangay": "Tumagabok", "Land_Class": null, "PIN": "030-01-054-02-013", "ALN": "013", "Section": "02", "Brgy_Code": "054" }, "geometry": { "type": "Polygon", "coordinates": [ [ [ 121.968086565631808, 13.341239396304781 ], [ 121.968469519037768, 13.341643912901613 ], [ 121.971595045573139, 13.340900544998355 ], [ 121.971172962194757, 13.34039201876803 ], [ 121.971150532545934, 13.340090136546419 ], [ 121.971761312522659, 13.339704806468376 ], [ 121.971695035222098, 13.339326504406197 ], [ 121.971104728927344, 13.339473661257477 ], [ 121.970235191241414, 13.340442216301078 ], [ 121.969156597274164, 13.340687085590268 ], [ 121.968090279764027, 13.340364417010331 ], [ 121.967635673035915, 13.340264905784405 ], [ 121.967474458932543, 13.340798330146159 ], [ 121.968086565631808, 13.341239396304781 ] ] ] } },
{ "type": "Feature", "properties": { "Id": 0, "CLN": "19647", "PSGC": "174001059", "Barangay": "Tumagabok", "Land_Class": null, "PIN": "030-01-054-02-011", "ALN": "011", "Section": "02", "Brgy_Code": "054" }, "geometry": { "type": "Polygon", "coordinates": [ [ [ 121.971973413958949, 13.346261573605386 ], [ 121.974280520722118, 13.345256678471605 ], [ 121.973855441276186, 13.343487390653515 ], [ 121.973485442722478, 13.34302803251731 ], [ 121.972785193581501, 13.342158657959857 ], [ 121.971973413958949, 13.346261573605386 ] ] ] } },
{ "type": "Feature", "properties": { "Id": 0, "CLN": "19648", "PSGC": "174001059", "Barangay": "Tumagabok", "Land_Class": null, "PIN": "030-01-054-01-010", "ALN": "010", "Section": "01", "Brgy_Code": "054" }, "geometry": { "type": "Polygon", "coordinates": [ [ [ 121.971973413958949, 13.346261573605386 ], [ 121.971835473103354, 13.346776039266407 ], [ 121.971698997942184, 13.346945346534916 ], [ 121.971518405301182, 13.347912606256179 ], [ 121.97096999069494, 13.348116643585994 ], [ 121.970101452596154, 13.348609705018703 ], [ 121.969026905555282, 13.349162224928847 ], [ 121.968709141854276, 13.35010624421111 ], [ 121.968804209565448, 13.350453245714355 ], [ 121.969343220172675, 13.350455439005252 ], [ 121.969481512055438, 13.351992134406899 ], [ 121.968392728952807, 13.352625788684403 ], [ 121.96817450983518, 13.352861227931568 ], [ 121.968094603274707, 13.353154898668475 ], [ 121.968091254369313, 13.353355544950835 ], [ 121.96844593234475, 13.353358622243396 ], [ 121.968154102319687, 13.353877355228134 ], [ 121.968152629604759, 13.354223963618908 ], [ 121.96944788405186, 13.354229236922956 ], [ 121.969260279713495, 13.354412284264274 ], [ 121.969002235613885, 13.354553030851541 ], [ 121.969050037830158, 13.354663511848262 ], [ 121.96970992861479, 13.355041696064168 ], [ 121.970096226504367, 13.355011756771752 ], [ 121.970427745081523, 13.354619224407381 ], [ 121.971627996137457, 13.354261730569823 ], [ 121.971817308795863, 13.355152668777095 ], [ 121.971969998893471, 13.355192676629116 ], [ 121.972239911910052, 13.354955782671585 ], [ 121.972576880931541, 13.354367990275799 ], [ 121.973091765644142, 13.354370078318309 ], [ 121.973229730949214, 13.35408704364519 ], [ 121.973030702984843, 13.353589947286931 ], [ 121.973176013456424, 13.353472372218199 ], [ 121.973523415369527, 13.353127165328443 ], [ 121.973758185964257, 13.352781501611268 ], [ 121.973759550660958, 13.35245852500354 ], [ 121.973028968337545, 13.350194689525154 ], [ 121.973033464004388, 13.349131229960323 ], [ 121.974346379423864, 13.348758422341712 ], [ 121.975751846047814, 13.348091705781989 ], [ 121.975769514155246, 13.347478799858306 ], [ 121.975516229441979, 13.346731863827351 ], [ 121.975572479567518, 13.345912326298887 ], [ 121.975514322997782, 13.345395122326627 ], [ 121.975099638476124, 13.345363904648476 ], [ 121.974896752621675, 13.345185837669979 ], [ 121.974280520722118, 13.345256678471605 ], [ 121.971973413958949, 13.346261573605386 ] ] ] } },
{ "type": "Feature", "properties": { "Id": 0, "CLN": "19646", "PSGC": "174001059", "Barangay": "Tumagabok", "Land_Class": null, "PIN": "030-01-054-02-010", "ALN": "010", "Section": "02", "Brgy_Code": "054" }, "geometry": { "type": "Polygon", "coordinates": [ [ [ 121.975514322997782, 13.345395122326627 ], [ 121.97725679347505, 13.345636300377897 ], [ 121.979223467168467, 13.346668320934327 ], [ 121.978915453775116, 13.345780846892801 ], [ 121.978524801037494, 13.345414932387142 ], [ 121.978651142392337, 13.344066397662143 ], [ 121.977627674055597, 13.3435305317052 ], [ 121.9771172262991, 13.342957344459613 ], [ 121.976826227461842, 13.342808464557589 ], [ 121.976544580017148, 13.342827021634047 ], [ 121.975172164923478, 13.34396373197805 ], [ 121.974409452607134, 13.343596307109799 ], [ 121.973855441276186, 13.343487390653515 ], [ 121.974280520722118, 13.345256678471605 ], [ 121.974896752621675, 13.345185837669979 ], [ 121.975099638476124, 13.345363904648476 ], [ 121.975514322997782, 13.345395122326627 ] ] ] } },
{ "type": "Feature", "properties": { "Id": 0, "CLN": "19654", "PSGC": "174001059", "Barangay": "Tumagabok", "Land_Class": null, "PIN": "030-01-054-02-005", "ALN": "005", "Section": "02", "Brgy_Code": "054" }, "geometry": { "type": "Polygon", "coordinates": [ [ [ 121.979263495958676, 13.347056723953248 ], [ 121.978855733480358, 13.347798416882753 ], [ 121.978956201331698, 13.348120081213009 ], [ 121.979193125156513, 13.348276126568013 ], [ 121.980295318018264, 13.34847996691667 ], [ 121.98122953454272, 13.34827324423502 ], [ 121.982060817695952, 13.348331974665394 ], [ 121.98275708585733, 13.348212913612228 ], [ 121.983154320518111, 13.347909865008914 ], [ 121.983475096816179, 13.346952911258173 ], [ 121.983369152073138, 13.34658691463482 ], [ 121.983248376394926, 13.346432685387869 ], [ 121.981287447990738, 13.346424810506022 ], [ 121.980983908556937, 13.346866707001375 ], [ 121.979263495958676, 13.347056723953248 ] ] ] } },
{ "type": "Feature", "properties": { "Id": 0, "CLN": "19653", "PSGC": "174001059", "Barangay": "Tumagabok", "Land_Class": null, "PIN": "030-01-054-02-006", "ALN": "006", "Section": "02", "Brgy_Code": "054" }, "geometry": { "type": "Polygon", "coordinates": [ [ [ 121.979695796557493, 13.348459755783935 ], [ 121.979250232239607, 13.34836286047733 ], [ 121.978837227382513, 13.348163913438725 ], [ 121.978753915580427, 13.347798006562176 ], [ 121.978340335743084, 13.347951331298132 ], [ 121.978334164551313, 13.349217104549915 ], [ 121.979690454284594, 13.34952979724835 ], [ 121.979695796557493, 13.348459755783935 ] ] ] } },
{ "type": "Feature", "properties": { "Id": 0, "CLN": "19650", "PSGC": "174001059", "Barangay": "Tumagabok", "Land_Class": null, "PIN": "030-01-054-02-007", "ALN": "007", "Section": "02", "Brgy_Code": "054" }, "geometry": { "type": "Polygon", "coordinates": [ [ [ 121.978585775466499, 13.354788769363291 ], [ 121.978695130737208, 13.354677954071985 ], [ 121.979102190342545, 13.354732769091559 ], [ 121.979679580667479, 13.352623892084933 ], [ 121.980261557192733, 13.351975018307389 ], [ 121.981121101940062, 13.351642364621938 ], [ 121.982151522863745, 13.351488954105955 ], [ 121.98298119959027, 13.350982606498667 ], [ 121.983267219941226, 13.347965707661599 ], [ 121.983138581458007, 13.348071349441428 ], [ 121.982734444728308, 13.348345948873408 ], [ 121.982038848526713, 13.348451670961987 ], [ 121.981675801181524, 13.348418682185876 ], [ 121.981155604330226, 13.348367109306986 ], [ 121.980346608047014, 13.348566313076232 ], [ 121.979695796557436, 13.348459755783935 ], [ 121.979690454284594, 13.34952979724835 ], [ 121.978334164551313, 13.349217104549915 ], [ 121.978340335743084, 13.347951331298132 ], [ 121.978753915580427, 13.347798006562176 ], [ 121.979161663426055, 13.347013117583694 ], [ 121.979223467168453, 13.346668320934329 ], [ 121.977256793475021, 13.345636300377901 ], [ 121.975828922651701, 13.346800268048485 ], [ 121.976933620847845, 13.34775004497692 ], [ 121.976412223091899, 13.347984268045796 ], [ 121.976924150743457, 13.348207893571377 ], [ 121.977242099254426, 13.347928536746458 ], [ 121.977581367979539, 13.347959446950137 ], [ 121.977684377714525, 13.348572840200591 ], [ 121.977718126530988, 13.350249102554667 ], [ 121.977155278637042, 13.350175932284616 ], [ 121.976744488700646, 13.350292437859174 ], [ 121.976318040067341, 13.350306470409835 ], [ 121.976485004393638, 13.352686186143053 ], [ 121.975463718111811, 13.352579648587293 ], [ 121.974626064089591, 13.352612869704979 ], [ 121.974738368761066, 13.352895413245385 ], [ 121.975273529860829, 13.353334786401229 ], [ 121.975370219965612, 13.353299728263432 ], [ 121.975625507842523, 13.352857644832971 ], [ 121.975861148869569, 13.352781790863501 ], [ 121.976488113418, 13.35291430559451 ], [ 121.976999516146762, 13.353264956096456 ], [ 121.97781104351273, 13.353989034594225 ], [ 121.97787557251057, 13.35426592603018 ], [ 121.978207087100841, 13.354510555606247 ], [ 121.978314527561608, 13.354788675191175 ], [ 121.978585775466499, 13.354788769363291 ] ] ] } },
{ "type": "Feature", "properties": { "Id": 0, "CLN": "19649", "PSGC": "174001059", "Barangay": "Tumagabok", "Land_Class": null, "PIN": "030-01-054-02-009", "ALN": "009", "Section": "02", "Brgy_Code": "054" }, "geometry": { "type": "Polygon", "coordinates": [ [ [ 121.975516229442007, 13.346731863827353 ], [ 121.975828922651701, 13.346800268048485 ], [ 121.97725679347505, 13.345636300377897 ], [ 121.975514322997782, 13.345395122326627 ], [ 121.975572479567518, 13.34591232629889 ], [ 121.975516229442007, 13.346731863827353 ] ] ] } },
{ "type": "Feature", "properties": { "Id": 0, "CLN": "19651", "PSGC": "174001059", "Barangay": "Tumagabok", "Land_Class": null, "PIN": "030-01-054-02-008", "ALN": "008", "Section": "02", "Brgy_Code": "054" }, "geometry": { "type": "Polygon", "coordinates": [ [ [ 121.975751846047842, 13.348091705781991 ], [ 121.976412223091899, 13.347984268045796 ], [ 121.976933620847845, 13.347750044976916 ], [ 121.975828922651701, 13.346800268048485 ], [ 121.975516229442007, 13.346731863827353 ], [ 121.975769514155246, 13.347478799858306 ], [ 121.975751846047842, 13.348091705781991 ] ] ] } },
{ "type": "Feature", "properties": { "Id": 0, "CLN": "19659", "PSGC": "174001059", "Barangay": "Tumagabok", "Land_Class": null, "PIN": "030-01-054-01-008", "ALN": "008", "Section": "01", "Brgy_Code": "054" }, "geometry": { "type": "Polygon", "coordinates": [ [ [ 121.977684377714525, 13.348572840200585 ], [ 121.977581367979539, 13.347959446950137 ], [ 121.977242099254426, 13.347928536746458 ], [ 121.976924150743457, 13.348207893571377 ], [ 121.976412223091899, 13.347984268045796 ], [ 121.976749656137756, 13.348395051820383 ], [ 121.976276381366759, 13.348657909990715 ], [ 121.97540117544446, 13.348731179287507 ], [ 121.975751846047842, 13.348091705781991 ], [ 121.974346379423864, 13.348758422341708 ], [ 121.973033464004402, 13.349131229960321 ], [ 121.973028968337573, 13.350194689525152 ], [ 121.973759550660958, 13.35245852500354 ], [ 121.974562509596552, 13.352615390144138 ], [ 121.975463718111811, 13.352579648587293 ], [ 121.976485004393638, 13.352686186143053 ], [ 121.976318040067341, 13.350306470409835 ], [ 121.976744488700646, 13.350292437859174 ], [ 121.977155278637071, 13.350175932284618 ], [ 121.977718126530988, 13.350249102554667 ], [ 121.977684377714525, 13.348572840200585 ] ] ] } },
{ "type": "Feature", "properties": { "Id": 0, "CLN": "19655", "PSGC": "174001059", "Barangay": "Tumagabok", "Land_Class": null, "PIN": "030-01-054-02-004", "ALN": "004", "Section": "02", "Brgy_Code": "054" }, "geometry": { "type": "Polygon", "coordinates": [ [ [ 121.984748374843605, 13.35356568185308 ], [ 121.98488751756571, 13.353421861398408 ], [ 121.986151813859536, 13.352652946767614 ], [ 121.986789600776731, 13.351639282750929 ], [ 121.987977387878118, 13.350403301376556 ], [ 121.987978347810696, 13.350172884072592 ], [ 121.987371551713238, 13.349544186810624 ], [ 121.986811944169716, 13.349175639221697 ], [ 121.986462285218735, 13.349103342003263 ], [ 121.986414410007043, 13.349008618777086 ], [ 121.986570015298383, 13.348589038849763 ], [ 121.986538722858981, 13.348376217313708 ], [ 121.986878612835099, 13.347897040179692 ], [ 121.986382524178424, 13.347249089480821 ], [ 121.98605258582792, 13.3472714024814 ], [ 121.985547008723344, 13.346970028657784 ], [ 121.985196094487335, 13.346236002974827 ], [ 121.984743238969855, 13.346334920323336 ], [ 121.984226209253279, 13.346274061887307 ], [ 121.98368404784479, 13.346065100239088 ], [ 121.983411113757171, 13.346403728717105 ], [ 121.98364287808198, 13.346892087183399 ], [ 121.983267219941226, 13.347965707661599 ], [ 121.98298119959027, 13.350982606498667 ], [ 121.983950128767873, 13.352065730423286 ], [ 121.98436959737127, 13.353721716113494 ], [ 121.984748374843605, 13.35356568185308 ] ] ] } },
{ "type": "Feature", "properties": { "Id": 0, "CLN": "19664", "PSGC": "174001059", "Barangay": "Tumagabok", "Land_Class": null, "PIN": "030-01-054-01-003", "ALN": "003", "Section": "01", "Brgy_Code": "054" }, "geometry": { "type": "Polygon", "coordinates": [ [ [ 121.968088626606814, 13.356410166836563 ], [ 121.968659527239765, 13.356343133159646 ], [ 121.969557049667699, 13.355283310392569 ], [ 121.968744541282234, 13.354795530920025 ], [ 121.967442250012397, 13.356503646475925 ], [ 121.968088626606814, 13.356410166836563 ] ] ] } },
{ "type": "Feature", "properties": { "Id": 0, "CLN": "19665", "PSGC": "174001059", "Barangay": "Tumagabok", "Land_Class": null, "PIN": "030-01-054-01-002", "ALN": "002", "Section": "01", "Brgy_Code": "054" }, "geometry": { "type": "Polygon", "coordinates": [ [ [ 121.968744541282234, 13.354795530920025 ], [ 121.968806406473135, 13.354547843368657 ], [ 121.969162746066189, 13.354390765681959 ], [ 121.968086497562936, 13.354474652589733 ], [ 121.967988309659248, 13.354228092736477 ], [ 121.967963058555171, 13.353942962706514 ], [ 121.968089965763184, 13.353658452594487 ], [ 121.968090708918766, 13.353483552588571 ], [ 121.966508457230432, 13.353742695179863 ], [ 121.966237577069919, 13.353657377273182 ], [ 121.96627178541867, 13.353391923522867 ], [ 121.965201002278121, 13.3531673033067 ], [ 121.964429233353556, 13.354187654899926 ], [ 121.967442250012397, 13.356503646475925 ], [ 121.968744541282234, 13.354795530920025 ] ] ] } },
{ "type": "Feature", "properties": { "Id": 0, "CLN": "19671", "PSGC": "174001059", "Barangay": "Tumagabok", "Land_Class": null, "PIN": "030-01-054-01-001", "ALN": "001", "Section": "01", "Brgy_Code": "054" }, "geometry": { "type": "Polygon", "coordinates": [ [ [ 121.965201002278121, 13.3531673033067 ], [ 121.964481196131658, 13.351655014769443 ], [ 121.963858963650338, 13.351938972026351 ], [ 121.962762767026035, 13.351272267611245 ], [ 121.961824168890203, 13.351080564500929 ], [ 121.96082146038718, 13.351957444891061 ], [ 121.960873525396423, 13.352158472667965 ], [ 121.961342091695855, 13.35242598728906 ], [ 121.961445973509143, 13.352886342566924 ], [ 121.960663426825221, 13.353330106479575 ], [ 121.960244650209034, 13.353794794890893 ], [ 121.95956323915145, 13.353830750367276 ], [ 121.963186708212888, 13.357510532860164 ], [ 121.967442250012397, 13.356503646475925 ], [ 121.964429233353556, 13.354187654899926 ], [ 121.965201002278121, 13.3531673033067 ] ] ] } },
{ "type": "Feature", "properties": { "Id": 0, "CLN": "19670", "PSGC": "174001059", "Barangay": "Tumagabok", "Land_Class": null, "PIN": "030-01-054-01-012", "ALN": "012", "Section": "01", "Brgy_Code": "054" }, "geometry": { "type": "Polygon", "coordinates": [ [ [ 121.964481196131658, 13.351655014769443 ], [ 121.965201002278121, 13.3531673033067 ], [ 121.966271785418655, 13.353391923522866 ], [ 121.966650556571167, 13.352395187952034 ], [ 121.966615483549575, 13.35189219881336 ], [ 121.96645574959976, 13.351825958557871 ], [ 121.966005340917633, 13.35185691487095 ], [ 121.965502090003866, 13.352062557519542 ], [ 121.965209742443534, 13.351678763379654 ], [ 121.965094865634128, 13.351565335985585 ], [ 121.964916138063117, 13.351590112470845 ], [ 121.964719068349794, 13.351552869096029 ], [ 121.964481196131658, 13.351655014769443 ] ] ] } },
{ "type": "Feature", "properties": { "Id": 0, "CLN": "19666", "PSGC": "174001059", "Barangay": "Tumagabok", "Land_Class": null, "PIN": "030-01-054-01-011", "ALN": "011", "Section": "01", "Brgy_Code": "054" }, "geometry": { "type": "Polygon", "coordinates": [ [ [ 121.968091254369313, 13.353355544950833 ], [ 121.968094603274707, 13.353154898668475 ], [ 121.96817450983518, 13.352861227931568 ], [ 121.968392728952807, 13.352625788684403 ], [ 121.969481512055438, 13.351992134406904 ], [ 121.969343220172675, 13.350455439005252 ], [ 121.968804209565405, 13.350453245714354 ], [ 121.968709141854248, 13.350106244211108 ], [ 121.969026905555282, 13.349162224928847 ], [ 121.968085968498656, 13.349041247822591 ], [ 121.967108681320568, 13.349042394601065 ], [ 121.966496839768013, 13.349368742129258 ], [ 121.966494929059621, 13.349817867983587 ], [ 121.967037969016985, 13.349820082519235 ], [ 121.966545845143344, 13.351672191364662 ], [ 121.966758931894603, 13.351904300252381 ], [ 121.966790446581129, 13.352383417578515 ], [ 121.966343669348149, 13.353601057197062 ], [ 121.966546974156756, 13.353631037249098 ], [ 121.968091254369313, 13.353355544950833 ] ] ] } },
{ "type": "Feature", "properties": { "Id": 0, "CLN": "19667", "PSGC": "174001059", "Barangay": "Tumagabok", "Land_Class": null, "PIN": "030-01-054-01-013", "ALN": "013", "Section": "01", "Brgy_Code": "054" }, "geometry": { "type": "Polygon", "coordinates": [ [ [ 121.966494929059621, 13.349817867983589 ], [ 121.965640632588133, 13.349745464252242 ], [ 121.965377885028147, 13.350699073334802 ], [ 121.96522110032646, 13.351555939873876 ], [ 121.96551238841775, 13.351897218540639 ], [ 121.966113491767587, 13.351724769518402 ], [ 121.966545845143344, 13.351672191364662 ], [ 121.967037969016985, 13.349820082519235 ], [ 121.966494929059621, 13.349817867983589 ] ] ] } },
{ "type": "Feature", "properties": { "Id": 0, "CLN": "19668", "PSGC": "174001059", "Barangay": "Tumagabok", "Land_Class": null, "PIN": "030-01-054-01-014", "ALN": "014", "Section": "01", "Brgy_Code": "054" }, "geometry": { "type": "Polygon", "coordinates": [ [ [ 121.965221100326474, 13.351555939873881 ], [ 121.965377885028147, 13.350699073334802 ], [ 121.965640632588133, 13.349745464252242 ], [ 121.964441946489742, 13.350430462598947 ], [ 121.964412333111966, 13.351557493483853 ], [ 121.964794772396175, 13.351466746675847 ], [ 121.965221100326474, 13.351555939873881 ] ] ] } },
{ "type": "Feature", "properties": { "Id": 0, "CLN": "19669", "PSGC": "174001059", "Barangay": "Tumagabok", "Land_Class": null, "PIN": "030-01-054-01-015", "ALN": "015", "Section": "01", "Brgy_Code": "054" }, "geometry": { "type": "Polygon", "coordinates": [ [ [ 121.964412333111966, 13.351557493483853 ], [ 121.964441946489742, 13.350430462598947 ], [ 121.96290407550164, 13.350370729534275 ], [ 121.962776508663424, 13.351196137236579 ], [ 121.963949823552866, 13.351808239860285 ], [ 121.964412333111966, 13.351557493483853 ] ] ] } },
{ "type": "Feature", "properties": { "Id": 0, "CLN": "19656", "PSGC": "174001059", "Barangay": "Tumagabok", "Land_Class": null, "PIN": "030-01-054-02-003", "ALN": "003", "Section": "02", "Brgy_Code": "054" }, "geometry": { "type": "Polygon", "coordinates": [ [ [ 121.984369597371284, 13.353721716113494 ], [ 121.983950128767901, 13.352065730423288 ], [ 121.98298119959027, 13.350982606498667 ], [ 121.982949911842226, 13.352130372521383 ], [ 121.982150532847683, 13.352824332325104 ], [ 121.982263689285745, 13.353179280400902 ], [ 121.983536026228876, 13.354017733749581 ], [ 121.983821844043931, 13.354284465976635 ], [ 121.984369597371284, 13.353721716113494 ] ] ] } },
{ "type": "Feature", "properties": { "Id": 0, "CLN": "19658", "PSGC": "174001059", "Barangay": "Tumagabok", "Land_Class": null, "PIN": "030-01-054-02-001", "ALN": "001", "Section": "02", "Brgy_Code": "054" }, "geometry": { "type": "Polygon", "coordinates": [ [ [ 121.982263689285745, 13.353179280400902 ], [ 121.982150532847683, 13.352824332325104 ], [ 121.982949911842212, 13.35213037252138 ], [ 121.98298119959027, 13.350982606498667 ], [ 121.982151522863745, 13.351488954105955 ], [ 121.981121101940062, 13.351642364621938 ], [ 121.980261557192733, 13.351975018307389 ], [ 121.979679580667479, 13.352623892084933 ], [ 121.979102190342545, 13.354732769091559 ], [ 121.980655711399592, 13.356130986839126 ], [ 121.982584178342279, 13.35526432449997 ], [ 121.981597353332504, 13.354610454003934 ], [ 121.982263689285745, 13.353179280400902 ] ] ] } },
{ "type": "Feature", "properties": { "Id": 0, "CLN": "19657", "PSGC": "174001059", "Barangay": "Tumagabok", "Land_Class": null, "PIN": "030-01-054-02-002", "ALN": "002", "Section": "02", "Brgy_Code": "054" }, "geometry": { "type": "Polygon", "coordinates": [ [ [ 121.982584178342279, 13.35526432449997 ], [ 121.983536026228876, 13.354017733749581 ], [ 121.982263689285745, 13.353179280400902 ], [ 121.981597353332532, 13.354610454003934 ], [ 121.982584178342279, 13.35526432449997 ] ] ] } },
{ "type": "Feature", "properties": { "Id": 0, "CLN": "19660", "PSGC": "174001059", "Barangay": "Tumagabok", "Land_Class": null, "PIN": "030-01-054-01-007", "ALN": "007", "Section": "01", "Brgy_Code": "054" }, "geometry": { "type": "Polygon", "coordinates": [ [ [ 121.980655711399621, 13.35613098683913 ], [ 121.979102190342545, 13.354732769091559 ], [ 121.978695130737208, 13.354677954071985 ], [ 121.978585775466499, 13.354788769363291 ], [ 121.97831452756165, 13.354788675191175 ], [ 121.978207087100841, 13.354510555606247 ], [ 121.97787557251057, 13.35426592603018 ], [ 121.977787599294771, 13.354256515194395 ], [ 121.977118504448768, 13.360303824415087 ], [ 121.980919479322324, 13.359568152010549 ], [ 121.980655711399621, 13.35613098683913 ] ] ] } },
{ "type": "Feature", "properties": { "Id": 0, "CLN": "19661", "PSGC": "174001059", "Barangay": "Tumagabok", "Land_Class": null, "PIN": "030-01-054-01-006", "ALN": "006", "Section": "01", "Brgy_Code": "054" }, "geometry": { "type": "Polygon", "coordinates": [ [ [ 121.977118504448825, 13.360303824415089 ], [ 121.977787599294771, 13.354256515194395 ], [ 121.977698724224339, 13.354027705494051 ], [ 121.977014777386643, 13.35341574153958 ], [ 121.976405035634258, 13.353014145637708 ], [ 121.975869142732577, 13.352906944691785 ], [ 121.975697205285655, 13.352979773923305 ], [ 121.975513256138399, 13.353357155626586 ], [ 121.975223235586398, 13.353450513863704 ], [ 121.974629380648537, 13.353016160902252 ], [ 121.974518464474002, 13.352691410621764 ], [ 121.973939711020634, 13.352573528698061 ], [ 121.97365837590948, 13.353150080595956 ], [ 121.973302795883654, 13.353526764979403 ], [ 121.973429429904854, 13.354020941894213 ], [ 121.973073004257429, 13.354597188522574 ], [ 121.973581318718743, 13.356153764209576 ], [ 121.972141387252336, 13.356746622350615 ], [ 121.972913562016032, 13.359323107187146 ], [ 121.977118504448825, 13.360303824415089 ] ] ] } },
{ "type": "Feature", "properties": { "Id": 0, "CLN": "19662", "PSGC": "174001059", "Barangay": "Tumagabok", "Land_Class": null, "PIN": "030-01-054-01-005", "ALN": "005", "Section": "01", "Brgy_Code": "054" }, "geometry": { "type": "Polygon", "coordinates": [ [ [ 121.972141387252336, 13.356746622350615 ], [ 121.973581318718743, 13.35615376420958 ], [ 121.973073004257444, 13.354597188522574 ], [ 121.972574132794563, 13.354553807917691 ], [ 121.972327775791953, 13.35502251087952 ], [ 121.972048086395347, 13.355238618402185 ], [ 121.971692836141784, 13.355347839178631 ], [ 121.972141387252336, 13.356746622350615 ] ] ] } },
{ "type": "Feature", "properties": { "Id": 0, "CLN": "19663", "PSGC": "174001059", "Barangay": "Tumagabok", "Land_Class": null, "PIN": "030-01-054-01-004", "ALN": "004", "Section": "01", "Brgy_Code": "054" }, "geometry": { "type": "Polygon", "coordinates": [ [ [ 121.97291356201606, 13.359323107187146 ], [ 121.972141387252336, 13.356746622350615 ], [ 121.971692836141784, 13.355347839178629 ], [ 121.971560812446825, 13.354747234477191 ], [ 121.971423839501426, 13.354506468841601 ], [ 121.97116579638498, 13.354647217716247 ], [ 121.970400846020567, 13.3548016614 ], [ 121.970141866614554, 13.355162978260484 ], [ 121.969557049667699, 13.355283310392569 ], [ 121.968659527239794, 13.356343133159644 ], [ 121.969568385292177, 13.359746800528823 ], [ 121.97291356201606, 13.359323107187146 ] ] ] } },
{ "type": "Feature", "properties": { "Id": 0, "CLN": "19672", "PSGC": "174001059", "Barangay": "Tumagabok", "Land_Class": null, "PIN": "030-01-054-03-001", "ALN": "001", "Section": "03", "Brgy_Code": "054" }, "geometry": { "type": "Polygon", "coordinates": [ [ [ 121.998592561366095, 13.332075345591116 ], [ 121.997977185590742, 13.332059218418966 ], [ 121.997131627936483, 13.332490024598483 ], [ 121.996256020322704, 13.333270827684871 ], [ 121.995426665581391, 13.333239535012186 ], [ 121.994598295289805, 13.332970162835895 ], [ 121.9938685870776, 13.333051298037825 ], [ 121.993239450593506, 13.33302079235051 ], [ 121.992207502335958, 13.333562879337462 ], [ 121.990762266419225, 13.333753199379123 ], [ 121.990605940986896, 13.333514496898189 ], [ 121.990635473222, 13.333290538708688 ], [ 121.991152058675482, 13.332872451775456 ], [ 121.990995500984951, 13.332689767543391 ], [ 121.990180509461808, 13.33264451028759 ], [ 121.9894936469897, 13.332739808154876 ], [ 121.988579596013707, 13.332442066085639 ], [ 121.987507845809873, 13.33567288071843 ], [ 121.987104317471392, 13.336413519329334 ], [ 121.987203610436453, 13.336609981901587 ], [ 121.986828034303812, 13.338364322541825 ], [ 121.986706906013083, 13.33847412562638 ], [ 121.986346706051506, 13.338039415235054 ], [ 121.985992383755374, 13.338124652731038 ], [ 121.985438294620025, 13.337886106958093 ], [ 121.985342976154143, 13.337594252613053 ], [ 121.985061877245428, 13.337482840637152 ], [ 121.984763671269064, 13.337566564074624 ], [ 121.984320110660462, 13.337830658383586 ], [ 121.983632577959924, 13.338723985543766 ], [ 121.982827831411655, 13.338789687910898 ], [ 121.981893019863605, 13.338697312695039 ], [ 121.980377868304842, 13.337913307922943 ], [ 121.979865152352559, 13.337881704652819 ], [ 121.978617420789362, 13.338073622784608 ], [ 121.977511709604656, 13.337970696230531 ], [ 121.977308897983804, 13.338373606867341 ], [ 121.977739311656507, 13.338827746239382 ], [ 121.978095806764884, 13.34015909334896 ], [ 121.977942072350544, 13.340847766246382 ], [ 121.97771885716142, 13.341319524000617 ], [ 121.977159737810652, 13.342754935694288 ], [ 121.977790069233308, 13.343515699976974 ], [ 121.978773603811902, 13.343982475151387 ], [ 121.978637124453599, 13.34535066321066 ], [ 121.979108101203124, 13.345746442229393 ], [ 121.979325321368535, 13.346702479677633 ], [ 121.979263495958676, 13.347056723953248 ], [ 121.980983908556908, 13.346866707001372 ], [ 121.981287447990695, 13.346424810506031 ], [ 121.983248376394897, 13.346432685387869 ], [ 121.983592382547826, 13.345931865854867 ], [ 121.984375600383174, 13.346210723176211 ], [ 121.984747632770393, 13.3462220608801 ], [ 121.985228964661758, 13.346070704107754 ], [ 121.985619839988587, 13.346867910844415 ], [ 121.986061123787479, 13.347153271992223 ], [ 121.986431483478739, 13.3470838547785 ], [ 121.987079669525002, 13.347913599236012 ], [ 121.986675322048015, 13.348416151836323 ], [ 121.986722361742565, 13.348587812994547 ], [ 121.986551578291596, 13.349028278026053 ], [ 121.986873047050224, 13.349108340044376 ], [ 121.987435076206395, 13.349378426610075 ], [ 121.988091677341941, 13.350121548501139 ], [ 121.988090594465362, 13.350381506494948 ], [ 121.988034047394848, 13.350392407819101 ], [ 121.987977387878118, 13.350403301376556 ], [ 121.986789600776731, 13.351639282750929 ], [ 121.986151813859536, 13.352652946767614 ], [ 121.98488751756571, 13.353421861398408 ], [ 121.984748374843605, 13.35356568185308 ], [ 121.98436959737127, 13.353721716113494 ], [ 121.983821844043916, 13.354284465976631 ], [ 121.983536026228876, 13.354017733749581 ], [ 121.982584178342279, 13.35526432449997 ], [ 121.980655711399621, 13.35613098683913 ], [ 121.980919479322324, 13.359568152010549 ], [ 122.001251899703817, 13.365409208562543 ], [ 121.998592561366095, 13.332075345591116 ] ] ] } },
{ "type": "Feature", "properties": { "Id": 0, "CLN": "19652", "PSGC": "174001059", "Barangay": "Tumagabok", "Land_Class": null, "PIN": "030-01-054-01-009", "ALN": "009", "Section": "01", "Brgy_Code": "054" }, "geometry": { "type": "Polygon", "coordinates": [ [ [ 121.975751846047814, 13.348091705781989 ], [ 121.97540117544446, 13.348731179287507 ], [ 121.976276381366759, 13.348657909990715 ], [ 121.976749656137756, 13.348395051820383 ], [ 121.976412223091899, 13.347984268045796 ], [ 121.975751846047814, 13.348091705781989 ] ] ] } }
]
}
