{
"type": "FeatureCollection",
"name": "Apitong",
"crs": { "type": "name", "properties": { "name": "urn:ogc:def:crs:OGC:1.3:CRS84" } },
"features": [
{ "type": "Feature", "properties": { "Id": 0, "CLN": "9497", "PSGC": "174001004", "Barangay": "Apitong", "Land_Class": null, "PIN": "030-01-005-01-002" }, "geometry": null },
{ "type": "Feature", "properties": { "Id": 0, "CLN": "9496", "PSGC": "174001004", "Barangay": "Apitong", "Land_Class": null, "PIN": "030-01-005-01-003" }, "geometry": null },
{ "type": "Feature", "properties": { "Id": 0, "CLN": "9498", "PSGC": "174001004", "Barangay": "Apitong", "Land_Class": null, "PIN": "030-01-005-01-004" }, "geometry": null },
{ "type": "Feature", "properties": { "Id": 0, "CLN": "9495", "PSGC": "174001004", "Barangay": "Apitong", "Land_Class": null, "PIN": "030-01-005-01-006" }, "geometry": null },
{ "type": "Feature", "properties": { "Id": 0, "CLN": "9494", "PSGC": "174001004", "Barangay": "Apitong", "Land_Class": null, "PIN": "030-01-005-01-014" }, "geometry": null },
{ "type": "Feature", "properties": { "Id": 0, "CLN": "9489", "PSGC": "174001004", "Barangay": "Apitong", "Land_Class": null, "PIN": "030-01-005-01-016" }, "geometry": null },
{ "type": "Feature", "properties": { "Id": 0, "CLN": "9488", "PSGC": "174001004", "Barangay": "Apitong", "Land_Class": null, "PIN": "030-01-005-01-020" }, "geometry": null },
{ "type": "Feature", "properties": { "Id": 0, "CLN": "9481", "PSGC": "174001004", "Barangay": "Apitong", "Land_Class": null, "PIN": "030-01-005-01-031" }, "geometry": null },
{ "type": "Feature", "properties": { "Id": 0, "CLN": "9487", "PSGC": "174001004", "Barangay": "Apitong", "Land_Class": null, "PIN": "030-01-005-01-019" }, "geometry": null },
{ "type": "Feature", "properties": { "Id": 0, "CLN": "9490", "PSGC": "174001004", "Barangay": "Apitong", "Land_Class": null, "PIN": "030-01-005-01-018" }, "geometry": null },
{ "type": "Feature", "properties": { "Id": 0, "CLN": "9480", "PSGC": "174001004", "Barangay": "Apitong", "Land_Class": null, "PIN": "030-01-005-01-021" }, "geometry": null },
{ "type": "Feature", "properties": { "Id": 0, "CLN": "9482", "PSGC": "174001004", "Barangay": "Apitong", "Land_Class": null, "PIN": "030-01-005-01-022" }, "geometry": null },
{ "type": "Feature", "properties": { "Id": 0, "CLN": "9483", "PSGC": "174001004", "Barangay": "Apitong", "Land_Class": null, "PIN": "030-01-005-01-033" }, "geometry": null },
{ "type": "Feature", "properties": { "Id": 0, "CLN": "9484", "PSGC": "174001004", "Barangay": "Apitong", "Land_Class": null, "PIN": "030-01-005-01-023" }, "geometry": null },
{ "type": "Feature", "properties": { "Id": 0, "CLN": "9481", "PSGC": "174001004", "Barangay": "Apitong", "Land_Class": null, "PIN": "030-01-005-01-031" }, "geometry": null },
{ "type": "Feature", "properties": { "Id": 0, "CLN": "9611", "PSGC": "174001004", "Barangay": "Apitong", "Land_Class": null, "PIN": "030-01-005-03-023" }, "geometry": null },
{ "type": "Feature", "properties": { "Id": 0, "CLN": "9608", "PSGC": "174001004", "Barangay": "Apitong", "Land_Class": null, "PIN": "030-01-005-03-027" }, "geometry": null },
{ "type": "Feature", "properties": { "Id": 0, "CLN": "9626", "PSGC": "174001004", "Barangay": "Apitong", "Land_Class": null, "PIN": "030-01-005-02-057" }, "geometry": null },
{ "type": "Feature", "properties": { "Id": 0, "CLN": "9630", "PSGC": "174001004", "Barangay": "Apitong", "Land_Class": null, "PIN": "030-01-005-02-055" }, "geometry": null },
{ "type": "Feature", "properties": { "Id": 0, "CLN": "9627", "PSGC": "174001004", "Barangay": "Apitong", "Land_Class": null, "PIN": "030-01-005-02-056" }, "geometry": null },
{ "type": "Feature", "properties": { "Id": 0, "CLN": "9632", "PSGC": "174001004", "Barangay": "Apitong", "Land_Class": null, "PIN": "030-01-005-03-043" }, "geometry": null },
{ "type": "Feature", "properties": { "Id": 0, "CLN": "9655", "PSGC": "174001004", "Barangay": "Apitong", "Land_Class": null, "PIN": "030-01-005-02-016" }, "geometry": null },
{ "type": "Feature", "properties": { "Id": 0, "CLN": "9654", "PSGC": "174001004", "Barangay": "Apitong", "Land_Class": null, "PIN": "030-01-005-02-015" }, "geometry": null },
{ "type": "Feature", "properties": { "Id": 0, "CLN": "9601", "PSGC": "174001004", "Barangay": "Apitong", "Land_Class": null, "PIN": "030-01-005-03-057" }, "geometry": null },
{ "type": "Feature", "properties": { "Id": 0, "CLN": "9523", "PSGC": "174001004", "Barangay": "Apitong", "Land_Class": null, "PIN": "030-01-005-03-014" }, "geometry": null },
{ "type": "Feature", "properties": { "Id": 0, "CLN": "9576", "PSGC": "174001004", "Barangay": "Apitong", "Land_Class": null, "PIN": "030-01-005-03-030" }, "geometry": null },
{ "type": "Feature", "properties": { "Id": 0, "CLN": "9577", "PSGC": "174001004", "Barangay": "Apitong", "Land_Class": null, "PIN": "030-01-005-03-029" }, "geometry": null },
{ "type": "Feature", "properties": { "Id": 0, "CLN": "9578", "PSGC": "174001004", "Barangay": "Apitong", "Land_Class": null, "PIN": "030-01-005-03-028" }, "geometry": null },
{ "type": "Feature", "properties": { "Id": 0, "CLN": "9600", "PSGC": "174001004", "Barangay": "Apitong", "Land_Class": null, "PIN": "030-01-005-03-033" }, "geometry": null },
{ "type": "Feature", "properties": { "Id": 0, "CLN": "9587", "PSGC": "174001004", "Barangay": "Apitong", "Land_Class": null, "PIN": "030-01-005-03-034" }, "geometry": null },
{ "type": "Feature", "properties": { "Id": 0, "CLN": "9586", "PSGC": "174001004", "Barangay": "Apitong", "Land_Class": null, "PIN": "030-01-005-03-035" }, "geometry": null },
{ "type": "Feature", "properties": { "Id": 0, "CLN": "9588", "PSGC": "174001004", "Barangay": "Apitong", "Land_Class": null, "PIN": "030-01-005-03-054" }, "geometry": null },
{ "type": "Feature", "properties": { "Id": 0, "CLN": "9637", "PSGC": "174001004", "Barangay": "Apitong", "Land_Class": null, "PIN": "030-01-005-03-049" }, "geometry": null },
{ "type": "Feature", "properties": { "Id": 0, "CLN": "9636", "PSGC": "174001004", "Barangay": "Apitong", "Land_Class": null, "PIN": "030-01-005-03-048" }, "geometry": null },
{ "type": "Feature", "properties": { "Id": 0, "CLN": "9638", "PSGC": "174001004", "Barangay": "Apitong", "Land_Class": null, "PIN": "030-01-005-02-047" }, "geometry": null },
{ "type": "Feature", "properties": { "Id": 0, "CLN": "9521", "PSGC": "174001004", "Barangay": "Apitong", "Land_Class": null, "PIN": "030-01-005-03-015" }, "geometry": null },
{ "type": "Feature", "properties": { "Id": 0, "CLN": "9607", "PSGC": "174001004", "Barangay": "Apitong", "Land_Class": null, "PIN": "030-01-005-03-041" }, "geometry": null },
{ "type": "Feature", "properties": { "Id": 0, "CLN": "9633", "PSGC": "174001004", "Barangay": "Apitong", "Land_Class": null, "PIN": "030-01-005-03-042" }, "geometry": null },
{ "type": "Feature", "properties": { "Id": 0, "CLN": "9604", "PSGC": "174001004", "Barangay": "Apitong", "Land_Class": null, "PIN": "030-01-005-03-050" }, "geometry": null },
{ "type": "Feature", "properties": { "Id": 0, "CLN": "9606", "PSGC": "174001004", "Barangay": "Apitong", "Land_Class": null, "PIN": "030-01-005-03-045" }, "geometry": null },
{ "type": "Feature", "properties": { "Id": 0, "CLN": "9605", "PSGC": "174001004", "Barangay": "Apitong", "Land_Class": null, "PIN": "030-01-005-03-046" }, "geometry": null },
{ "type": "Feature", "properties": { "Id": 0, "CLN": "9633", "PSGC": "174001004", "Barangay": "Apitong", "Land_Class": null, "PIN": "030-01-005-03-042" }, "geometry": null },
{ "type": "Feature", "properties": { "Id": 0, "CLN": "9625", "PSGC": "174001004", "Barangay": "Apitong", "Land_Class": null, "PIN": "030-01-005-02-054" }, "geometry": null },
{ "type": "Feature", "properties": { "Id": 0, "CLN": "9624", "PSGC": "174001004", "Barangay": "Apitong", "Land_Class": null, "PIN": "030-01-005-02-053" }, "geometry": null },
{ "type": "Feature", "properties": { "Id": 0, "CLN": "9640", "PSGC": "174001004", "Barangay": "Apitong", "Land_Class": null, "PIN": "030-01-005-02-043" }, "geometry": null },
{ "type": "Feature", "properties": { "Id": 0, "CLN": "9621", "PSGC": "174001004", "Barangay": "Apitong", "Land_Class": null, "PIN": "030-01-005-02-049" }, "geometry": null },
{ "type": "Feature", "properties": { "Id": 0, "CLN": "9644", "PSGC": "174001004", "Barangay": "Apitong", "Land_Class": null, "PIN": "030-01-005-02-042" }, "geometry": null },
{ "type": "Feature", "properties": { "Id": 0, "CLN": "9641", "PSGC": "174001004", "Barangay": "Apitong", "Land_Class": null, "PIN": "030-01-005-02-046" }, "geometry": null },
{ "type": "Feature", "properties": { "Id": 0, "CLN": "9640", "PSGC": "174001004", "Barangay": "Apitong", "Land_Class": null, "PIN": "030-01-005-02-043" }, "geometry": null },
{ "type": "Feature", "properties": { "Id": 0, "CLN": "9643", "PSGC": "174001004", "Barangay": "Apitong", "Land_Class": null, "PIN": "030-01-005-02-044" }, "geometry": null },
{ "type": "Feature", "properties": { "Id": 0, "CLN": "9645", "PSGC": "174001004", "Barangay": "Apitong", "Land_Class": null, "PIN": "030-01-005-02-039" }, "geometry": null },
{ "type": "Feature", "properties": { "Id": 0, "CLN": "9646", "PSGC": "174001004", "Barangay": "Apitong", "Land_Class": null, "PIN": "030-01-005-02-039" }, "geometry": null },
{ "type": "Feature", "properties": { "Id": 0, "CLN": "9649", "PSGC": "174001004", "Barangay": "Apitong", "Land_Class": null, "PIN": "030-01-005-02-037" }, "geometry": null },
{ "type": "Feature", "properties": { "Id": 0, "CLN": "9648", "PSGC": "174001004", "Barangay": "Apitong", "Land_Class": null, "PIN": "030-01-005-02-088" }, "geometry": null },
{ "type": "Feature", "properties": { "Id": 0, "CLN": "9647", "PSGC": "174001004", "Barangay": "Apitong", "Land_Class": null, "PIN": "030-01-005-02-038" }, "geometry": null },
{ "type": "Feature", "properties": { "Id": 0, "CLN": "9650", "PSGC": "174001004", "Barangay": "Apitong", "Land_Class": null, "PIN": "030-01-005-02-036" }, "geometry": null },
{ "type": "Feature", "properties": { "Id": 0, "CLN": "9656", "PSGC": "174001004", "Barangay": "Apitong", "Land_Class": null, "PIN": "030-01-005-02-067" }, "geometry": null },
{ "type": "Feature", "properties": { "Id": 0, "CLN": "9657", "PSGC": "174001004", "Barangay": "Apitong", "Land_Class": null, "PIN": "030-01-005-02-034" }, "geometry": null },
{ "type": "Feature", "properties": { "Id": 0, "CLN": "9655", "PSGC": "174001004", "Barangay": "Apitong", "Land_Class": null, "PIN": "030-01-005-02-016" }, "geometry": null },
{ "type": "Feature", "properties": { "Id": 0, "CLN": "9658", "PSGC": "174001004", "Barangay": "Apitong", "Land_Class": null, "PIN": "030-01-005-02-033" }, "geometry": null },
{ "type": "Feature", "properties": { "Id": 0, "CLN": "9665", "PSGC": "174001004", "Barangay": "Apitong", "Land_Class": null, "PIN": "030-01-005-02-081" }, "geometry": null },
{ "type": "Feature", "properties": { "Id": 0, "CLN": "9666", "PSGC": "174001004", "Barangay": "Apitong", "Land_Class": null, "PIN": "030-01-005-02-030" }, "geometry": null },
{ "type": "Feature", "properties": { "Id": 0, "CLN": "9667", "PSGC": "174001004", "Barangay": "Apitong", "Land_Class": null, "PIN": "030-01-005-02-029" }, "geometry": null },
{ "type": "Feature", "properties": { "Id": 0, "CLN": "9668", "PSGC": "174001004", "Barangay": "Apitong", "Land_Class": null, "PIN": "030-01-005-02-076" }, "geometry": null },
{ "type": "Feature", "properties": { "Id": 0, "CLN": "9669", "PSGC": "174001004", "Barangay": "Apitong", "Land_Class": null, "PIN": "030-01-005-02-027" }, "geometry": null },
{ "type": "Feature", "properties": { "Id": 0, "CLN": "9670", "PSGC": "174001004", "Barangay": "Apitong", "Land_Class": null, "PIN": "030-01-005-02-075" }, "geometry": null },
{ "type": "Feature", "properties": { "Id": 0, "CLN": "9473", "PSGC": "174001004", "Barangay": "Apitong", "Land_Class": null, "PIN": "030-01-005-02-001" }, "geometry": null },
{ "type": "Feature", "properties": { "Id": 0, "CLN": "9472", "PSGC": "174001004", "Barangay": "Apitong", "Land_Class": null, "PIN": "030-01-005-02-002" }, "geometry": null },
{ "type": "Feature", "properties": { "Id": 0, "CLN": "9661", "PSGC": "174001004", "Barangay": "Apitong", "Land_Class": null, "PIN": "030-01-005-02-021" }, "geometry": null },
{ "type": "Feature", "properties": { "Id": 0, "CLN": "9662", "PSGC": "174001004", "Barangay": "Apitong", "Land_Class": null, "PIN": "030-01-005-02-020" }, "geometry": null },
{ "type": "Feature", "properties": { "Id": 0, "CLN": "9532", "PSGC": "174001004", "Barangay": "Apitong", "Land_Class": null, "PIN": "030-01-005-04-003" }, "geometry": null },
{ "type": "Feature", "properties": { "Id": 0, "CLN": "9556", "PSGC": "174001004", "Barangay": "Apitong", "Land_Class": null, "PIN": "030-01-005-04-037" }, "geometry": null },
{ "type": "Feature", "properties": { "Id": 0, "CLN": "9530", "PSGC": "174001004", "Barangay": "Apitong", "Land_Class": null, "PIN": "030-01-005-04-004" }, "geometry": null },
{ "type": "Feature", "properties": { "Id": 0, "CLN": "9485", "PSGC": "174001004", "Barangay": "Apitong", "Land_Class": null, "PIN": "030-01-005-01-011" }, "geometry": null },
{ "type": "Feature", "properties": { "Id": 0, "CLN": "9528", "PSGC": "174001004", "Barangay": "Apitong", "Land_Class": null, "PIN": "030-01-005-04-006" }, "geometry": null },
{ "type": "Feature", "properties": { "Id": 0, "CLN": "9533", "PSGC": "174001004", "Barangay": "Apitong", "Land_Class": null, "PIN": "030-01-005-04-002" }, "geometry": null },
{ "type": "Feature", "properties": { "Id": 0, "CLN": "9525", "PSGC": "174001004", "Barangay": "Apitong", "Land_Class": null, "PIN": "030-01-005-03-067" }, "geometry": null },
{ "type": "Feature", "properties": { "Id": 0, "CLN": "9522", "PSGC": "174001004", "Barangay": "Apitong", "Land_Class": null, "PIN": "030-01-005-03-031" }, "geometry": null },
{ "type": "Feature", "properties": { "Id": 0, "CLN": "9535", "PSGC": "174001004", "Barangay": "Apitong", "Land_Class": null, "PIN": "030-01-005-04-014" }, "geometry": null },
{ "type": "Feature", "properties": { "Id": 0, "CLN": "9520", "PSGC": "174001004", "Barangay": "Apitong", "Land_Class": null, "PIN": "030-01-005-03-003" }, "geometry": null },
{ "type": "Feature", "properties": { "Id": 0, "CLN": "9517", "PSGC": "174001004", "Barangay": "Apitong", "Land_Class": null, "PIN": "030-01-005-03-010" }, "geometry": null },
{ "type": "Feature", "properties": { "Id": 0, "CLN": "9518", "PSGC": "174001004", "Barangay": "Apitong", "Land_Class": null, "PIN": "030-01-005-03-009" }, "geometry": null },
{ "type": "Feature", "properties": { "Id": 0, "CLN": "9519", "PSGC": "174001004", "Barangay": "Apitong", "Land_Class": null, "PIN": "030-01-005-03-006" }, "geometry": null },
{ "type": "Feature", "properties": { "Id": 0, "CLN": "9513", "PSGC": "174001004", "Barangay": "Apitong", "Land_Class": null, "PIN": "030-01-005-03-005" }, "geometry": null },
{ "type": "Feature", "properties": { "Id": 0, "CLN": "9514", "PSGC": "174001004", "Barangay": "Apitong", "Land_Class": null, "PIN": "030-01-005-03-007" }, "geometry": null },
{ "type": "Feature", "properties": { "Id": 0, "CLN": "9515", "PSGC": "174001004", "Barangay": "Apitong", "Land_Class": null, "PIN": "030-01-005-03-008" }, "geometry": null },
{ "type": "Feature", "properties": { "Id": 0, "CLN": "9516", "PSGC": "174001004", "Barangay": "Apitong", "Land_Class": null, "PIN": "030-01-005-03-011" }, "geometry": null },
{ "type": "Feature", "properties": { "Id": 0, "CLN": "9506", "PSGC": "174001004", "Barangay": "Apitong", "Land_Class": null, "PIN": "030-01-005-03-020" }, "geometry": null },
{ "type": "Feature", "properties": { "Id": 0, "CLN": "9508", "PSGC": "174001004", "Barangay": "Apitong", "Land_Class": null, "PIN": "030-01-005-03-025" }, "geometry": null },
{ "type": "Feature", "properties": { "Id": 0, "CLN": "9509", "PSGC": "174001004", "Barangay": "Apitong", "Land_Class": null, "PIN": "030-01-005-03-016" }, "geometry": null },
{ "type": "Feature", "properties": { "Id": 0, "CLN": "9503", "PSGC": "174001004", "Barangay": "Apitong", "Land_Class": null, "PIN": "030-01-005-01-010" }, "geometry": null },
{ "type": "Feature", "properties": { "Id": 0, "CLN": "9501", "PSGC": "174001004", "Barangay": "Apitong", "Land_Class": null, "PIN": "030-01-005-01-008" }, "geometry": null },
{ "type": "Feature", "properties": { "Id": 0, "CLN": "9500", "PSGC": "174001004", "Barangay": "Apitong", "Land_Class": null, "PIN": "030-01-005-01-007" }, "geometry": null },
{ "type": "Feature", "properties": { "Id": 0, "CLN": "9499", "PSGC": "174001004", "Barangay": "Apitong", "Land_Class": null, "PIN": "030-01-005-01-005" }, "geometry": null },
{ "type": "Feature", "properties": { "Id": 0, "CLN": "9510", "PSGC": "174001004", "Barangay": "Apitong", "Land_Class": null, "PIN": "030-01-005-03-069" }, "geometry": null },
{ "type": "Feature", "properties": { "Id": 0, "CLN": "9511", "PSGC": "174001004", "Barangay": "Apitong", "Land_Class": null, "PIN": "030-01-005-01-002" }, "geometry": null },
{ "type": "Feature", "properties": { "Id": 0, "CLN": "9512", "PSGC": "174001004", "Barangay": "Apitong", "Land_Class": null, "PIN": "030-01-005-03-004" }, "geometry": null },
{ "type": "Feature", "properties": { "Id": 0, "CLN": "9582", "PSGC": "174001004", "Barangay": "Apitong", "Land_Class": null, "PIN": "030-01-005-03-052" }, "geometry": null },
{ "type": "Feature", "properties": { "Id": 0, "CLN": "9603", "PSGC": "174001004", "Barangay": "Apitong", "Land_Class": null, "PIN": "030-01-005-03-051" }, "geometry": null },
{ "type": "Feature", "properties": { "Id": 0, "CLN": "9631", "PSGC": "174001004", "Barangay": "Apitong", "Land_Class": null, "PIN": "030-01-005-02-052" }, "geometry": null },
{ "type": "Feature", "properties": { "Id": 0, "CLN": "9639", "PSGC": "174001004", "Barangay": "Apitong", "Land_Class": null, "PIN": "030-01-005-02-048" }, "geometry": null },
{ "type": "Feature", "properties": { "Id": 0, "CLN": "9557", "PSGC": "174001004", "Barangay": "Apitong", "Land_Class": null, "PIN": "030-01-005-04-029" }, "geometry": null },
{ "type": "Feature", "properties": { "Id": 0, "CLN": "9539", "PSGC": "174001004", "Barangay": "Apitong", "Land_Class": null, "PIN": "030-01-005-04-054" }, "geometry": null },
{ "type": "Feature", "properties": { "Id": 0, "CLN": "9551", "PSGC": "174001004", "Barangay": "Apitong", "Land_Class": null, "PIN": "030-01-005-04-017" }, "geometry": null },
{ "type": "Feature", "properties": { "Id": 0, "CLN": "9593", "PSGC": "174001004", "Barangay": "Apitong", "Land_Class": null, "PIN": "030-01-005-01-001" }, "geometry": null },
{ "type": "Feature", "properties": { "Id": 0, "CLN": "9493", "PSGC": "174001004", "Barangay": "Apitong", "Land_Class": null, "PIN": "030-01-005-01-015" }, "geometry": null },
{ "type": "Feature", "properties": { "Id": 0, "CLN": "9490", "PSGC": "174001004", "Barangay": "Apitong", "Land_Class": null, "PIN": "030-01-005-01-018" }, "geometry": null },
{ "type": "Feature", "properties": { "Id": 0, "CLN": "9613", "PSGC": "174001004", "Barangay": "Apitong", "Land_Class": null, "PIN": "030-01-005-01-024" }, "geometry": null },
{ "type": "Feature", "properties": { "Id": 0, "CLN": "9591", "PSGC": "174001004", "Barangay": "Apitong", "Land_Class": null, "PIN": "030-01-005-01-039" }, "geometry": null },
{ "type": "Feature", "properties": { "Id": 0, "CLN": "9590", "PSGC": "174001004", "Barangay": "Apitong", "Land_Class": null, "PIN": "030-01-005-01-027" }, "geometry": null },
{ "type": "Feature", "properties": { "Id": 0, "CLN": "9474", "PSGC": "174001004", "Barangay": "Apitong", "Land_Class": null, "PIN": "030-01-005-01-028" }, "geometry": null },
{ "type": "Feature", "properties": { "Id": 0, "CLN": "9477", "PSGC": "174001004", "Barangay": "Apitong", "Land_Class": null, "PIN": "030-01-005-01-029" }, "geometry": null },
{ "type": "Feature", "properties": { "Id": 0, "CLN": "9478", "PSGC": "174001004", "Barangay": "Apitong", "Land_Class": null, "PIN": "030-01-005-01-030" }, "geometry": null },
{ "type": "Feature", "properties": { "Id": 0, "CLN": "9481", "PSGC": "174001004", "Barangay": "Apitong", "Land_Class": null, "PIN": "030-01-005-01-031" }, "geometry": null },
{ "type": "Feature", "properties": { "Id": 0, "CLN": "9479", "PSGC": "174001004", "Barangay": "Apitong", "Land_Class": null, "PIN": "030-01-005-01-032" }, "geometry": null },
{ "type": "Feature", "properties": { "Id": 0, "CLN": "9614", "PSGC": "174001004", "Barangay": "Apitong", "Land_Class": null, "PIN": "030-01-005-02-059" }, "geometry": null },
{ "type": "Feature", "properties": { "Id": 0, "CLN": "9610", "PSGC": "174001004", "Barangay": "Apitong", "Land_Class": null, "PIN": "030-01-005-03-024" }, "geometry": null },
{ "type": "Feature", "properties": { "Id": 0, "CLN": "9609", "PSGC": "174001004", "Barangay": "Apitong", "Land_Class": null, "PIN": "030-01-005-03-026" }, "geometry": null },
{ "type": "Feature", "properties": { "Id": 0, "CLN": "9629", "PSGC": "174001004", "Barangay": "Apitong", "Land_Class": null, "PIN": "030-01-005-03-022" }, "geometry": null },
{ "type": "Feature", "properties": { "Id": 0, "CLN": "9628", "PSGC": "174001004", "Barangay": "Apitong", "Land_Class": null, "PIN": "030-01-005-02-058" }, "geometry": null },
{ "type": "Feature", "properties": { "Id": 0, "CLN": "9615", "PSGC": "174001004", "Barangay": "Apitong", "Land_Class": null, "PIN": "030-01-005-02-005" }, "geometry": null },
{ "type": "Feature", "properties": { "Id": 0, "CLN": "9616", "PSGC": "174001004", "Barangay": "Apitong", "Land_Class": null, "PIN": "030-01-005-02-006" }, "geometry": null },
{ "type": "Feature", "properties": { "Id": 0, "CLN": "9470", "PSGC": "174001004", "Barangay": "Apitong", "Land_Class": null, "PIN": "030-01-005-02-003" }, "geometry": null },
{ "type": "Feature", "properties": { "Id": 0, "CLN": "9617", "PSGC": "174001004", "Barangay": "Apitong", "Land_Class": null, "PIN": "030-01-005-02-009" }, "geometry": null },
{ "type": "Feature", "properties": { "Id": 0, "CLN": "9618", "PSGC": "174001004", "Barangay": "Apitong", "Land_Class": null, "PIN": "030-01-005-02-008" }, "geometry": null },
{ "type": "Feature", "properties": { "Id": 0, "CLN": "9619", "PSGC": "174001004", "Barangay": "Apitong", "Land_Class": null, "PIN": "030-01-005-02-010" }, "geometry": null },
{ "type": "Feature", "properties": { "Id": 0, "CLN": "9651", "PSGC": "174001004", "Barangay": "Apitong", "Land_Class": null, "PIN": "030-01-005-02-012" }, "geometry": null },
{ "type": "Feature", "properties": { "Id": 0, "CLN": "9652", "PSGC": "174001004", "Barangay": "Apitong", "Land_Class": null, "PIN": "030-01-005-02-013" }, "geometry": null },
{ "type": "Feature", "properties": { "Id": 0, "CLN": "9674", "PSGC": "174001004", "Barangay": "Apitong", "Land_Class": null, "PIN": "030-01-005-02-022" }, "geometry": null },
{ "type": "Feature", "properties": { "Id": 0, "CLN": "9673", "PSGC": "174001004", "Barangay": "Apitong", "Land_Class": null, "PIN": "030-01-005-02-079" }, "geometry": null },
{ "type": "Feature", "properties": { "Id": 0, "CLN": "9567", "PSGC": "174001004", "Barangay": "Apitong", "Land_Class": null, "PIN": "030-01-005-03-061" }, "geometry": null },
{ "type": "Feature", "properties": { "Id": 0, "CLN": "9578", "PSGC": "174001004", "Barangay": "Apitong", "Land_Class": null, "PIN": "030-01-005-03-028" }, "geometry": null },
{ "type": "Feature", "properties": { "Id": 0, "CLN": "9572", "PSGC": "174001004", "Barangay": "Apitong", "Land_Class": null, "PIN": "030-01-005-03-059" }, "geometry": null },
{ "type": "Feature", "properties": { "Id": 0, "CLN": "9574", "PSGC": "174001004", "Barangay": "Apitong", "Land_Class": null, "PIN": "030-01-005-03-058" }, "geometry": null },
{ "type": "Feature", "properties": { "Id": 0, "CLN": "9567", "PSGC": "174001004", "Barangay": "Apitong", "Land_Class": null, "PIN": "030-01-005-03-061" }, "geometry": null },
{ "type": "Feature", "properties": { "Id": 0, "CLN": "9573", "PSGC": "174001004", "Barangay": "Apitong", "Land_Class": null, "PIN": "030-01-005-03-060" }, "geometry": null },
{ "type": "Feature", "properties": { "Id": 0, "CLN": "9570", "PSGC": "174001004", "Barangay": "Apitong", "Land_Class": null, "PIN": "030-01-005-03-063" }, "geometry": null },
{ "type": "Feature", "properties": { "Id": 0, "CLN": "9568", "PSGC": "174001004", "Barangay": "Apitong", "Land_Class": null, "PIN": "030-01-005-03-065" }, "geometry": null },
{ "type": "Feature", "properties": { "Id": 0, "CLN": "9571", "PSGC": "174001004", "Barangay": "Apitong", "Land_Class": null, "PIN": "030-01-005-03-062" }, "geometry": null },
{ "type": "Feature", "properties": { "Id": 0, "CLN": "9575", "PSGC": "174001004", "Barangay": "Apitong", "Land_Class": null, "PIN": "030-01-005-03-032" }, "geometry": null },
{ "type": "Feature", "properties": { "Id": 0, "CLN": "9576", "PSGC": "174001004", "Barangay": "Apitong", "Land_Class": null, "PIN": "030-01-005-03-030" }, "geometry": null },
{ "type": "Feature", "properties": { "Id": 0, "CLN": "9579", "PSGC": "174001004", "Barangay": "Apitong", "Land_Class": null, "PIN": "030-01-005-03-040" }, "geometry": null },
{ "type": "Feature", "properties": { "Id": 0, "CLN": "9600", "PSGC": "174001004", "Barangay": "Apitong", "Land_Class": null, "PIN": "030-01-005-03-033" }, "geometry": null },
{ "type": "Feature", "properties": { "Id": 0, "CLN": "9581", "PSGC": "174001004", "Barangay": "Apitong", "Land_Class": null, "PIN": "030-01-005-03-038" }, "geometry": null },
{ "type": "Feature", "properties": { "Id": 0, "CLN": "9585", "PSGC": "174001004", "Barangay": "Apitong", "Land_Class": null, "PIN": "030-01-005-03-036" }, "geometry": null },
{ "type": "Feature", "properties": { "Id": 0, "CLN": "9584", "PSGC": "174001004", "Barangay": "Apitong", "Land_Class": null, "PIN": "030-01-005-03-037" }, "geometry": null },
{ "type": "Feature", "properties": { "Id": 0, "CLN": "9599", "PSGC": "174001004", "Barangay": "Apitong", "Land_Class": null, "PIN": "030-01-005-03-055" }, "geometry": null },
{ "type": "Feature", "properties": { "Id": 0, "CLN": "9583", "PSGC": "174001004", "Barangay": "Apitong", "Land_Class": null, "PIN": "030-01-005-03-053" }, "geometry": null },
{ "type": "Feature", "properties": { "Id": 0, "CLN": "9602", "PSGC": "174001004", "Barangay": "Apitong", "Land_Class": null, "PIN": "030-01-005-03-056" }, "geometry": null },
{ "type": "Feature", "properties": { "Id": 0, "CLN": "9634", "PSGC": "174001004", "Barangay": "Apitong", "Land_Class": null, "PIN": "030-01-005-03-044" }, "geometry": null },
{ "type": "Feature", "properties": { "Id": 0, "CLN": "9622", "PSGC": "174001004", "Barangay": "Apitong", "Land_Class": null, "PIN": "030-01-005-02-051" }, "geometry": null },
{ "type": "Feature", "properties": { "Id": 0, "CLN": "9612", "PSGC": "174001004", "Barangay": "Apitong", "Land_Class": null, "PIN": "030-01-005-03-071" }, "geometry": null },
{ "type": "Feature", "properties": { "Id": 0, "CLN": "9475", "PSGC": "174001004", "Barangay": "Apitong", "Land_Class": null, "PIN": "030-01-005-02-004" }, "geometry": null },
{ "type": "Feature", "properties": { "Id": 0, "CLN": "9653", "PSGC": "174001004", "Barangay": "Apitong", "Land_Class": null, "PIN": "030-01-005-02-014" }, "geometry": null },
{ "type": "Feature", "properties": { "Id": 0, "CLN": "9660", "PSGC": "174001004", "Barangay": "Apitong", "Land_Class": null, "PIN": "030-01-005-02-017" }, "geometry": null },
{ "type": "Feature", "properties": { "Id": 0, "CLN": "9664", "PSGC": "174001004", "Barangay": "Apitong", "Land_Class": null, "PIN": "030-01-005-02-086" }, "geometry": null },
{ "type": "Feature", "properties": { "Id": 0, "CLN": "9672", "PSGC": "174001004", "Barangay": "Apitong", "Land_Class": null, "PIN": "030-01-005-02-065" }, "geometry": null },
{ "type": "Feature", "properties": { "Id": 0, "CLN": "9671", "PSGC": "174001004", "Barangay": "Apitong", "Land_Class": null, "PIN": "030-01-005-02-025" }, "geometry": null },
{ "type": "Feature", "properties": { "Id": 0, "CLN": "9534", "PSGC": "174001004", "Barangay": "Apitong", "Land_Class": null, "PIN": "030-01-005-04-001" }, "geometry": null },
{ "type": "Feature", "properties": { "Id": 0, "CLN": "9535", "PSGC": "174001004", "Barangay": "Apitong", "Land_Class": null, "PIN": "030-01-005-04-014" }, "geometry": null },
{ "type": "Feature", "properties": { "Id": 0, "CLN": "9352", "PSGC": "174001004", "Barangay": "Apitong", "Land_Class": null, "PIN": "030-01-012-03-029" }, "geometry": null },
{ "type": "Feature", "properties": { "Id": 0, "CLN": "9536", "PSGC": "174001004", "Barangay": "Apitong", "Land_Class": null, "PIN": "030-01-005-04-013" }, "geometry": null },
{ "type": "Feature", "properties": { "Id": 0, "CLN": "9537", "PSGC": "174001004", "Barangay": "Apitong", "Land_Class": null, "PIN": "030-01-005-04-012" }, "geometry": null },
{ "type": "Feature", "properties": { "Id": 0, "CLN": "9538", "PSGC": "174001004", "Barangay": "Apitong", "Land_Class": null, "PIN": "030-01-005-04-011" }, "geometry": null },
{ "type": "Feature", "properties": { "Id": 0, "CLN": "9561", "PSGC": "174001004", "Barangay": "Apitong", "Land_Class": null, "PIN": "030-01-005-04-033" }, "geometry": null },
{ "type": "Feature", "properties": { "Id": 0, "CLN": "9560", "PSGC": "174001004", "Barangay": "Apitong", "Land_Class": null, "PIN": "030-01-005-04-032" }, "geometry": null },
{ "type": "Feature", "properties": { "Id": 0, "CLN": "9558", "PSGC": "174001004", "Barangay": "Apitong", "Land_Class": null, "PIN": "030-01-005-04-031" }, "geometry": null },
{ "type": "Feature", "properties": { "Id": 0, "CLN": "9563", "PSGC": "174001004", "Barangay": "Apitong", "Land_Class": null, "PIN": "030-01-005-04-035" }, "geometry": null },
{ "type": "Feature", "properties": { "Id": 0, "CLN": "9364", "PSGC": "174001004", "Barangay": "Apitong", "Land_Class": null, "PIN": "030-01-012-03-040" }, "geometry": null },
{ "type": "Feature", "properties": { "Id": 0, "CLN": "9529", "PSGC": "174001004", "Barangay": "Apitong", "Land_Class": null, "PIN": "030-01-005-04-005" }, "geometry": null },
{ "type": "Feature", "properties": { "Id": 0, "CLN": "9541", "PSGC": "174001004", "Barangay": "Apitong", "Land_Class": null, "PIN": "030-01-005-04-024" }, "geometry": null },
{ "type": "Feature", "properties": { "Id": 0, "CLN": "9541", "PSGC": "174001004", "Barangay": "Apitong", "Land_Class": null, "PIN": "030-01-005-04-024" }, "geometry": null },
{ "type": "Feature", "properties": { "Id": 0, "CLN": "9555", "PSGC": "174001004", "Barangay": "Apitong", "Land_Class": null, "PIN": "030-01-005-04-043" }, "geometry": null },
{ "type": "Feature", "properties": { "Id": 0, "CLN": "9343", "PSGC": "174001004", "Barangay": "Apitong", "Land_Class": null, "PIN": "030-01-005-04-026" }, "geometry": null },
{ "type": "Feature", "properties": { "Id": 0, "CLN": "9544", "PSGC": "174001004", "Barangay": "Apitong", "Land_Class": null, "PIN": "030-01-005-04-023" }, "geometry": null },
{ "type": "Feature", "properties": { "Id": 0, "CLN": "9598", "PSGC": "174001004", "Barangay": "Apitong", "Land_Class": null, "PIN": "030-01-047-01-037" }, "geometry": null },
{ "type": "Feature", "properties": { "Id": 0, "CLN": "9540", "PSGC": "174001004", "Barangay": "Apitong", "Land_Class": null, "PIN": "030-01-005-04-009" }, "geometry": null },
{ "type": "Feature", "properties": { "Id": 0, "CLN": "9545", "PSGC": "174001004", "Barangay": "Apitong", "Land_Class": null, "PIN": "030-01-005-04-022" }, "geometry": null },
{ "type": "Feature", "properties": { "Id": 0, "CLN": "9546", "PSGC": "174001004", "Barangay": "Apitong", "Land_Class": null, "PIN": "030-01-005-04-021" }, "geometry": null },
{ "type": "Feature", "properties": { "Id": 0, "CLN": "9547", "PSGC": "174001004", "Barangay": "Apitong", "Land_Class": null, "PIN": "030-01-005-04-020" }, "geometry": null },
{ "type": "Feature", "properties": { "Id": 0, "CLN": "9550", "PSGC": "174001004", "Barangay": "Apitong", "Land_Class": null, "PIN": "030-01-005-04-018" }, "geometry": null },
{ "type": "Feature", "properties": { "Id": 0, "CLN": "9545", "PSGC": "174001004", "Barangay": "Apitong", "Land_Class": null, "PIN": "030-01-005-04-022" }, "geometry": null },
{ "type": "Feature", "properties": { "Id": 0, "CLN": "9566", "PSGC": "174001004", "Barangay": "Apitong", "Land_Class": null, "PIN": "030-01-005-04-041" }, "geometry": null },
{ "type": "Feature", "properties": { "Id": 0, "CLN": "9589", "PSGC": "174001004", "Barangay": "Apitong", "Land_Class": null, "PIN": "030-01-005-04-040" }, "geometry": null },
{ "type": "Feature", "properties": { "Id": 0, "CLN": "9524", "PSGC": "174001004", "Barangay": "Apitong", "Land_Class": null, "PIN": "030-01-005-03-066" }, "geometry": null },
{ "type": "Feature", "properties": { "Id": 0, "CLN": "9503", "PSGC": "174001004", "Barangay": "Apitong", "Land_Class": null, "PIN": "030-01-005-01-010" }, "geometry": null },
{ "type": "Feature", "properties": { "Id": 0, "CLN": "9507", "PSGC": "174001004", "Barangay": "Apitong", "Land_Class": null, "PIN": "030-01-005-03-019" }, "geometry": null },
{ "type": "Feature", "properties": { "Id": 0, "CLN": "9504", "PSGC": "174001004", "Barangay": "Apitong", "Land_Class": null, "PIN": "030-01-005-03-017" }, "geometry": null },
{ "type": "Feature", "properties": { "Id": 0, "CLN": "9502", "PSGC": "174001004", "Barangay": "Apitong", "Land_Class": null, "PIN": "030-01-005-01-035" }, "geometry": null },
{ "type": "Feature", "properties": { "Id": 0, "CLN": "9565", "PSGC": "174001004", "Barangay": "Apitong", "Land_Class": null, "PIN": "030-01-005-04-039" }, "geometry": null },
{ "type": "Feature", "properties": { "Id": 0, "CLN": "9526", "PSGC": "174001004", "Barangay": "Apitong", "Land_Class": null, "PIN": "030-01-005-03-013" }, "geometry": null },
{ "type": "Feature", "properties": { "Id": 0, "CLN": "9559", "PSGC": "174001004", "Barangay": "Apitong", "Land_Class": null, "PIN": "030-01-005-04-030" }, "geometry": null },
{ "type": "Feature", "properties": { "Id": 0, "CLN": "9620", "PSGC": "174001004", "Barangay": "Apitong", "Land_Class": null, "PIN": "030-01-005-02-011" }, "geometry": null },
{ "type": "Feature", "properties": { "Id": 0, "CLN": "9486", "PSGC": "174001004", "Barangay": "Apitong", "Land_Class": null, "PIN": "030-01-005-01-012" }, "geometry": null },
{ "type": "Feature", "properties": { "Id": 0, "CLN": "9476", "PSGC": "174001004", "Barangay": "Apitong", "Land_Class": null, "PIN": "030-01-005-01-026" }, "geometry": null },
{ "type": "Feature", "properties": { "Id": 0, "CLN": "9492", "PSGC": "174001004", "Barangay": "Apitong", "Land_Class": null, "PIN": "030-01-005-01-013" }, "geometry": null },
{ "type": "Feature", "properties": { "Id": 0, "CLN": "9623", "PSGC": "174001004", "Barangay": "Apitong", "Land_Class": null, "PIN": "030-01-005-02-050" }, "geometry": null },
{ "type": "Feature", "properties": { "Id": 0, "CLN": "9585", "PSGC": "174001004", "Barangay": "Apitong", "Land_Class": null, "PIN": "030-01-005-03-039" }, "geometry": null },
{ "type": "Feature", "properties": { "Id": 0, "CLN": "9527", "PSGC": "174001004", "Barangay": "Apitong", "Land_Class": null, "PIN": "030-01-005-04-007" }, "geometry": null },
{ "type": "Feature", "properties": { "Id": 0, "CLN": "9548", "PSGC": "174001004", "Barangay": "Apitong", "Land_Class": null, "PIN": "030-01-005-04-019" }, "geometry": null },
{ "type": "Feature", "properties": { "Id": 0, "CLN": "9554", "PSGC": "174001004", "Barangay": "Apitong", "Land_Class": null, "PIN": "030-01-005-04-028" }, "geometry": null },
{ "type": "Feature", "properties": { "Id": 0, "CLN": "9553", "PSGC": "174001004", "Barangay": "Apitong", "Land_Class": null, "PIN": "030-01-005-04-027" }, "geometry": null },
{ "type": "Feature", "properties": { "Id": 0, "CLN": "9562", "PSGC": "174001004", "Barangay": "Apitong", "Land_Class": null, "PIN": "030-01-005-04-055" }, "geometry": null },
{ "type": "Feature", "properties": { "Id": 0, "CLN": "9663", "PSGC": "174001004", "Barangay": "Apitong", "Land_Class": null, "PIN": "030-01-005-02-019" }, "geometry": null },
{ "type": "Feature", "properties": { "Id": 0, "CLN": "9471", "PSGC": "174001004", "Barangay": "Apitong", "Land_Class": null, "PIN": "030-01-005-02-007" }, "geometry": null },
{ "type": "Feature", "properties": { "Id": 0, "CLN": "9665", "PSGC": "174001004", "Barangay": "Apitong", "Land_Class": null, "PIN": "030-01-005-02-082" }, "geometry": null },
{ "type": "Feature", "properties": { "Id": 0, "CLN": "9668", "PSGC": "174001004", "Barangay": "Apitong", "Land_Class": null, "PIN": "030-01-005-02-078" }, "geometry": null },
{ "type": "Feature", "properties": { "Id": 0, "CLN": "9668", "PSGC": "174001004", "Barangay": "Apitong", "Land_Class": null, "PIN": "030-01-005-02-077" }, "geometry": null },
{ "type": "Feature", "properties": { "Id": 0, "CLN": "9670", "PSGC": "174001004", "Barangay": "Apitong", "Land_Class": null, "PIN": "030-01-005-02-074" }, "geometry": null },
{ "type": "Feature", "properties": { "Id": 0, "CLN": "9539", "PSGC": "174001004", "Barangay": "Apitong", "Land_Class": null, "PIN": "030-01-005-04-053" }, "geometry": null },
{ "type": "Feature", "properties": { "Id": 0, "CLN": "9591", "PSGC": "174001004", "Barangay": "Apitong", "Land_Class": null, "PIN": "030-01-005-01-038" }, "geometry": null },
{ "type": "Feature", "properties": { "Id": 0, "CLN": "9673", "PSGC": "174001004", "Barangay": "Apitong", "Land_Class": null, "PIN": "030-01-005-02-080" }, "geometry": null },
{ "type": "Feature", "properties": { "Id": 0, "CLN": "9622", "PSGC": "174001004", "Barangay": "Apitong", "Land_Class": null, "PIN": "030-01-005-02-061" }, "geometry": null },
{ "type": "Feature", "properties": { "Id": 0, "CLN": "9622", "PSGC": "174001004", "Barangay": "Apitong", "Land_Class": null, "PIN": "030-01-005-02-063" }, "geometry": null },
{ "type": "Feature", "properties": { "Id": 0, "CLN": "9622", "PSGC": "174001004", "Barangay": "Apitong", "Land_Class": null, "PIN": "030-01-005-02-062" }, "geometry": null },
{ "type": "Feature", "properties": { "Id": 0, "CLN": "9612", "PSGC": "174001004", "Barangay": "Apitong", "Land_Class": null, "PIN": "030-01-005-03-021" }, "geometry": null },
{ "type": "Feature", "properties": { "Id": 0, "CLN": "9672", "PSGC": "174001004", "Barangay": "Apitong", "Land_Class": null, "PIN": "030-01-005-02-066" }, "geometry": null },
{ "type": "Feature", "properties": { "Id": 0, "CLN": "9502", "PSGC": "174001004", "Barangay": "Apitong", "Land_Class": null, "PIN": "030-01-005-01-034" }, "geometry": null },
{ "type": "Feature", "properties": { "Id": 0, "CLN": "9562", "PSGC": "174001004", "Barangay": "Apitong", "Land_Class": null, "PIN": "030-01-005-04-056" }, "geometry": null }
]
}
