{
"type": "FeatureCollection",
"name": "Bayote",
"crs": { "type": "name", "properties": { "name": "urn:ogc:def:crs:OGC:1.3:CRS84" } },
"features": [
{ "type": "Feature", "properties": { "Id": 0, "CLN": "19730", "PSGC": "174001013", "Barangay": "Bayote", "Land_Class": null, "PIN": "030-01-014-01-003" }, "geometry": { "type": "Polygon", "coordinates": [ [ [ 121.959634998825592, 13.349615068943475 ], [ 121.95872411330572, 13.348596510075607 ], [ 121.958220344150448, 13.348078945734011 ], [ 121.957392109858844, 13.348611214658884 ], [ 121.955840783429323, 13.349542505713552 ], [ 121.956319478194786, 13.349708895135928 ], [ 121.956725003501077, 13.349874982418134 ], [ 121.957185240091235, 13.349914003569991 ], [ 121.957379115973723, 13.350174686680866 ], [ 121.957579296315942, 13.350228548184104 ], [ 121.957654602938476, 13.350350844960493 ], [ 121.957894334426555, 13.350643539066397 ], [ 121.959634998825592, 13.349615068943475 ] ] ] } },
{ "type": "Feature", "properties": { "Id": 0, "CLN": "19726", "PSGC": "174001013", "Barangay": "Bayote", "Land_Class": null, "PIN": "030-01-014-01-005" }, "geometry": { "type": "Polygon", "coordinates": [ [ [ 121.955732759730111, 13.347848134261797 ], [ 121.954225307778472, 13.346686540210337 ], [ 121.953393360754575, 13.348080061554594 ], [ 121.953165692694853, 13.348182478487425 ], [ 121.9532449050606, 13.348603634126485 ], [ 121.95339007369158, 13.348853511180538 ], [ 121.953963320920934, 13.349062725596903 ], [ 121.954297973444881, 13.349334599495135 ], [ 121.954493831424571, 13.349133864267127 ], [ 121.954857392078566, 13.348981554645151 ], [ 121.955176007842738, 13.348627406672682 ], [ 121.955732759730111, 13.347848134261797 ] ] ] } },
{ "type": "Feature", "properties": { "Id": 0, "CLN": "19733", "PSGC": "174001013", "Barangay": "Bayote", "Land_Class": null, "PIN": "030-01-014-02-017" }, "geometry": { "type": "Polygon", "coordinates": [ [ [ 121.953094831275237, 13.347658691303739 ], [ 121.952543985935336, 13.346049390864669 ], [ 121.951415818064405, 13.34648586926574 ], [ 121.950910789790285, 13.346718977467317 ], [ 121.950768292818864, 13.347580980877915 ], [ 121.951423144964622, 13.347273656231115 ], [ 121.951724027347652, 13.347148859994793 ], [ 121.952269532580914, 13.347508232395338 ], [ 121.953094831275237, 13.347658691303739 ] ] ] } },
{ "type": "Feature", "properties": { "Id": 0, "CLN": "19725", "PSGC": "174001013", "Barangay": "Bayote", "Land_Class": null, "PIN": "030-01-014-02-018" }, "geometry": { "type": "Polygon", "coordinates": [ [ [ 121.953094831275237, 13.347658691303739 ], [ 121.953503248843901, 13.347471316607038 ], [ 121.953978556242674, 13.346696025263515 ], [ 121.95393935843839, 13.345834582201602 ], [ 121.952923254273927, 13.345158166795271 ], [ 121.952427264143054, 13.34575481249261 ], [ 121.952543985935307, 13.346049390864636 ], [ 121.953094831275237, 13.347658691303739 ] ] ] } },
{ "type": "Feature", "properties": { "Id": 0, "CLN": "19734", "PSGC": "174001013", "Barangay": "Bayote", "Land_Class": null, "PIN": "030-01-014-02-016" }, "geometry": { "type": "Polygon", "coordinates": [ [ [ 121.952923254273927, 13.345158166795256 ], [ 121.952152138960784, 13.344881890809106 ], [ 121.952000431092117, 13.34523838001204 ], [ 121.951430079596946, 13.345666661308401 ], [ 121.950980168763977, 13.346022100096025 ], [ 121.950910789790285, 13.346718977467317 ], [ 121.951415818064405, 13.34648586926574 ], [ 121.952543985935336, 13.346049390864669 ], [ 121.952427264143083, 13.345754812492627 ], [ 121.952923254273927, 13.345158166795256 ] ] ] } },
{ "type": "Feature", "properties": { "Id": 0, "CLN": "19757", "PSGC": "174001013", "Barangay": "Bayote", "Land_Class": null, "PIN": "030-01-014-02-015" }, "geometry": { "type": "Polygon", "coordinates": [ [ [ 121.952821060218923, 13.343981360634826 ], [ 121.95261780487121, 13.343854479685898 ], [ 121.951799440353909, 13.344586336502338 ], [ 121.951549926919085, 13.345236516771029 ], [ 121.951409895992228, 13.345372481955367 ], [ 121.951145130079922, 13.345714645952853 ], [ 121.950980168763977, 13.346022100096025 ], [ 121.951430079596946, 13.345666661308401 ], [ 121.952000431092117, 13.34523838001204 ], [ 121.952152138960784, 13.344881890809106 ], [ 121.952821060218923, 13.343981360634826 ] ] ] } },
{ "type": "Feature", "properties": { "Id": 0, "CLN": "19701", "PSGC": "174001013", "Barangay": "Bayote", "Land_Class": null, "PIN": "030-01-014-02-023" }, "geometry": { "type": "Polygon", "coordinates": [ [ [ 121.952821060218923, 13.343981360634807 ], [ 121.953595881827809, 13.343396368419365 ], [ 121.953147054665635, 13.343005888264566 ], [ 121.952617804871238, 13.3438544796859 ], [ 121.952821060218923, 13.343981360634807 ] ] ] } },
{ "type": "Feature", "properties": { "Id": 0, "CLN": "19756", "PSGC": "174001013", "Barangay": "Bayote", "Land_Class": null, "PIN": "030-01-014-02-014" }, "geometry": { "type": "Polygon", "coordinates": [ [ [ 121.95261780487121, 13.343854479685898 ], [ 121.951397778945903, 13.343208726484335 ], [ 121.950999601804384, 13.343701427448558 ], [ 121.950160488540959, 13.344417590887684 ], [ 121.95140877966918, 13.345173129335777 ], [ 121.951409895992228, 13.345372481955367 ], [ 121.951549926919085, 13.345236516771029 ], [ 121.951799440353909, 13.344586336502338 ], [ 121.95261780487121, 13.343854479685898 ] ] ] } },
{ "type": "Feature", "properties": { "Id": 0, "CLN": "19754", "PSGC": "174001013", "Barangay": "Bayote", "Land_Class": null, "PIN": "030-01-014-02-024" }, "geometry": { "type": "Polygon", "coordinates": [ [ [ 121.950999601804384, 13.343701427448558 ], [ 121.951397778945903, 13.343208726484335 ], [ 121.95261780487121, 13.343854479685898 ], [ 121.953147054665635, 13.343005888264546 ], [ 121.952956562112689, 13.342406405981585 ], [ 121.951640822278264, 13.341571197302317 ], [ 121.951735636238581, 13.34197071960204 ], [ 121.951433310581336, 13.342431620001268 ], [ 121.950978833763429, 13.342921462305107 ], [ 121.950507048954066, 13.343191285492498 ], [ 121.950324641060121, 13.343515479801932 ], [ 121.950285862847423, 13.344112044818399 ], [ 121.950160488540959, 13.344417590887684 ], [ 121.950999601804384, 13.343701427448558 ] ] ] } },
{ "type": "Feature", "properties": { "Id": 0, "CLN": "19724", "PSGC": "174001013", "Barangay": "Bayote", "Land_Class": null, "PIN": "030-01-014-02-019" }, "geometry": { "type": "Polygon", "coordinates": [ [ [ 121.95393935843839, 13.345834582201602 ], [ 121.954111883736729, 13.345625225626389 ], [ 121.954777954393251, 13.34538639452221 ], [ 121.955543223852487, 13.344528267664069 ], [ 121.955428485190623, 13.343771547411595 ], [ 121.955569912228157, 13.343309978968284 ], [ 121.956216552515883, 13.342598408654972 ], [ 121.954236410736229, 13.34161342806391 ], [ 121.953850043766067, 13.341664351114801 ], [ 121.95336682485042, 13.341788397742958 ], [ 121.952956562112689, 13.342406405981569 ], [ 121.953147054665635, 13.343005888264566 ], [ 121.953595881827809, 13.343396368419365 ], [ 121.952821060218923, 13.343981360634807 ], [ 121.952152138960784, 13.344881890809086 ], [ 121.952923254273927, 13.345158166795271 ], [ 121.95393935843839, 13.345834582201602 ] ] ] } },
{ "type": "Feature", "properties": { "Id": 0, "CLN": "19721", "PSGC": "174001013", "Barangay": "Bayote", "Land_Class": null, "PIN": "030-01-014-02-021" }, "geometry": { "type": "Polygon", "coordinates": [ [ [ 121.95336682485042, 13.341788397742958 ], [ 121.953850043766067, 13.341664351114801 ], [ 121.953845020320045, 13.340650749019172 ], [ 121.953442486586738, 13.340719985849324 ], [ 121.95336682485042, 13.341788397742958 ] ] ] } },
{ "type": "Feature", "properties": { "Id": 0, "CLN": "19722", "PSGC": "174001013", "Barangay": "Bayote", "Land_Class": null, "PIN": "030-01-014-02-020" }, "geometry": { "type": "Polygon", "coordinates": [ [ [ 121.953850043766067, 13.341664351114801 ], [ 121.954236410736229, 13.34161342806391 ], [ 121.954238357144746, 13.340849311199543 ], [ 121.953845020320045, 13.340650749019172 ], [ 121.953850043766067, 13.341664351114801 ] ] ] } },
{ "type": "Feature", "properties": { "Id": 0, "CLN": "19719", "PSGC": "174001013", "Barangay": "Bayote", "Land_Class": null, "PIN": "030-01-014-03-001" }, "geometry": { "type": "Polygon", "coordinates": [ [ [ 121.953442486586738, 13.340719985849324 ], [ 121.953845020320045, 13.340650749019172 ], [ 121.954121348598164, 13.339998050265592 ], [ 121.953413292631424, 13.34002663874554 ], [ 121.953333457598717, 13.339884512829563 ], [ 121.952448897289742, 13.339802083898499 ], [ 121.952391533228933, 13.340046051639503 ], [ 121.952189672616399, 13.340218524064511 ], [ 121.952752282324795, 13.340339012210043 ], [ 121.952799463817811, 13.340591289445205 ], [ 121.953298532221382, 13.340522452199245 ], [ 121.953442486586738, 13.340719985849324 ] ] ] } },
{ "type": "Feature", "properties": { "Id": 0, "CLN": "19723", "PSGC": "174001013", "Barangay": "Bayote", "Land_Class": null, "PIN": "030-01-014-03-002" }, "geometry": { "type": "Polygon", "coordinates": [ [ [ 121.954236410736229, 13.34161342806391 ], [ 121.956216552515883, 13.342598408654972 ], [ 121.956746339722045, 13.341308666206368 ], [ 121.956260354185417, 13.340203804482444 ], [ 121.955095788881437, 13.339757863150329 ], [ 121.954284848582773, 13.339392151225868 ], [ 121.954082210323548, 13.339745806357866 ], [ 121.954121348598164, 13.339998050265592 ], [ 121.953845020320045, 13.340650749019172 ], [ 121.954238357144746, 13.340849311199543 ], [ 121.954236410736229, 13.34161342806391 ] ] ] } },
{ "type": "Feature", "properties": { "Id": 0, "CLN": "19718", "PSGC": "174001013", "Barangay": "Bayote", "Land_Class": null, "PIN": "030-01-014-03-003" }, "geometry": { "type": "Polygon", "coordinates": [ [ [ 121.952448897289742, 13.339802083898499 ], [ 121.953333457598717, 13.339884512829563 ], [ 121.953413292631424, 13.34002663874554 ], [ 121.954121348598164, 13.339998050265592 ], [ 121.954082210323548, 13.339745806357866 ], [ 121.952571330161689, 13.339392955904586 ], [ 121.952448897289742, 13.339802083898499 ] ] ] } },
{ "type": "Feature", "properties": { "Id": 0, "CLN": "19717", "PSGC": "174001013", "Barangay": "Bayote", "Land_Class": null, "PIN": "030-01-014-03-004" }, "geometry": { "type": "Polygon", "coordinates": [ [ [ 121.952571330161689, 13.339392955904586 ], [ 121.954082210323548, 13.339745806357866 ], [ 121.954284848582773, 13.339392151225868 ], [ 121.954471092310584, 13.339109326481546 ], [ 121.954191160493465, 13.338730048306115 ], [ 121.954015164089498, 13.338500872606129 ], [ 121.953113332253736, 13.338694090207808 ], [ 121.95287865066706, 13.339016101715947 ], [ 121.952571330161689, 13.339392955904586 ] ] ] } },
{ "type": "Feature", "properties": { "Id": 0, "CLN": "19710", "PSGC": "174001013", "Barangay": "Bayote", "Land_Class": null, "PIN": "030-01-014-03-014" }, "geometry": { "type": "Polygon", "coordinates": [ [ [ 121.954284848582773, 13.339392151225868 ], [ 121.955095788881437, 13.339757863150329 ], [ 121.955435250500656, 13.339389015666523 ], [ 121.955075108597072, 13.338954264839952 ], [ 121.954471092310584, 13.339109326481546 ], [ 121.954284848582773, 13.339392151225868 ] ] ] } },
{ "type": "Feature", "properties": { "Id": 0, "CLN": "19711", "PSGC": "174001013", "Barangay": "Bayote", "Land_Class": null, "PIN": "030-01-014-03-013" }, "geometry": { "type": "Polygon", "coordinates": [ [ [ 121.954471092310584, 13.339109326481546 ], [ 121.955075108597072, 13.338954264839952 ], [ 121.954707194386216, 13.338456460905119 ], [ 121.954594266554167, 13.338526893555324 ], [ 121.954191160493465, 13.338730048306115 ], [ 121.954471092310584, 13.339109326481546 ] ] ] } },
{ "type": "Feature", "properties": { "Id": 0, "CLN": "19712", "PSGC": "174001013", "Barangay": "Bayote", "Land_Class": null, "PIN": "030-01-014-03-015" }, "geometry": { "type": "Polygon", "coordinates": [ [ [ 121.955435250500656, 13.339389015666523 ], [ 121.955871313005773, 13.339004810300484 ], [ 121.955068892245038, 13.338528849924417 ], [ 121.954981181413544, 13.338347304124303 ], [ 121.954707194386216, 13.338456460905119 ], [ 121.955075108597072, 13.338954264839952 ], [ 121.955435250500656, 13.339389015666523 ] ] ] } },
{ "type": "Feature", "properties": { "Id": 0, "CLN": "19713", "PSGC": "174001013", "Barangay": "Bayote", "Land_Class": null, "PIN": "030-01-014-03-012" }, "geometry": { "type": "Polygon", "coordinates": [ [ [ 121.954191160493465, 13.338730048306115 ], [ 121.954594266554167, 13.338526893555324 ], [ 121.954450854342895, 13.338203321532051 ], [ 121.954015164089498, 13.338500872606129 ], [ 121.954191160493465, 13.338730048306115 ] ] ] } },
{ "type": "Feature", "properties": { "Id": 0, "CLN": "19715", "PSGC": "174001013", "Barangay": "Bayote", "Land_Class": null, "PIN": "030-01-014-03-011" }, "geometry": { "type": "Polygon", "coordinates": [ [ [ 121.953113332253736, 13.338694090207808 ], [ 121.954015164089498, 13.338500872606129 ], [ 121.954450854342895, 13.338203321532051 ], [ 121.953752949604294, 13.337743543410944 ], [ 121.953252734031594, 13.338080214820041 ], [ 121.953113332253736, 13.338694090207808 ] ] ] } },
{ "type": "Feature", "properties": { "Id": 0, "CLN": "19714", "PSGC": "174001013", "Barangay": "Bayote", "Land_Class": null, "PIN": "030-01-014-03-010" }, "geometry": { "type": "Polygon", "coordinates": [ [ [ 121.954594266554167, 13.338526893555324 ], [ 121.954707194386216, 13.338456460905119 ], [ 121.954981181413544, 13.338347304124303 ], [ 121.954690281506302, 13.337946317939643 ], [ 121.95471748805133, 13.337231539754697 ], [ 121.953191153883594, 13.337201610884865 ], [ 121.953250648025616, 13.337396826484612 ], [ 121.953413421236533, 13.337427039245259 ], [ 121.953637087293274, 13.337327523152045 ], [ 121.953800038460216, 13.337316379116789 ], [ 121.953865591891471, 13.337505711422098 ], [ 121.953752949604294, 13.337743543410944 ], [ 121.954450854342895, 13.338203321532051 ], [ 121.954594266554167, 13.338526893555324 ] ] ] } },
{ "type": "Feature", "properties": { "Id": 0, "CLN": "19716", "PSGC": "174001013", "Barangay": "Bayote", "Land_Class": null, "PIN": "030-01-014-03-017" }, "geometry": { "type": "Polygon", "coordinates": [ [ [ 121.954981181413544, 13.338347304124303 ], [ 121.955068892245038, 13.338528849924417 ], [ 121.955871313005773, 13.339004810300484 ], [ 121.956302153450096, 13.337728446341627 ], [ 121.955862479262848, 13.33754939071401 ], [ 121.955706829939928, 13.33726515682334 ], [ 121.955393578096476, 13.337151611093008 ], [ 121.954862821590666, 13.337108066891906 ], [ 121.95471748805133, 13.337231539754697 ], [ 121.954690281506302, 13.337946317939643 ], [ 121.954981181413544, 13.338347304124303 ] ] ] } },
{ "type": "Feature", "properties": { "Id": 0, "CLN": "19705", "PSGC": "174001013", "Barangay": "Bayote", "Land_Class": null, "PIN": "030-01-014-03-009" }, "geometry": { "type": "Polygon", "coordinates": [ [ [ 121.95471748805133, 13.337231539754697 ], [ 121.954862821590666, 13.337108066891906 ], [ 121.955127017877302, 13.334752445845366 ], [ 121.954054287620451, 13.334470339591171 ], [ 121.952307032145768, 13.335307998186281 ], [ 121.952015397391705, 13.335779447763871 ], [ 121.952147366384295, 13.335957238487719 ], [ 121.95206104154947, 13.336388178992385 ], [ 121.952464026894845, 13.33667934478407 ], [ 121.952728170192827, 13.33698766119271 ], [ 121.953191153883594, 13.337201610884865 ], [ 121.95471748805133, 13.337231539754697 ] ] ] } },
{ "type": "Feature", "properties": { "Id": 0, "CLN": "19706", "PSGC": "174001013", "Barangay": "Bayote", "Land_Class": null, "PIN": "030-01-014-03-018" }, "geometry": { "type": "Polygon", "coordinates": [ [ [ 121.954862821590666, 13.337108066891906 ], [ 121.955393578096476, 13.337151611093008 ], [ 121.955706829939928, 13.33726515682334 ], [ 121.955862479262848, 13.33754939071401 ], [ 121.956302153450096, 13.337728446341627 ], [ 121.956559405848836, 13.337300679329976 ], [ 121.956886828787788, 13.336923902320171 ], [ 121.956792627082265, 13.336379961472534 ], [ 121.955714209179959, 13.336015123629524 ], [ 121.955127017877302, 13.334752445845366 ], [ 121.954862821590666, 13.337108066891906 ] ] ] } },
{ "type": "Feature", "properties": { "Id": 0, "CLN": "19694", "PSGC": "174001013", "Barangay": "Bayote", "Land_Class": null, "PIN": "030-01-014-03-023" }, "geometry": { "type": "Polygon", "coordinates": [ [ [ 121.956714598588562, 13.333096347653695 ], [ 121.956906062759501, 13.332063201716778 ], [ 121.95652051951582, 13.331925727738634 ], [ 121.956035473097202, 13.331748380518022 ], [ 121.95590510609604, 13.331929103757336 ], [ 121.955832174961628, 13.332052875545848 ], [ 121.955693284119505, 13.332081844759815 ], [ 121.954887820104915, 13.332787510109197 ], [ 121.954656179908952, 13.331935776728224 ], [ 121.954620492200476, 13.3315534916086 ], [ 121.953883979485482, 13.331920777155837 ], [ 121.954369850795189, 13.332578589000743 ], [ 121.954735008969308, 13.333247719033761 ], [ 121.954846467347579, 13.333986701630742 ], [ 121.955405810221947, 13.334396670743809 ], [ 121.956714598588562, 13.333096347653695 ] ] ] } },
{ "type": "Feature", "properties": { "Id": 0, "CLN": "19704", "PSGC": "174001013", "Barangay": "Bayote", "Land_Class": null, "PIN": "030-01-014-03-021" }, "geometry": { "type": "Polygon", "coordinates": [ [ [ 121.955714209179959, 13.336015123629524 ], [ 121.956553204072307, 13.334679078546126 ], [ 121.956965467384194, 13.333510952660676 ], [ 121.957707121383336, 13.333615917612109 ], [ 121.957821194306888, 13.333394829144243 ], [ 121.957872867076304, 13.332951927051464 ], [ 121.958009260450496, 13.332801828461069 ], [ 121.957611294395747, 13.332747019678436 ], [ 121.957699299588697, 13.332273248902107 ], [ 121.957229923488072, 13.331987726702513 ], [ 121.956906062759472, 13.332063201716778 ], [ 121.95671459858859, 13.333096347653681 ], [ 121.955405810221947, 13.334396670743809 ], [ 121.955127017877302, 13.334752445845366 ], [ 121.955714209179959, 13.336015123629524 ] ] ] } },
{ "type": "Feature", "properties": { "Id": 0, "CLN": "19707", "PSGC": "174001013", "Barangay": "Bayote", "Land_Class": null, "PIN": "030-01-014-03-020" }, "geometry": { "type": "Polygon", "coordinates": [ [ [ 121.956965467384194, 13.333510952660676 ], [ 121.956553204072307, 13.334679078546126 ], [ 121.955714209179959, 13.336015123629524 ], [ 121.956792627082265, 13.336379961472534 ], [ 121.957183165199254, 13.33550586193191 ], [ 121.957424964677955, 13.335046017206253 ], [ 121.957855856061173, 13.333753894201351 ], [ 121.957707121383336, 13.333615917612109 ], [ 121.956965467384194, 13.333510952660676 ] ] ] } },
{ "type": "Feature", "properties": { "Id": 0, "CLN": "19703", "PSGC": "174001013", "Barangay": "Bayote", "Land_Class": null, "PIN": "030-01-014-03-026" }, "geometry": { "type": "Polygon", "coordinates": [ [ [ 121.957611294395747, 13.332747019678436 ], [ 121.958009260450496, 13.332801828461069 ], [ 121.958357983762824, 13.332732362375147 ], [ 121.958183959561993, 13.33216003006026 ], [ 121.957699299588697, 13.332273248902107 ], [ 121.957611294395747, 13.332747019678436 ] ] ] } },
{ "type": "Feature", "properties": { "Id": 0, "CLN": "19709", "PSGC": "174001013", "Barangay": "Bayote", "Land_Class": null, "PIN": "030-01-014-03-016" }, "geometry": { "type": "Polygon", "coordinates": [ [ [ 121.955095788881437, 13.339757863150329 ], [ 121.956260354185417, 13.340203804482444 ], [ 121.956510335940067, 13.339780403524191 ], [ 121.957111776611939, 13.339600818423238 ], [ 121.957713576717296, 13.339337205733175 ], [ 121.958532475870314, 13.338472285550901 ], [ 121.956886828787788, 13.336923902320171 ], [ 121.956559405848836, 13.337300679329976 ], [ 121.956302153450096, 13.337728446341627 ], [ 121.955871313005773, 13.339004810300484 ], [ 121.955435250500656, 13.339389015666523 ], [ 121.955095788881437, 13.339757863150329 ] ] ] } },
{ "type": "Feature", "properties": { "Id": 0, "CLN": "19708", "PSGC": "174001013", "Barangay": "Bayote", "Land_Class": null, "PIN": "030-01-014-03-019" }, "geometry": { "type": "Polygon", "coordinates": [ [ [ 121.956886828787816, 13.336923902320169 ], [ 121.958532475870314, 13.338472285550901 ], [ 121.959376855169964, 13.338335706233462 ], [ 121.960139558060902, 13.337232471199467 ], [ 121.961543955176722, 13.336566004739295 ], [ 121.962459713600438, 13.336457716068026 ], [ 121.963091536400555, 13.33585810153005 ], [ 121.962018706017915, 13.335909731375951 ], [ 121.96159421394259, 13.334843642864978 ], [ 121.961095468228308, 13.334421461980515 ], [ 121.960424273090382, 13.334194638055623 ], [ 121.958904677047229, 13.333984189643738 ], [ 121.957855856061215, 13.333753894201351 ], [ 121.957424964677955, 13.335046017206269 ], [ 121.957183165199254, 13.33550586193191 ], [ 121.956792627082265, 13.336379961472572 ], [ 121.956886828787816, 13.336923902320169 ] ] ] } },
{ "type": "Feature", "properties": { "Id": 0, "CLN": "19728", "PSGC": "174001013", "Barangay": "Bayote", "Land_Class": null, "PIN": "030-01-014-01-006" }, "geometry": { "type": "Polygon", "coordinates": [ [ [ 121.954225307778472, 13.346686540210323 ], [ 121.955732759730111, 13.347848134261797 ], [ 121.957271235633073, 13.346783118893724 ], [ 121.955441130708081, 13.344949363066394 ], [ 121.954827247739644, 13.345524521140803 ], [ 121.954139452861455, 13.345826283286476 ], [ 121.954225307778472, 13.346686540210323 ] ] ] } },
{ "type": "Feature", "properties": { "Id": 0, "CLN": "19729", "PSGC": "174001013", "Barangay": "Bayote", "Land_Class": null, "PIN": "030-01-014-01-007" }, "geometry": { "type": "Polygon", "coordinates": [ [ [ 121.960678493021575, 13.351896061377596 ], [ 121.961744066883014, 13.350977572073107 ], [ 121.962776508663424, 13.351196137236579 ], [ 121.96290407550164, 13.350370729534275 ], [ 121.964441946489742, 13.350430462598947 ], [ 121.965640632588133, 13.349745464252242 ], [ 121.966494929059621, 13.349817867983589 ], [ 121.966496839768013, 13.349368742129258 ], [ 121.967108681320568, 13.349042394601065 ], [ 121.967269275495894, 13.348568283275414 ], [ 121.967707812740286, 13.34620451697133 ], [ 121.966699960077349, 13.345888309465481 ], [ 121.965568061960255, 13.344686296894533 ], [ 121.965064819872239, 13.344474173212554 ], [ 121.96447393350725, 13.344692332516383 ], [ 121.963633474173648, 13.345581691416891 ], [ 121.963184148051127, 13.347817090066398 ], [ 121.962742659983775, 13.348214414578022 ], [ 121.962183717660693, 13.34848521573277 ], [ 121.961819376797777, 13.348399695607116 ], [ 121.961396244801975, 13.347011506043879 ], [ 121.960176626549583, 13.346260759738257 ], [ 121.959998593715071, 13.345251698129378 ], [ 121.959592072835932, 13.344997946913791 ], [ 121.958133925970699, 13.344844908837574 ], [ 121.957085048044874, 13.344304919566108 ], [ 121.956160739603192, 13.344731755610882 ], [ 121.955774773975946, 13.344688151989734 ], [ 121.955441130708081, 13.34494936306643 ], [ 121.957271235633073, 13.346783118893724 ], [ 121.958220344150448, 13.348078945734011 ], [ 121.958733007450491, 13.348595721613741 ], [ 121.95872411330572, 13.348596510075607 ], [ 121.959634998825592, 13.349615068943475 ], [ 121.960627006298225, 13.351270003607373 ], [ 121.960678493021575, 13.351896061377596 ] ] ] } },
{ "type": "Feature", "properties": { "Id": 0, "CLN": "19735", "PSGC": "174001013", "Barangay": "Bayote", "Land_Class": null, "PIN": "030-01-014-02-011" }, "geometry": { "type": "Polygon", "coordinates": [ [ [ 121.950768292818836, 13.347580980877881 ], [ 121.950910789790285, 13.346718977467299 ], [ 121.950980168763977, 13.346022100096004 ], [ 121.949625102665223, 13.346837723406637 ], [ 121.9502115429393, 13.347962706223186 ], [ 121.950768292818836, 13.347580980877881 ] ] ] } },
{ "type": "Feature", "properties": { "Id": 0, "CLN": "19736", "PSGC": "174001013", "Barangay": "Bayote", "Land_Class": null, "PIN": "030-01-014-02-010" }, "geometry": { "type": "Polygon", "coordinates": [ [ [ 121.9502115429393, 13.347962706223186 ], [ 121.949625102665223, 13.346837723406637 ], [ 121.948306536240565, 13.347582592236975 ], [ 121.948241903655415, 13.348574896365548 ], [ 121.948899593219139, 13.348571717284525 ], [ 121.9502115429393, 13.347962706223186 ] ] ] } },
{ "type": "Feature", "properties": { "Id": 0, "CLN": "19737", "PSGC": "174001013", "Barangay": "Bayote", "Land_Class": null, "PIN": "030-01-014-02-012" }, "geometry": { "type": "Polygon", "coordinates": [ [ [ 121.950980168763977, 13.346022100096004 ], [ 121.951145130079922, 13.345714645952853 ], [ 121.949797106888752, 13.346129455605528 ], [ 121.948714800037749, 13.346656703596736 ], [ 121.948306536240565, 13.347582592236975 ], [ 121.949625102665223, 13.346837723406637 ], [ 121.950980168763977, 13.346022100096004 ] ] ] } },
{ "type": "Feature", "properties": { "Id": 0, "CLN": "19638", "PSGC": "174001013", "Barangay": "Bayote", "Land_Class": null, "PIN": "030-01-014-02-013" }, "geometry": { "type": "Polygon", "coordinates": [ [ [ 121.951145130079922, 13.345714645952853 ], [ 121.951409895992228, 13.345372481955367 ], [ 121.95140877966918, 13.345173129335777 ], [ 121.950160488540959, 13.344417590887684 ], [ 121.950051578988379, 13.344488037840222 ], [ 121.949525590561478, 13.344734001645117 ], [ 121.949288060917453, 13.345247028031526 ], [ 121.949129732776228, 13.345583137380615 ], [ 121.948862698054526, 13.345942428428126 ], [ 121.948636849361677, 13.346544124980197 ], [ 121.948714800037749, 13.346656703596752 ], [ 121.949797106888752, 13.346129455605542 ], [ 121.951145130079922, 13.345714645952853 ] ] ] } },
{ "type": "Feature", "properties": { "Id": 0, "CLN": "19875", "PSGC": "174001013", "Barangay": "Bayote", "Land_Class": null, "PIN": "030-01-014-02-025" }, "geometry": { "type": "Polygon", "coordinates": [ [ [ 121.951640822278264, 13.341571197302317 ], [ 121.951416751592504, 13.341297181502153 ], [ 121.951249379590323, 13.341746854637478 ], [ 121.95137439989206, 13.342137311494028 ], [ 121.950737979200284, 13.342808210108563 ], [ 121.950713156656889, 13.342967628096552 ], [ 121.950604196912153, 13.34304989149358 ], [ 121.950507048954066, 13.343191285492498 ], [ 121.950978833763429, 13.342921462305107 ], [ 121.951433310581336, 13.342431620001268 ], [ 121.951735636238581, 13.34197071960204 ], [ 121.951640822278264, 13.341571197302317 ] ] ] } },
{ "type": "Feature", "properties": { "Id": 0, "CLN": "19720", "PSGC": "174001013", "Barangay": "Bayote", "Land_Class": null, "PIN": "030-01-014-02-022" }, "geometry": { "type": "Polygon", "coordinates": [ [ [ 121.953442486586738, 13.340719985849324 ], [ 121.95329853222141, 13.340522452199242 ], [ 121.952799463817811, 13.340591289445205 ], [ 121.952752282324795, 13.340339012210043 ], [ 121.952189672616399, 13.340218524064531 ], [ 121.951843926701585, 13.340177707063805 ], [ 121.951570140233699, 13.340239595600249 ], [ 121.951488063904705, 13.340617379561877 ], [ 121.95143938879211, 13.340711709093894 ], [ 121.9512700798049, 13.341144306214987 ], [ 121.951416751592504, 13.341297181502153 ], [ 121.951640822278264, 13.341571197302317 ], [ 121.952956562112689, 13.342406405981585 ], [ 121.95336682485042, 13.34178839774296 ], [ 121.953442486586738, 13.340719985849324 ] ] ] } },
{ "type": "Feature", "properties": { "Id": 0, "CLN": "19684", "PSGC": "174001013", "Barangay": "Bayote", "Land_Class": null, "PIN": "030-01-014-02-035" }, "geometry": { "type": "Polygon", "coordinates": [ [ [ 121.951410208927967, 13.340016423917717 ], [ 121.950080652853615, 13.338539785775279 ], [ 121.948909750880702, 13.340029702780127 ], [ 121.951191390243096, 13.341203062456362 ], [ 121.951399279437823, 13.340565839247722 ], [ 121.951530359130359, 13.340137022671845 ], [ 121.951410208927967, 13.340016423917717 ] ] ] } },
{ "type": "Feature", "properties": { "Id": 0, "CLN": "19674", "PSGC": "174001013", "Barangay": "Bayote", "Land_Class": null, "PIN": "030-01-014-02-034" }, "geometry": { "type": "Polygon", "coordinates": [ [ [ 121.951191390243068, 13.341203062456362 ], [ 121.948909750880674, 13.340029702780111 ], [ 121.948507945376264, 13.342255417715903 ], [ 121.950683907470804, 13.342754812704813 ], [ 121.951235375397431, 13.342195818134648 ], [ 121.951284076417622, 13.342095580609127 ], [ 121.951242377508322, 13.341971336388584 ], [ 121.951164656365975, 13.341805585892597 ], [ 121.951159311200513, 13.341646043006303 ], [ 121.951275144684345, 13.34136883789793 ], [ 121.951191390243068, 13.341203062456362 ] ] ] } },
{ "type": "Feature", "properties": { "Id": 0, "CLN": "19739", "PSGC": "174001013", "Barangay": "Bayote", "Land_Class": null, "PIN": "030-01-014-02-026" }, "geometry": { "type": "Polygon", "coordinates": [ [ [ 121.950683907470804, 13.342754812704813 ], [ 121.948507945376264, 13.342255417715903 ], [ 121.947273967081472, 13.34437132906452 ], [ 121.949054903762885, 13.345530813261952 ], [ 121.949432507902415, 13.344717051026626 ], [ 121.950049356446016, 13.344388749391568 ], [ 121.950195845122849, 13.343999416691034 ], [ 121.950252315704276, 13.343497455759648 ], [ 121.950416801813418, 13.343131830076294 ], [ 121.950659110407031, 13.34290832261618 ], [ 121.950683907470804, 13.342754812704813 ] ] ] } },
{ "type": "Feature", "properties": { "Id": 0, "CLN": "19746", "PSGC": "174001013", "Barangay": "Bayote", "Land_Class": null, "PIN": "030-01-014-02-009" }, "geometry": { "type": "Polygon", "coordinates": [ [ [ 121.949054903762885, 13.345530813261952 ], [ 121.947273967081472, 13.34437132906452 ], [ 121.946818227987507, 13.34511386494734 ], [ 121.947000556712609, 13.346201725427756 ], [ 121.947508648860932, 13.347302755350718 ], [ 121.947629883437571, 13.347173279147837 ], [ 121.947907197802678, 13.347227604151149 ], [ 121.948428847148364, 13.346591687032193 ], [ 121.948519682982607, 13.346515257728008 ], [ 121.948733541505334, 13.34589578704909 ], [ 121.949054903762885, 13.345530813261952 ] ] ] } },
{ "type": "Feature", "properties": { "Id": 0, "CLN": "19747", "PSGC": "174001013", "Barangay": "Bayote", "Land_Class": null, "PIN": "030-01-014-02-007" }, "geometry": { "type": "Polygon", "coordinates": [ [ [ 121.948201231993792, 13.347601039390687 ], [ 121.948621435532786, 13.346704741338103 ], [ 121.948519682982607, 13.346515257728026 ], [ 121.948428847148364, 13.346591687032193 ], [ 121.947907197802678, 13.347227604151149 ], [ 121.947629883437571, 13.347173279147837 ], [ 121.947508648860932, 13.347302755350752 ], [ 121.947000556712609, 13.346201725427786 ], [ 121.946355274057112, 13.346128145443313 ], [ 121.946272469613902, 13.345743770342134 ], [ 121.946471525209517, 13.34575641422415 ], [ 121.946262375169937, 13.345288799536132 ], [ 121.945677353645877, 13.345233193040409 ], [ 121.947183364873723, 13.348571660073244 ], [ 121.947464117877914, 13.34908036932149 ], [ 121.948141264893891, 13.348742593392332 ], [ 121.94813670128643, 13.348569711209356 ], [ 121.948201231993792, 13.347601039390687 ] ] ] } },
{ "type": "Feature", "properties": { "Id": 0, "CLN": "19745", "PSGC": "174001013", "Barangay": "Bayote", "Land_Class": null, "PIN": "030-01-014-02-008" }, "geometry": { "type": "Polygon", "coordinates": [ [ [ 121.947000556712609, 13.346201725427756 ], [ 121.946818227987507, 13.34511386494734 ], [ 121.945944801957083, 13.344779376663743 ], [ 121.946262375169908, 13.345288799536098 ], [ 121.946471525209517, 13.345756414224136 ], [ 121.946272469613902, 13.345743770342134 ], [ 121.946355274057112, 13.346128145443313 ], [ 121.947000556712609, 13.346201725427756 ] ] ] } },
{ "type": "Feature", "properties": { "Id": 0, "CLN": "19748", "PSGC": "174001013", "Barangay": "Bayote", "Land_Class": null, "PIN": "030-01-014-02-006" }, "geometry": { "type": "Polygon", "coordinates": [ [ [ 121.945677353645877, 13.345233193040409 ], [ 121.945327845046151, 13.345131300046393 ], [ 121.945443977449258, 13.346177528530278 ], [ 121.945498023005499, 13.346236835067529 ], [ 121.945497279479767, 13.346408168759629 ], [ 121.9454872204265, 13.347335708771887 ], [ 121.945627898490216, 13.348287508638156 ], [ 121.945977591104651, 13.348348045132289 ], [ 121.946163607759033, 13.348585145442057 ], [ 121.946733618214878, 13.349317406907437 ], [ 121.947018089273826, 13.349255642132908 ], [ 121.947464117877914, 13.34908036932149 ], [ 121.947183364873723, 13.348571660073244 ], [ 121.945677353645877, 13.345233193040409 ] ] ] } },
{ "type": "Feature", "properties": { "Id": 0, "CLN": "19751", "PSGC": "174001013", "Barangay": "Bayote", "Land_Class": null, "PIN": "030-01-014-02-003" }, "geometry": { "type": "Polygon", "coordinates": [ [ [ 121.945935099554291, 13.348406950026074 ], [ 121.945507046958795, 13.348328362890104 ], [ 121.945143927804921, 13.348580902527612 ], [ 121.944616567087849, 13.348988813458602 ], [ 121.94562151124957, 13.349589962725299 ], [ 121.946379726868983, 13.350073811147114 ], [ 121.946625681358611, 13.349434773446292 ], [ 121.946352349535942, 13.3490465297076 ], [ 121.946061062016312, 13.348578810767137 ], [ 121.945935099554291, 13.348406950026074 ] ] ] } },
{ "type": "Feature", "properties": { "Id": 0, "CLN": "19750", "PSGC": "174001013", "Barangay": "Bayote", "Land_Class": null, "PIN": "030-01-014-02-004" }, "geometry": { "type": "Polygon", "coordinates": [ [ [ 121.945507046958795, 13.348328362890104 ], [ 121.945390478033772, 13.347382571492124 ], [ 121.943528025977557, 13.348320119404656 ], [ 121.944003524727052, 13.348587968743528 ], [ 121.944616567087849, 13.348988813458602 ], [ 121.945143927804921, 13.348580902527612 ], [ 121.945507046958795, 13.348328362890104 ] ] ] } },
{ "type": "Feature", "properties": { "Id": 0, "CLN": "19749", "PSGC": "174001013", "Barangay": "Bayote", "Land_Class": null, "PIN": "030-01-014-02-005" }, "geometry": { "type": "Polygon", "coordinates": [ [ [ 121.943528025977557, 13.34832011940464 ], [ 121.945390478033772, 13.347382571492124 ], [ 121.945437610579404, 13.34625430818134 ], [ 121.94501667279664, 13.345927607185434 ], [ 121.942583245334887, 13.347743087080278 ], [ 121.943528025977557, 13.34832011940464 ] ] ] } },
{ "type": "Feature", "properties": { "Id": 0, "CLN": "19744", "PSGC": "174001013", "Barangay": "Bayote", "Land_Class": null, "PIN": "030-01-014-02-046" }, "geometry": { "type": "Polygon", "coordinates": [ [ [ 121.942583245334887, 13.347743087080278 ], [ 121.94501667279664, 13.345927607185434 ], [ 121.945038021036183, 13.345874522572499 ], [ 121.94544397744923, 13.346177528530282 ], [ 121.945327845046151, 13.345131300046393 ], [ 121.945677353645877, 13.345233193040409 ], [ 121.946262375169908, 13.345288799536098 ], [ 121.945944801957083, 13.344779376663743 ], [ 121.946818227987507, 13.34511386494734 ], [ 121.947273967081472, 13.34437132906452 ], [ 121.946632528487058, 13.343643928816514 ], [ 121.94465019270514, 13.344407683173348 ], [ 121.942093599927631, 13.344026780484986 ], [ 121.942583245334887, 13.347743087080278 ] ] ] } },
{ "type": "Feature", "properties": { "Id": 0, "CLN": "19740", "PSGC": "174001013", "Barangay": "Bayote", "Land_Class": null, "PIN": "030-01-014-02-027" }, "geometry": { "type": "Polygon", "coordinates": [ [ [ 121.947273967081472, 13.34437132906452 ], [ 121.948507945376264, 13.342255417715903 ], [ 121.94644124584056, 13.341374397179479 ], [ 121.946524239589166, 13.34264302895747 ], [ 121.946632528487058, 13.343643928816514 ], [ 121.947273967081472, 13.34437132906452 ] ] ] } },
{ "type": "Feature", "properties": { "Id": 0, "CLN": "19742", "PSGC": "174001013", "Barangay": "Bayote", "Land_Class": null, "PIN": "030-01-014-02-028" }, "geometry": { "type": "Polygon", "coordinates": [ [ [ 121.946632528487058, 13.343643928816514 ], [ 121.946524239589166, 13.34264302895747 ], [ 121.94480964214226, 13.342887979229484 ], [ 121.94465019270514, 13.344407683173348 ], [ 121.946632528487058, 13.343643928816514 ] ] ] } },
{ "type": "Feature", "properties": { "Id": 0, "CLN": "19741", "PSGC": "174001013", "Barangay": "Bayote", "Land_Class": null, "PIN": "030-01-014-02-030" }, "geometry": { "type": "Polygon", "coordinates": [ [ [ 121.946524239589166, 13.34264302895747 ], [ 121.94644124584056, 13.341374397179479 ], [ 121.944399942529557, 13.340901129951606 ], [ 121.94480964214226, 13.342887979229484 ], [ 121.946524239589166, 13.34264302895747 ] ] ] } },
{ "type": "Feature", "properties": { "Id": 0, "CLN": "19743", "PSGC": "174001013", "Barangay": "Bayote", "Land_Class": null, "PIN": "030-01-014-02-029" }, "geometry": { "type": "Polygon", "coordinates": [ [ [ 121.942093599927631, 13.344026780484986 ], [ 121.94465019270514, 13.344407683173348 ], [ 121.94480964214226, 13.342887979229484 ], [ 121.944399942529557, 13.340901129951606 ], [ 121.94206715971066, 13.340859895887775 ], [ 121.942093599927631, 13.344026780484986 ] ] ] } },
{ "type": "Feature", "properties": { "Id": 0, "CLN": "19675", "PSGC": "174001013", "Barangay": "Bayote", "Land_Class": null, "PIN": "030-01-014-02-033" }, "geometry": { "type": "Polygon", "coordinates": [ [ [ 121.948507945376264, 13.342255417715903 ], [ 121.948909750880674, 13.340029702780111 ], [ 121.947832345714872, 13.339662866002767 ], [ 121.94644124584056, 13.341374397179479 ], [ 121.948507945376264, 13.342255417715903 ] ] ] } },
{ "type": "Feature", "properties": { "Id": 0, "CLN": "19676", "PSGC": "174001013", "Barangay": "Bayote", "Land_Class": null, "PIN": "030-01-014-02-032" }, "geometry": { "type": "Polygon", "coordinates": [ [ [ 121.94644124584056, 13.341374397179479 ], [ 121.947832345714872, 13.339662866002767 ], [ 121.94690180855919, 13.339052430524227 ], [ 121.944399942529557, 13.340901129951606 ], [ 121.94644124584056, 13.341374397179479 ] ] ] } },
{ "type": "Feature", "properties": { "Id": 0, "CLN": "19683", "PSGC": "174001013", "Barangay": "Bayote", "Land_Class": null, "PIN": "030-01-014-02-036" }, "geometry": { "type": "Polygon", "coordinates": [ [ [ 121.948909750880674, 13.340029702780111 ], [ 121.950080652853586, 13.338539785775261 ], [ 121.94740701289679, 13.337565669001654 ], [ 121.94690180855919, 13.339052430524227 ], [ 121.947832345714872, 13.339662866002767 ], [ 121.948909750880674, 13.340029702780111 ] ] ] } },
{ "type": "Feature", "properties": { "Id": 0, "CLN": "19677", "PSGC": "174001013", "Barangay": "Bayote", "Land_Class": null, "PIN": "030-01-014-02-037" }, "geometry": { "type": "Polygon", "coordinates": [ [ [ 121.944399942529557, 13.340901129951606 ], [ 121.94690180855919, 13.339052430524227 ], [ 121.94740701289679, 13.337565669001654 ], [ 121.946400057090131, 13.337884467181752 ], [ 121.944249142864393, 13.338576623450574 ], [ 121.944399942529557, 13.340901129951606 ] ] ] } },
{ "type": "Feature", "properties": { "Id": 0, "CLN": "19678", "PSGC": "174001013", "Barangay": "Bayote", "Land_Class": null, "PIN": "030-01-014-02-031" }, "geometry": { "type": "Polygon", "coordinates": [ [ [ 121.944399942529557, 13.340901129951606 ], [ 121.944249142864393, 13.338576623450574 ], [ 121.942038077795345, 13.338299570940851 ], [ 121.941832063634465, 13.339425200872665 ], [ 121.94206715971066, 13.340859895887775 ], [ 121.944399942529557, 13.340901129951606 ] ] ] } },
{ "type": "Feature", "properties": { "Id": 0, "CLN": "19685", "PSGC": "174001013", "Barangay": "Bayote", "Land_Class": null, "PIN": "030-01-014-03-005" }, "geometry": { "type": "Polygon", "coordinates": [ [ [ 121.951419713211109, 13.337812681579498 ], [ 121.951063331962757, 13.337554561198321 ], [ 121.950080652853615, 13.338539785775279 ], [ 121.951410208927967, 13.340016423917717 ], [ 121.951530359130359, 13.340137022671845 ], [ 121.95189260154018, 13.340083377430709 ], [ 121.952214485294888, 13.340061075163804 ], [ 121.952303246898637, 13.339998421391329 ], [ 121.952482806436322, 13.339400467763568 ], [ 121.952798375170289, 13.338976382312897 ], [ 121.951419713211109, 13.337812681579498 ] ] ] } },
{ "type": "Feature", "properties": { "Id": 0, "CLN": "19686", "PSGC": "174001013", "Barangay": "Bayote", "Land_Class": null, "PIN": "030-01-014-03-006" }, "geometry": { "type": "Polygon", "coordinates": [ [ [ 121.953648507030508, 13.337711602156682 ], [ 121.953762044802062, 13.337499376040904 ], [ 121.953665884072763, 13.337412325929431 ], [ 121.953351675319482, 13.337521315317606 ], [ 121.953183012837272, 13.337457598503729 ], [ 121.953103280417167, 13.337291840251389 ], [ 121.952693725577205, 13.337124720043608 ], [ 121.952517358449782, 13.336982195247929 ], [ 121.952349578978172, 13.336713664626323 ], [ 121.951980553386505, 13.336475812626382 ], [ 121.951406477771513, 13.337150910795712 ], [ 121.951063331962757, 13.337554561198321 ], [ 121.951419713211109, 13.337812681579498 ], [ 121.952798375170289, 13.338976382312897 ], [ 121.953017035651897, 13.338638549580446 ], [ 121.953132236347955, 13.338040329496522 ], [ 121.953648507030508, 13.337711602156682 ] ] ] } },
{ "type": "Feature", "properties": { "Id": 0, "CLN": "19687", "PSGC": "174001013", "Barangay": "Bayote", "Land_Class": null, "PIN": "030-01-014-03-007" }, "geometry": { "type": "Polygon", "coordinates": [ [ [ 121.951894882606297, 13.335821619932588 ], [ 121.951396231366246, 13.335795925933517 ], [ 121.949043527474842, 13.335834140291851 ], [ 121.951063331962757, 13.337554561198321 ], [ 121.951406477771513, 13.337150910795712 ], [ 121.951980553386505, 13.336475812626382 ], [ 121.952029736526782, 13.336263321373345 ], [ 121.952071112767143, 13.335995654821524 ], [ 121.951894882606297, 13.335821619932588 ] ] ] } },
{ "type": "Feature", "properties": { "Id": 0, "CLN": "19682", "PSGC": "174001013", "Barangay": "Bayote", "Land_Class": null, "PIN": "030-01-014-02-045" }, "geometry": { "type": "Polygon", "coordinates": [ [ [ 121.950080652853586, 13.338539785775261 ], [ 121.951063331962757, 13.337554561198305 ], [ 121.949043527474842, 13.335834140291835 ], [ 121.94740701289679, 13.337565669001654 ], [ 121.950080652853586, 13.338539785775261 ] ] ] } },
{ "type": "Feature", "properties": { "Id": 0, "CLN": "19681", "PSGC": "174001013", "Barangay": "Bayote", "Land_Class": null, "PIN": "030-01-014-02-042" }, "geometry": { "type": "Polygon", "coordinates": [ [ [ 121.94740701289679, 13.337565669001654 ], [ 121.949043527474842, 13.335834140291835 ], [ 121.947329162548556, 13.335417396885704 ], [ 121.946042744644458, 13.335254502970677 ], [ 121.946400057090131, 13.337884467181752 ], [ 121.94740701289679, 13.337565669001654 ] ] ] } },
{ "type": "Feature", "properties": { "Id": 0, "CLN": "19680", "PSGC": "174001013", "Barangay": "Bayote", "Land_Class": null, "PIN": "030-01-014-02-041" }, "geometry": { "type": "Polygon", "coordinates": [ [ [ 121.946400057090131, 13.337884467181752 ], [ 121.946042744644458, 13.335254502970677 ], [ 121.944400097558571, 13.335615290737568 ], [ 121.944249142864393, 13.338576623450574 ], [ 121.946400057090131, 13.337884467181752 ] ] ] } },
{ "type": "Feature", "properties": { "Id": 0, "CLN": "19679", "PSGC": "174001013", "Barangay": "Bayote", "Land_Class": null, "PIN": "030-01-014-02-038" }, "geometry": { "type": "Polygon", "coordinates": [ [ [ 121.944249142864393, 13.338576623450574 ], [ 121.944400097558571, 13.335615290737568 ], [ 121.943788131740391, 13.335749287159336 ], [ 121.941921607058916, 13.335794023824389 ], [ 121.942038077795345, 13.338299570940851 ], [ 121.944249142864393, 13.338576623450574 ] ] ] } },
{ "type": "Feature", "properties": { "Id": 0, "CLN": "19688", "PSGC": "174001013", "Barangay": "Bayote", "Land_Class": null, "PIN": "030-01-014-03-008" }, "geometry": { "type": "Polygon", "coordinates": [ [ [ 121.949043527474842, 13.335834140291851 ], [ 121.951396231366246, 13.335795925933517 ], [ 121.951894882606297, 13.335821619932588 ], [ 121.952424609942184, 13.334561620694508 ], [ 121.952563731467805, 13.33447948071422 ], [ 121.952714817685688, 13.334421022784543 ], [ 121.952643257994595, 13.334225757273662 ], [ 121.952789175638458, 13.333966399724572 ], [ 121.951389688815169, 13.333907444221099 ], [ 121.950049376292256, 13.333905675873735 ], [ 121.949043527474842, 13.335834140291851 ] ] ] } },
{ "type": "Feature", "properties": { "Id": 0, "CLN": "19693", "PSGC": "174001013", "Barangay": "Bayote", "Land_Class": null, "PIN": "030-01-014-03-022" }, "geometry": { "type": "Polygon", "coordinates": [ [ [ 121.952307032145796, 13.335307998186282 ], [ 121.954054287620451, 13.334470339591189 ], [ 121.955127017877302, 13.334752445845366 ], [ 121.955405810221947, 13.334396670743809 ], [ 121.954846467347579, 13.333986701630742 ], [ 121.954735008969308, 13.333247719033761 ], [ 121.954369850795189, 13.332578589000743 ], [ 121.953883979485482, 13.331920777155837 ], [ 121.953612459558073, 13.33192556551127 ], [ 121.951392974470465, 13.333145302483198 ], [ 121.950049376292256, 13.333905675873735 ], [ 121.951389688815169, 13.333907444221099 ], [ 121.952789175638458, 13.333966399724572 ], [ 121.952879547369861, 13.333996313738933 ], [ 121.952703666978977, 13.334208282166328 ], [ 121.952769549582015, 13.334320809665035 ], [ 121.952823314824926, 13.334445103487271 ], [ 121.952792766892898, 13.334533600104043 ], [ 121.952514651048077, 13.334668339852893 ], [ 121.952307032145796, 13.335307998186282 ] ] ] } },
{ "type": "Feature", "properties": { "Id": 0, "CLN": "19689", "PSGC": "174001013", "Barangay": "Bayote", "Land_Class": null, "PIN": "030-01-014-02-044" }, "geometry": { "type": "Polygon", "coordinates": [ [ [ 121.949043527474842, 13.335834140291835 ], [ 121.95004937629227, 13.333905675873703 ], [ 121.947542952391473, 13.333107531694312 ], [ 121.947329162548556, 13.335417396885704 ], [ 121.949043527474842, 13.335834140291835 ] ] ] } },
{ "type": "Feature", "properties": { "Id": 0, "CLN": "19690", "PSGC": "174001013", "Barangay": "Bayote", "Land_Class": null, "PIN": "030-01-014-02-043" }, "geometry": { "type": "Polygon", "coordinates": [ [ [ 121.947329162548556, 13.335417396885704 ], [ 121.947542952391473, 13.333107531694312 ], [ 121.94583705949502, 13.333215985598061 ], [ 121.946042744644458, 13.335254502970677 ], [ 121.947329162548556, 13.335417396885704 ] ] ] } },
{ "type": "Feature", "properties": { "Id": 0, "CLN": "19691", "PSGC": "174001013", "Barangay": "Bayote", "Land_Class": null, "PIN": "030-01-014-02-040" }, "geometry": { "type": "Polygon", "coordinates": [ [ [ 121.946042744644458, 13.335254502970677 ], [ 121.94583705949502, 13.333215985598061 ], [ 121.943529612315487, 13.333531991332118 ], [ 121.943788131740391, 13.335749287159336 ], [ 121.944400097558571, 13.335615290737568 ], [ 121.946042744644458, 13.335254502970677 ] ] ] } },
{ "type": "Feature", "properties": { "Id": 0, "CLN": "19692", "PSGC": "174001013", "Barangay": "Bayote", "Land_Class": null, "PIN": "030-01-014-02-039" }, "geometry": { "type": "Polygon", "coordinates": [ [ [ 121.943788131740391, 13.335749287159336 ], [ 121.943529612315487, 13.333531991332118 ], [ 121.941651145103933, 13.333860269343221 ], [ 121.941921607058916, 13.335794023824389 ], [ 121.943788131740391, 13.335749287159336 ] ] ] } },
{ "type": "Feature", "properties": { "Id": 0, "CLN": "19702", "PSGC": "174001013", "Barangay": "Bayote", "Land_Class": null, "PIN": "030-01-014-03-028" }, "geometry": { "type": "Polygon", "coordinates": [ [ [ 121.960706006364717, 13.330633183927205 ], [ 121.959509164119382, 13.330218643323333 ], [ 121.959811814090486, 13.330928867902147 ], [ 121.959616831547251, 13.331377091254764 ], [ 121.959654526605917, 13.331841253912634 ], [ 121.959062780024368, 13.33193321816543 ], [ 121.958904677047229, 13.333984189643738 ], [ 121.960424273090382, 13.334194638055623 ], [ 121.960213944081573, 13.332937475709988 ], [ 121.960359468280771, 13.332349878417004 ], [ 121.960618561726946, 13.331958810919025 ], [ 121.960706006364717, 13.330633183927205 ] ] ] } },
{ "type": "Feature", "properties": { "Id": 0, "CLN": "19700", "PSGC": "174001013", "Barangay": "Bayote", "Land_Class": null, "PIN": "030-01-014-03-027" }, "geometry": { "type": "Polygon", "coordinates": [ [ [ 121.958904677047229, 13.333984189643738 ], [ 121.959062780024368, 13.33193321816543 ], [ 121.959654526605917, 13.331841253912634 ], [ 121.959616831547251, 13.331377091254764 ], [ 121.959005061904307, 13.3314691127594 ], [ 121.958482520967905, 13.331388192086923 ], [ 121.958127155871594, 13.331717591704619 ], [ 121.957427167989906, 13.331746226260876 ], [ 121.957313767968216, 13.331928067672481 ], [ 121.9572299234881, 13.331987726702515 ], [ 121.957699299588697, 13.332273248902126 ], [ 121.958183959561993, 13.332160030060246 ], [ 121.958357983762824, 13.332732362375184 ], [ 121.958009260450496, 13.33280182846109 ], [ 121.957872867076304, 13.332951927051505 ], [ 121.957821194306888, 13.333394829144243 ], [ 121.957707121383365, 13.333615917612111 ], [ 121.957855856061215, 13.333753894201351 ], [ 121.958904677047229, 13.333984189643738 ] ] ] } },
{ "type": "Feature", "properties": { "Id": 0, "CLN": "19699", "PSGC": "174001013", "Barangay": "Bayote", "Land_Class": null, "PIN": "030-01-014-03-029" }, "geometry": { "type": "Polygon", "coordinates": [ [ [ 121.959616831547251, 13.33137709125478 ], [ 121.959811814090457, 13.330928867902129 ], [ 121.959509164119382, 13.330218643323315 ], [ 121.957932527144692, 13.33020429488568 ], [ 121.957907179764632, 13.330487784050019 ], [ 121.958482520967905, 13.331388192086889 ], [ 121.959005061904307, 13.331469112759381 ], [ 121.959616831547251, 13.33137709125478 ] ] ] } },
{ "type": "Feature", "properties": { "Id": 0, "CLN": "19695", "PSGC": "174001013", "Barangay": "Bayote", "Land_Class": null, "PIN": "030-01-014-03-025" }, "geometry": { "type": "Polygon", "coordinates": [ [ [ 121.95590510609604, 13.331929103757336 ], [ 121.956035473097202, 13.331748380518022 ], [ 121.95652051951582, 13.331925727738634 ], [ 121.956906062759501, 13.332063201716778 ], [ 121.9572299234881, 13.331987726702515 ], [ 121.957313767968216, 13.331928067672481 ], [ 121.957427167989906, 13.331746226260876 ], [ 121.958127155871594, 13.331717591704619 ], [ 121.958482520967905, 13.331388192086923 ], [ 121.957907179764632, 13.330487784050019 ], [ 121.957932527144692, 13.330204294885698 ], [ 121.958022700557279, 13.329810785668101 ], [ 121.957757578647104, 13.329730920805138 ], [ 121.957136418015921, 13.330138003052658 ], [ 121.95585975186637, 13.329581321124611 ], [ 121.955244941706667, 13.330382303937689 ], [ 121.95561304903265, 13.330832841903957 ], [ 121.955514691735289, 13.331257826582917 ], [ 121.954620492200476, 13.3315534916086 ], [ 121.954656179908952, 13.331935776728224 ], [ 121.954887820104915, 13.332787510109197 ], [ 121.955693284119505, 13.332081844759815 ], [ 121.955832174961628, 13.332052875545848 ], [ 121.95590510609604, 13.331929103757336 ] ] ] } },
{ "type": "Feature", "properties": { "Id": 0, "CLN": "19696", "PSGC": "174001013", "Barangay": "Bayote", "Land_Class": null, "PIN": "030-01-014-03-024" }, "geometry": { "type": "Polygon", "coordinates": [ [ [ 121.953883979485454, 13.331920777155839 ], [ 121.954620492200505, 13.331553491608584 ], [ 121.955514691735289, 13.331257826582899 ], [ 121.95561304903265, 13.330832841903957 ], [ 121.955244941706667, 13.330382303937675 ], [ 121.95585975186637, 13.329581321124593 ], [ 121.952104565705994, 13.329384979472211 ], [ 121.953883979485454, 13.331920777155839 ] ] ] } },
{ "type": "Feature", "properties": { "Id": 0, "CLN": "19697", "PSGC": "174001013", "Barangay": "Bayote", "Land_Class": null, "PIN": "030-01-014-03-030" }, "geometry": { "type": "Polygon", "coordinates": [ [ [ 121.957932527144692, 13.33020429488568 ], [ 121.959509164119382, 13.330218643323315 ], [ 121.959079084279622, 13.328741467371545 ], [ 121.956032928897812, 13.328749959514353 ], [ 121.95585975186637, 13.329581321124593 ], [ 121.957136418015864, 13.330138003052658 ], [ 121.957757578647104, 13.329730920805105 ], [ 121.958022700557279, 13.329810785668123 ], [ 121.957932527144692, 13.33020429488568 ] ] ] } },
{ "type": "Feature", "properties": { "Id": 0, "CLN": "19698", "PSGC": "174001013", "Barangay": "Bayote", "Land_Class": null, "PIN": "030-01-014-03-031" }, "geometry": { "type": "Polygon", "coordinates": [ [ [ 121.956032928897812, 13.328749959514353 ], [ 121.959079084279622, 13.328741467371545 ], [ 121.958732196114696, 13.327091000999106 ], [ 121.956843245705443, 13.327377339800361 ], [ 121.956032928897812, 13.328749959514353 ] ] ] } },
{ "type": "Feature", "properties": { "Id": 0, "CLN": "19727", "PSGC": "174001013", "Barangay": "Bayote", "Land_Class": null, "PIN": "030-01-014-01-004" }, "geometry": { "type": "Polygon", "coordinates": [ [ [ 121.955840783429323, 13.349542505713552 ], [ 121.957392109858844, 13.348611214658884 ], [ 121.958220344150448, 13.348078945734011 ], [ 121.957271235633073, 13.346783118893724 ], [ 121.955732759730111, 13.347848134261797 ], [ 121.955176007842738, 13.348627406672682 ], [ 121.954857392078566, 13.348981554645151 ], [ 121.954976210661272, 13.349061601370909 ], [ 121.95513701471134, 13.349454744016805 ], [ 121.95526065700156, 13.349672708718888 ], [ 121.95555359950572, 13.349567840927374 ], [ 121.955840783429323, 13.349542505713552 ] ] ] } },
{ "type": "Feature", "properties": { "Id": 0, "CLN": "19731", "PSGC": "174001013", "Barangay": "Bayote", "Land_Class": null, "PIN": "030-01-014-01-002" }, "geometry": { "type": "Polygon", "coordinates": [ [ [ 121.957894334426555, 13.350643539066374 ], [ 121.957876196532808, 13.351083678224352 ], [ 121.957782979032132, 13.351348483758782 ], [ 121.957657444609779, 13.351570726035895 ], [ 121.95870175332, 13.351824298403006 ], [ 121.959070255106454, 13.351783382586884 ], [ 121.960627006298225, 13.351270003607338 ], [ 121.959634998825592, 13.349615068943475 ], [ 121.957894334426555, 13.350643539066374 ] ] ] } },
{ "type": "Feature", "properties": { "Id": 0, "CLN": "19732", "PSGC": "174001013", "Barangay": "Bayote", "Land_Class": null, "PIN": "030-01-014-01-001" }, "geometry": { "type": "Polygon", "coordinates": [ [ [ 121.959070255106454, 13.351783382586884 ], [ 121.958976629371108, 13.352143655007419 ], [ 121.958401982467009, 13.352257976045886 ], [ 121.958206670752546, 13.352331425820712 ], [ 121.958254213405894, 13.35261272168956 ], [ 121.958718121196398, 13.353060146641399 ], [ 121.95871684777714, 13.353357153122188 ], [ 121.958981506240988, 13.353533265718381 ], [ 121.959485786898739, 13.353408046961501 ], [ 121.959598238433983, 13.353710824428871 ], [ 121.960167040495307, 13.353697248763243 ], [ 121.96061330564001, 13.353205828517401 ], [ 121.961319243111234, 13.352789725211883 ], [ 121.961207061917747, 13.352423304061087 ], [ 121.96070969830717, 13.352198505094686 ], [ 121.960678493021575, 13.351896061377596 ], [ 121.960627006298225, 13.351270003607338 ], [ 121.959070255106454, 13.351783382586884 ] ] ] } },
{ "type": "Feature", "properties": { "Id": 0, "CLN": "19758", "PSGC": "174001013", "Barangay": "Bayote", "Land_Class": null, "PIN": "030-01-014-04-001" }, "geometry": { "type": "Polygon", "coordinates": [ [ [ 121.94583705949502, 13.333215985598061 ], [ 121.947542952391473, 13.333107531694329 ], [ 121.950049376292256, 13.333905675873735 ], [ 121.951392974470465, 13.333145302483198 ], [ 121.953612459558073, 13.33192556551127 ], [ 121.953883979485482, 13.331920777155837 ], [ 121.952104565706023, 13.329384979472223 ], [ 121.95585975186637, 13.329581321124611 ], [ 121.956032928897812, 13.328749959514353 ], [ 121.956843245705485, 13.327377339800373 ], [ 121.958732196114696, 13.327091000999138 ], [ 121.95808329284543, 13.315301896624932 ], [ 121.958039394931916, 13.311755400462458 ], [ 121.921369684145603, 13.352819199194704 ], [ 121.931913209027684, 13.353496856070906 ], [ 121.937686128568259, 13.350526886765278 ], [ 121.938540029718851, 13.350144443407887 ], [ 121.943077816747007, 13.34939213049633 ], [ 121.943079972247304, 13.348586451403779 ], [ 121.943528025977557, 13.348320119404656 ], [ 121.942583245334887, 13.347743087080278 ], [ 121.942093599927631, 13.344026780485022 ], [ 121.94206715971066, 13.340859895887791 ], [ 121.941832063634465, 13.339425200872665 ], [ 121.942038077795345, 13.338299570940837 ], [ 121.941921607058916, 13.335794023824404 ], [ 121.941651145103933, 13.333860269343221 ], [ 121.943529612315487, 13.333531991332123 ], [ 121.94583705949502, 13.333215985598061 ] ] ] } },
{ "type": "Feature", "properties": { "Id": 0, "CLN": "19653", "PSGC": "174001013", "Barangay": "Bayote", "Land_Class": null, "PIN": "030-01-014-02-001" }, "geometry": { "type": "Polygon", "coordinates": [ [ [ 121.944616567087849, 13.348988813458602 ], [ 121.944077525053885, 13.349454566133245 ], [ 121.94425972170319, 13.350234987575156 ], [ 121.94518772588286, 13.350221266504979 ], [ 121.94562151124957, 13.349589962725299 ], [ 121.944616567087849, 13.348988813458602 ] ] ] } },
{ "type": "Feature", "properties": { "Id": 0, "CLN": "19752", "PSGC": "174001013", "Barangay": "Bayote", "Land_Class": null, "PIN": "030-01-014-02-002" }, "geometry": { "type": "Polygon", "coordinates": [ [ [ 121.944077525053885, 13.349454566133245 ], [ 121.944616567087849, 13.348988813458602 ], [ 121.944003524727052, 13.348587968743528 ], [ 121.943528025977557, 13.348320119404656 ], [ 121.943079972247304, 13.348586451403779 ], [ 121.943077816746978, 13.34939213049633 ], [ 121.943311595974123, 13.349369303280723 ], [ 121.944077525053885, 13.349454566133245 ] ] ] } }
]
}
