{"type":"FeatureCollection","name":"Bayuti","crs":{"type":"name","properties":{"name":"urn:ogc:def:crs:OGC:1.3:CRS84"}},"features":[{"type":"Feature","properties":{"Id":0,"CLN":"19730","PSGC":"174001013","Barangay":"Bayuti","Land_Class":null,"PIN":"030-01-014-01-003","ALN":"003","Section":"01","Brgy_Code":"014","Owner":"MARQUEZ, MILA S.","TaxDecNo":"01-07446"},"geometry":{"type":"Polygon","coordinates":[[[121.95963499882559,13.349615068943475],[121.95822034415045,13.348078945734011],[121.95584078342932,13.349542505713552],[121.95631947819479,13.349708895135928],[121.95672500350108,13.349874982418134],[121.95718524009123,13.34991400356999],[121.95737911597372,13.350174686680866],[121.95757929631594,13.350228548184104],[121.95765460293848,13.350350844960493],[121.95789433442656,13.350643539066397],[121.95963499882559,13.349615068943475]]]}},{"type":"Feature","properties":{"Id":0,"CLN":"19726","PSGC":"174001013","Barangay":"Bayuti","Land_Class":null,"PIN":"030-01-014-01-005","ALN":"005","Section":"01","Brgy_Code":"014","Owner":"REPUBLIC OF THE PHILIPPINES","TaxDecNo":"01-07448"},"geometry":{"type":"Polygon","coordinates":[[[121.95573275973011,13.347848134261797],[121.95422530777847,13.346686540210337],[121.95339336075457,13.348080061554594],[121.95316569269485,13.348182478487425],[121.9532449050606,13.348603634126485],[121.95339007369158,13.348853511180538],[121.95396332092093,13.349062725596903],[121.95429797344488,13.349334599495135],[121.95449383142457,13.349133864267127],[121.95485739207857,13.348981554645151],[121.95573275973011,13.347848134261797]]]}},{"type":"Feature","properties":{"Id":0,"CLN":"19733","PSGC":"174001013","Barangay":"Bayuti","Land_Class":null,"PIN":"030-01-014-02-017","ALN":"017","Section":"02","Brgy_Code":"014","Owner":"NAVOS, WENCESLAO","TaxDecNo":"01-07467"},"geometry":{"type":"Polygon","coordinates":[[[121.95309483127524,13.347658691303739],[121.95254398593534,13.34604939086467],[121.95088487414696,13.346723164660576],[121.95076829281886,13.347580980877915],[121.95142314496462,13.347273656231115],[121.95172402734765,13.347148859994793],[121.95226953258091,13.347508232395338],[121.95309483127524,13.347658691303739]]]}},{"type":"Feature","properties":{"Id":0,"CLN":"19725","PSGC":"174001013","Barangay":"Bayuti","Land_Class":null,"PIN":"030-01-014-02-018","ALN":"018","Section":"02","Brgy_Code":"014","Owner":"LOTO, ROMULO","TaxDecNo":"01-07468"},"geometry":{"type":"Polygon","coordinates":[[[121.95309483127524,13.347658691303739],[121.9535032488439,13.347471316607038],[121.95397855624267,13.346696025263515],[121.95393935843839,13.345834582201602],[121.95292325427393,13.34515816679527],[121.95242726414305,13.34575481249261],[121.9525439859353,13.346049390864636],[121.95309483127524,13.347658691303739]]]}},{"type":"Feature","properties":{"Id":0,"CLN":"19734","PSGC":"174001013","Barangay":"Bayuti","Land_Class":null,"PIN":"030-01-014-02-016","ALN":"016","Section":"02","Brgy_Code":"014","Owner":"LABAY, HRS OF ALEJANDRA","TaxDecNo":"01-07466"},"geometry":{"type":"Polygon","coordinates":[[[121.95292325427393,13.345158166795256],[121.95215213896078,13.344881890809106],[121.95200043109212,13.34523838001204],[121.95098016876398,13.346022100096025],[121.95088487414691,13.346723164660574],[121.95254398593534,13.34604939086467],[121.95242726414308,13.345754812492627],[121.95292325427393,13.345158166795256]]]}},{"type":"Feature","properties":{"Id":0,"CLN":"19757","PSGC":"174001013","Barangay":"Bayuti","Land_Class":null,"PIN":"030-01-014-02-015","ALN":"015","Section":"02","Brgy_Code":"014","Owner":"MONLEON, DANIEL","TaxDecNo":"01-07465"},"geometry":{"type":"Polygon","coordinates":[[[121.95282106021892,13.343981360634826],[121.95261780487121,13.343854479685898],[121.95179944035391,13.344586336502338],[121.95154992691909,13.34523651677103],[121.95114513007992,13.345714645952853],[121.95098016876398,13.346022100096025],[121.95200043109212,13.34523838001204],[121.95215213896078,13.344881890809106],[121.95282106021892,13.343981360634826]]]}},{"type":"Feature","properties":{"Id":0,"CLN":"19701","PSGC":"174001013","Barangay":"Bayuti","Land_Class":null,"PIN":"030-01-014-02-023","ALN":"023","Section":"02","Brgy_Code":"014","Owner":"OSMILLO, LUIS","TaxDecNo":"01-07473"},"geometry":{"type":"Polygon","coordinates":[[[121.95282106021892,13.343981360634807],[121.95359588182781,13.343396368419365],[121.95314705466564,13.343005888264566],[121.95261780487124,13.3438544796859],[121.95282106021892,13.343981360634807]]]}},{"type":"Feature","properties":{"Id":0,"CLN":"19756","PSGC":"174001013","Barangay":"Bayuti","Land_Class":null,"PIN":"030-01-014-02-014","ALN":"014","Section":"02","Brgy_Code":"014","Owner":"MONLEON, FELIX","TaxDecNo":"01-07464"},"geometry":{"type":"Polygon","coordinates":[[[121.95261780487121,13.343854479685898],[121.9513977789459,13.343208726484335],[121.95099960180438,13.343701427448558],[121.95016048854096,13.344417590887684],[121.95154992691909,13.34523651677103],[121.95179944035391,13.344586336502338],[121.95261780487121,13.343854479685898]]]}},{"type":"Feature","properties":{"Id":0,"CLN":"19754","PSGC":"174001013","Barangay":"Bayuti","Land_Class":null,"PIN":"030-01-014-02-024","ALN":"024","Section":"02","Brgy_Code":"014","Owner":"LARA, BERNARDO","TaxDecNo":"01-07474"},"geometry":{"type":"Polygon","coordinates":[[[121.95099960180438,13.343701427448558],[121.9513977789459,13.343208726484335],[121.95261780487121,13.343854479685898],[121.95314705466564,13.343005888264546],[121.95295656211269,13.342406405981585],[121.95164082227826,13.341571197302317],[121.95173563623858,13.34197071960204],[121.95143331058134,13.342431620001268],[121.95097883376343,13.342921462305107],[121.95050704895407,13.343191285492498],[121.95032464106012,13.343515479801932],[121.95028586284742,13.344112044818399],[121.95016048854096,13.344417590887684],[121.95099960180438,13.343701427448558]]]}},{"type":"Feature","properties":{"Id":0,"CLN":"19724","PSGC":"174001013","Barangay":"Bayuti","Land_Class":null,"PIN":"030-01-014-02-019","ALN":"019","Section":"02","Brgy_Code":"014","Owner":"REPUBLIC OF THE PHILIPPINES","TaxDecNo":"01-07469"},"geometry":{"type":"Polygon","coordinates":[[[121.95393935843839,13.345834582201602],[121.95411188373673,13.345625225626389],[121.95477795439325,13.34538639452221],[121.95554322385249,13.344528267664069],[121.95542848519062,13.343771547411595],[121.95556991222816,13.343309978968284],[121.95621655251588,13.342598408654972],[121.95423641073623,13.34161342806391],[121.95385290598686,13.341690602558833],[121.95336682485042,13.341788397742958],[121.95295656211269,13.342406405981569],[121.95314705466564,13.343005888264566],[121.95359588182781,13.343396368419365],[121.95282106021892,13.343981360634807],[121.95215213896078,13.344881890809086],[121.95292325427393,13.34515816679527],[121.95393935843839,13.345834582201602]]]}},{"type":"Feature","properties":{"Id":0,"CLN":"19721","PSGC":"174001013","Barangay":"Bayuti","Land_Class":null,"PIN":"030-01-014-02-021","ALN":"021","Section":"02","Brgy_Code":"014","Owner":"OSMILLO, ANICETO","TaxDecNo":"01-07471"},"geometry":{"type":"Polygon","coordinates":[[[121.95336682485042,13.341788397742958],[121.95385290598682,13.341690602558852],[121.95384502032005,13.340650749019172],[121.95344248658674,13.340719985849324],[121.95336682485042,13.341788397742958]]]}},{"type":"Feature","properties":{"Id":0,"CLN":"19722","PSGC":"174001013","Barangay":"Bayuti","Land_Class":null,"PIN":"030-01-014-02-020","ALN":"020","Section":"02","Brgy_Code":"014","Owner":"OSMILLO, ANICETO","TaxDecNo":"01-07470"},"geometry":{"type":"Polygon","coordinates":[[[121.95385290598684,13.341690602558838],[121.95423641073623,13.34161342806391],[121.95423835714475,13.340849311199543],[121.95384502032005,13.340650749019172],[121.95385290598684,13.341690602558838]]]}},{"type":"Feature","properties":{"Id":0,"CLN":"19719","PSGC":"174001013","Barangay":"Bayuti","Land_Class":null,"PIN":"030-01-014-03-001","ALN":"001","Section":"03","Brgy_Code":"014","Owner":"MONLEON, DANIEL","TaxDecNo":"01-07497"},"geometry":{"type":"Polygon","coordinates":[[[121.95344248658674,13.340719985849324],[121.95384502032005,13.340650749019172],[121.95412134859816,13.339998050265592],[121.95341329263142,13.34002663874554],[121.95333345759872,13.339884512829563],[121.95244889728974,13.3398020838985],[121.95239153322893,13.340046051639503],[121.9521896726164,13.340218524064511],[121.9527522823248,13.340339012210043],[121.95279946381781,13.340591289445205],[121.95329853222138,13.340522452199245],[121.95344248658674,13.340719985849324]]]}},{"type":"Feature","properties":{"Id":0,"CLN":"19723","PSGC":"174001013","Barangay":"Bayuti","Land_Class":null,"PIN":"030-01-014-03-002","ALN":"002","Section":"03","Brgy_Code":"014","Owner":"REPUBLIC OF THE PHILIPPINES","TaxDecNo":"01-07498"},"geometry":{"type":"Polygon","coordinates":[[[121.95423641073623,13.34161342806391],[121.95621655251588,13.342598408654972],[121.95674633972205,13.341308666206368],[121.95626035418542,13.340203804482444],[121.95511526106661,13.339733351478628],[121.95428484858277,13.339392151225868],[121.95408221032355,13.339745806357866],[121.95412134859816,13.339998050265592],[121.95384502032005,13.340650749019172],[121.95423835714475,13.340849311199543],[121.95423641073623,13.34161342806391]]]}},{"type":"Feature","properties":{"Id":0,"CLN":"19718","PSGC":"174001013","Barangay":"Bayuti","Land_Class":null,"PIN":"030-01-014-03-003","ALN":"003","Section":"03","Brgy_Code":"014","Owner":"MONLEON, DANIEL","TaxDecNo":"01-07499"},"geometry":{"type":"Polygon","coordinates":[[[121.95244889728974,13.3398020838985],[121.95333345759872,13.339884512829563],[121.95341329263142,13.34002663874554],[121.95412134859816,13.339998050265592],[121.95408221032355,13.339745806357866],[121.95257133016169,13.339392955904586],[121.95244889728974,13.3398020838985]]]}},{"type":"Feature","properties":{"Id":0,"CLN":"19717","PSGC":"174001013","Barangay":"Bayuti","Land_Class":null,"PIN":"030-01-014-03-004","ALN":"004","Section":"03","Brgy_Code":"014","Owner":"MAGPANTAY, PACIFICO","TaxDecNo":"01-07500"},"geometry":{"type":"Polygon","coordinates":[[[121.95257133016169,13.339392955904586],[121.95408221032355,13.339745806357866],[121.95428484858277,13.339392151225868],[121.95447109231058,13.339109326481546],[121.95419116049347,13.338730048306115],[121.9540151640895,13.33850087260613],[121.95311333225374,13.338694090207808],[121.95287865066706,13.339016101715947],[121.95257133016169,13.339392955904586]]]}},{"type":"Feature","properties":{"Id":0,"CLN":"19710","PSGC":"174001013","Barangay":"Bayuti","Land_Class":null,"PIN":"030-01-014-03-014","ALN":"014","Section":"03","Brgy_Code":"014","Owner":"OSMILLO, FIDEL","TaxDecNo":"01-07510"},"geometry":{"type":"Polygon","coordinates":[[[121.95428484858277,13.339392151225868],[121.95511526106658,13.339733351478642],[121.95543525050066,13.339389015666523],[121.95507510859707,13.338954264839952],[121.95447109231058,13.339109326481546],[121.95428484858277,13.339392151225868]]]}},{"type":"Feature","properties":{"Id":0,"CLN":"19711","PSGC":"174001013","Barangay":"Bayuti","Land_Class":null,"PIN":"030-01-014-03-013","ALN":"013","Section":"03","Brgy_Code":"014","Owner":"NAVOS, MARIA","TaxDecNo":"01-07509"},"geometry":{"type":"Polygon","coordinates":[[[121.95447109231058,13.339109326481546],[121.95507510859707,13.338954264839952],[121.95470719438622,13.33845646090512],[121.95459426655417,13.338526893555324],[121.95419116049347,13.338730048306115],[121.95447109231058,13.339109326481546]]]}},{"type":"Feature","properties":{"Id":0,"CLN":"19712","PSGC":"174001013","Barangay":"Bayuti","Land_Class":null,"PIN":"030-01-014-03-015","ALN":"015","Section":"03","Brgy_Code":"014","Owner":"NAVOS, MIGUELA","TaxDecNo":"01-07511"},"geometry":{"type":"Polygon","coordinates":[[[121.95543525050066,13.339389015666523],[121.95587131300577,13.339004810300484],[121.95506889224504,13.338528849924417],[121.95495581808395,13.338354902173908],[121.95470719438622,13.33845646090512],[121.95507510859707,13.338954264839952],[121.95543525050066,13.339389015666523]]]}},{"type":"Feature","properties":{"Id":0,"CLN":"19713","PSGC":"174001013","Barangay":"Bayuti","Land_Class":null,"PIN":"030-01-014-03-012","ALN":"012","Section":"03","Brgy_Code":"014","Owner":"NAVOS, WENCESLAO","TaxDecNo":"01-07508"},"geometry":{"type":"Polygon","coordinates":[[[121.95419116049347,13.338730048306115],[121.95459426655417,13.338526893555324],[121.9544508543429,13.33820332153205],[121.9540151640895,13.33850087260613],[121.95419116049347,13.338730048306115]]]}},{"type":"Feature","properties":{"Id":0,"CLN":"19715","PSGC":"174001013","Barangay":"Bayuti","Land_Class":null,"PIN":"030-01-014-03-011","ALN":"011","Section":"03","Brgy_Code":"014","Owner":"OSMILLO, JUANITO","TaxDecNo":"01-07507"},"geometry":{"type":"Polygon","coordinates":[[[121.95311333225374,13.338694090207808],[121.9540151640895,13.33850087260613],[121.9544508543429,13.33820332153205],[121.9537529496043,13.337743543410944],[121.9532527340316,13.33808021482004],[121.95311333225374,13.338694090207808]]]}},{"type":"Feature","properties":{"Id":0,"CLN":"19714","PSGC":"174001013","Barangay":"Bayuti","Land_Class":null,"PIN":"030-01-014-03-010","ALN":"010","Section":"03","Brgy_Code":"014","Owner":"NAVOS, GERONIMO","TaxDecNo":"01-32028"},"geometry":{"type":"Polygon","coordinates":[[[121.95459426655417,13.338526893555324],[121.95470719438622,13.33845646090512],[121.95495581808395,13.338354902173887],[121.9546902815063,13.337946317939643],[121.95471748805133,13.337231539754697],[121.9531911538836,13.337201610884865],[121.95325064802562,13.337396826484612],[121.95341342123653,13.33742703924526],[121.95363708729327,13.337327523152045],[121.95380003846022,13.337316379116789],[121.95386559189147,13.337505711422098],[121.9537529496043,13.337743543410944],[121.9544508543429,13.33820332153205],[121.95459426655417,13.338526893555324]]]}},{"type":"Feature","properties":{"Id":0,"CLN":"19716","PSGC":"174001013","Barangay":"Bayuti","Land_Class":null,"PIN":"030-01-014-03-017","ALN":"017","Section":"03","Brgy_Code":"014","Owner":"NAVOS, FELIX","TaxDecNo":"01-07513"},"geometry":{"type":"Polygon","coordinates":[[[121.9546902815063,13.337946317939643],[121.95495581808395,13.338354902173934],[121.95506889224504,13.338528849924417],[121.95587131300577,13.339004810300484],[121.9563021534501,13.337728446341627],[121.95586247926285,13.33754939071401],[121.95570682993993,13.33726515682334],[121.95539357809648,13.337151611093008],[121.95486282159067,13.337108066891906],[121.95471748805133,13.337231539754697],[121.9546902815063,13.337946317939643]]]}},{"type":"Feature","properties":{"Id":0,"CLN":"19705","PSGC":"174001013","Barangay":"Bayuti","Land_Class":null,"PIN":"030-01-014-03-009","ALN":"009","Section":"03","Brgy_Code":"014","Owner":"MACUNAT, MARCELINO","TaxDecNo":"01-07505"},"geometry":{"type":"Polygon","coordinates":[[[121.95471748805133,13.337231539754697],[121.95486282159067,13.337108066891906],[121.9551270178773,13.334752445845366],[121.95405428762045,13.33447033959117],[121.95230703214577,13.33530799818628],[121.9520153973917,13.335779447763871],[121.9521473663843,13.335957238487719],[121.95206104154947,13.336388178992385],[121.95246402689484,13.33667934478407],[121.95272817019283,13.33698766119271],[121.9531911538836,13.337201610884865],[121.95471748805133,13.337231539754697]]]}},{"type":"Feature","properties":{"Id":0,"CLN":"19706","PSGC":"174001013","Barangay":"Bayuti","Land_Class":null,"PIN":"030-01-014-03-018","ALN":"018","Section":"03","Brgy_Code":"014","Owner":"NAVOS, FELIX","TaxDecNo":"01-07514"},"geometry":{"type":"Polygon","coordinates":[[[121.95486282159067,13.337108066891906],[121.95539357809648,13.337151611093008],[121.95570682993993,13.33726515682334],[121.95586247926285,13.33754939071401],[121.9563021534501,13.337728446341627],[121.95655940584884,13.337300679329976],[121.95688682878779,13.336923902320171],[121.95679262708227,13.336379961472534],[121.95571420917996,13.336015123629524],[121.9551270178773,13.334752445845366],[121.95486282159067,13.337108066891906]]]}},{"type":"Feature","properties":{"Id":0,"CLN":"19694","PSGC":"174001013","Barangay":"Bayuti","Land_Class":null,"PIN":"030-01-014-03-023","ALN":"023","Section":"03","Brgy_Code":"014","Owner":"UMANG, LUCIANO","TaxDecNo":"01-07519"},"geometry":{"type":"Polygon","coordinates":[[[121.95671459858856,13.333096347653695],[121.9569060627595,13.332063201716778],[121.9560354730972,13.331748380518022],[121.95583217496163,13.332052875545848],[121.9556932841195,13.332081844759815],[121.95488782010491,13.332787510109197],[121.95463632317534,13.331614927466648],[121.95388397948548,13.331920777155837],[121.95436985079519,13.332578589000743],[121.95473500896931,13.33324771903376],[121.95484646734758,13.333986701630742],[121.95540581022195,13.334396670743809],[121.95671459858856,13.333096347653695]]]}},{"type":"Feature","properties":{"Id":0,"CLN":"19704","PSGC":"174001013","Barangay":"Bayuti","Land_Class":null,"PIN":"030-01-014-03-021","ALN":"021","Section":"03","Brgy_Code":"014","Owner":"MALAPIT, WENCESLAO","TaxDecNo":"01-07517"},"geometry":{"type":"Polygon","coordinates":[[[121.95571420917996,13.336015123629524],[121.9565532040723,13.334679078546126],[121.9569654673842,13.333510952660676],[121.95770712138334,13.333615917612109],[121.95782119430689,13.333394829144243],[121.9578728670763,13.332951927051464],[121.9580092604505,13.332801828461069],[121.95761129439575,13.332747019678436],[121.9576992995887,13.332273248902107],[121.95722992348807,13.331987726702513],[121.95690606275947,13.332063201716778],[121.95671459858859,13.333096347653681],[121.95540581022195,13.334396670743809],[121.9551270178773,13.334752445845366],[121.95571420917996,13.336015123629524]]]}},{"type":"Feature","properties":{"Id":0,"CLN":"19707","PSGC":"174001013","Barangay":"Bayuti","Land_Class":null,"PIN":"030-01-014-03-020","ALN":"020","Section":"03","Brgy_Code":"014","Owner":"LOTO, FELICIDAD","TaxDecNo":"01-07516"},"geometry":{"type":"Polygon","coordinates":[[[121.9569654673842,13.333510952660676],[121.9565532040723,13.334679078546126],[121.95571420917996,13.336015123629524],[121.95679262708227,13.336379961472534],[121.95718316519925,13.33550586193191],[121.95742496467795,13.335046017206253],[121.95785585606117,13.333753894201351],[121.95770712138334,13.333615917612109],[121.9569654673842,13.333510952660676]]]}},{"type":"Feature","properties":{"Id":0,"CLN":"19703","PSGC":"174001013","Barangay":"Bayuti","Land_Class":null,"PIN":"030-01-014-03-026","ALN":"026","Section":"03","Brgy_Code":"014","Owner":"NAVOS, GERONIMO","TaxDecNo":"01-07522"},"geometry":{"type":"Polygon","coordinates":[[[121.95761129439575,13.332747019678436],[121.9580092604505,13.332801828461069],[121.95835798376282,13.332732362375147],[121.95818395956199,13.33216003006026],[121.9576992995887,13.332273248902107],[121.95761129439575,13.332747019678436]]]}},{"type":"Feature","properties":{"Id":0,"CLN":"19709","PSGC":"174001013","Barangay":"Bayuti","Land_Class":null,"PIN":"030-01-014-03-016","ALN":"016","Section":"03","Brgy_Code":"014","Owner":"LOTO, DOMINGO","TaxDecNo":"01-07512"},"geometry":{"type":"Polygon","coordinates":[[[121.95511526106651,13.339733351478651],[121.95626035418542,13.340203804482444],[121.95651033594007,13.339780403524191],[121.95711177661194,13.339600818423238],[121.9577135767173,13.339337205733175],[121.95853247587031,13.338472285550901],[121.95688682878779,13.336923902320171],[121.95655940584884,13.337300679329976],[121.9563021534501,13.337728446341627],[121.95587131300577,13.339004810300484],[121.95543525050066,13.339389015666523],[121.95511526106651,13.339733351478651]]]}},{"type":"Feature","properties":{"Id":0,"CLN":"19708","PSGC":"174001013","Barangay":"Bayuti","Land_Class":null,"PIN":"030-01-014-03-019","ALN":"019","Section":"03","Brgy_Code":"014","Owner":"REY, CONCHITA / MALAPIT, CELEDONIO","TaxDecNo":"01-07515"},"geometry":{"type":"Polygon","coordinates":[[[121.95688682878782,13.33692390232017],[121.95853247587031,13.338472285550901],[121.95937685516996,13.338335706233462],[121.9601395580609,13.337232471199467],[121.96154395517672,13.336566004739295],[121.96245971360044,13.336457716068026],[121.96309153640055,13.33585810153005],[121.96201870601791,13.335909731375951],[121.96159421394259,13.334843642864978],[121.96109546822831,13.334421461980515],[121.96042427309038,13.334194638055623],[121.95890467704723,13.333984189643738],[121.95785585606122,13.333753894201351],[121.95742496467795,13.335046017206269],[121.95718316519925,13.33550586193191],[121.95679262708227,13.336379961472572],[121.95688682878782,13.33692390232017]]]}},{"type":"Feature","properties":{"Id":0,"CLN":"19728","PSGC":"174001013","Barangay":"Bayuti","Land_Class":null,"PIN":"030-01-014-01-006","ALN":"006","Section":"01","Brgy_Code":"014","Owner":"REPUBLIC OF THE PHILIPPINES","TaxDecNo":"01-07449"},"geometry":{"type":"Polygon","coordinates":[[[121.95422530777847,13.346686540210323],[121.95573275973011,13.347848134261797],[121.95727123563307,13.346783118893724],[121.95544113070808,13.344949363066394],[121.95482724773964,13.345524521140803],[121.95413945286145,13.345826283286476],[121.95422530777847,13.346686540210323]]]}},{"type":"Feature","properties":{"Id":0,"CLN":"19729","PSGC":"174001013","Barangay":"Bayuti","Land_Class":null,"PIN":"030-01-014-01-007","ALN":"007","Section":"01","Brgy_Code":"014","Owner":"LOTO, DOMINGO","TaxDecNo":"01-07450"},"geometry":{"type":"Polygon","coordinates":[[[121.96067849302158,13.351896061377596],[121.96174406688301,13.350977572073107],[121.96277650866342,13.35119613723658],[121.96290407550164,13.350370729534275],[121.96444194648974,13.350430462598947],[121.96564063258813,13.349745464252242],[121.96649492905962,13.349817867983589],[121.96649683976801,13.349368742129258],[121.96710868132057,13.349042394601065],[121.9672692754959,13.348568283275414],[121.96770781274029,13.34620451697133],[121.96669996007735,13.345888309465481],[121.96556806196025,13.344686296894533],[121.96506481987224,13.344474173212554],[121.96447393350725,13.344692332516383],[121.96363347417365,13.345581691416891],[121.96318414805113,13.347817090066398],[121.96274265998377,13.348214414578022],[121.9621837176607,13.34848521573277],[121.96181937679778,13.348399695607116],[121.96139624480197,13.347011506043879],[121.96017662654958,13.346260759738257],[121.95999859371507,13.345251698129378],[121.95959207283593,13.344997946913791],[121.9581339259707,13.344844908837574],[121.95708504804487,13.344304919566108],[121.95616073960319,13.344731755610882],[121.95577477397595,13.344688151989734],[121.95544113070808,13.34494936306643],[121.95727123563307,13.346783118893724],[121.95822034415045,13.348078945734011],[121.95963499882559,13.349615068943475],[121.96062700629822,13.351270003607373],[121.96067849302158,13.351896061377596]]]}},{"type":"Feature","properties":{"Id":0,"CLN":"19735","PSGC":"174001013","Barangay":"Bayuti","Land_Class":null,"PIN":"030-01-014-02-011","ALN":"011","Section":"02","Brgy_Code":"014","Owner":"OSMILLO, ANICETO","TaxDecNo":"01-07461"},"geometry":{"type":"Polygon","coordinates":[[[121.95076829281884,13.347580980877881],[121.950884874147,13.346723164660585],[121.95098016876398,13.346022100096004],[121.94962510266522,13.346837723406637],[121.9502115429393,13.347962706223186],[121.95076829281884,13.347580980877881]]]}},{"type":"Feature","properties":{"Id":0,"CLN":"19736","PSGC":"174001013","Barangay":"Bayuti","Land_Class":null,"PIN":"030-01-014-02-010","ALN":"010","Section":"02","Brgy_Code":"014","Owner":"LOTO, RUDY","TaxDecNo":"01-07460"},"geometry":{"type":"Polygon","coordinates":[[[121.9502115429393,13.347962706223186],[121.94962510266522,13.346837723406637],[121.94830653624057,13.347582592236975],[121.94824190365541,13.348574896365548],[121.94889959321914,13.348571717284525],[121.9502115429393,13.347962706223186]]]}},{"type":"Feature","properties":{"Id":0,"CLN":"19737","PSGC":"174001013","Barangay":"Bayuti","Land_Class":null,"PIN":"030-01-014-02-012","ALN":"012","Section":"02","Brgy_Code":"014","Owner":"OSMILLO, CAROLINA , OSMILLO, BENITO , OSMILLO, AMANDA & OSMILLO, FRANCISCO","TaxDecNo":"01-07462"},"geometry":{"type":"Polygon","coordinates":[[[121.95098016876398,13.346022100096004],[121.95114513007992,13.345714645952853],[121.94979710688875,13.346129455605528],[121.94871480003775,13.346656703596736],[121.94830653624057,13.347582592236975],[121.94962510266522,13.346837723406637],[121.95098016876398,13.346022100096004]]]}},{"type":"Feature","properties":{"Id":0,"CLN":"19638","PSGC":"174001013","Barangay":"Bayuti","Land_Class":null,"PIN":"030-01-014-02-013","ALN":"013","Section":"02","Brgy_Code":"014","Owner":"MONLEON, JUAN","TaxDecNo":"01-07463"},"geometry":{"type":"Polygon","coordinates":[[[121.95114513007992,13.345714645952853],[121.95154992691901,13.34523651677112],[121.95016048854096,13.344417590887684],[121.95005157898838,13.344488037840222],[121.94952559056148,13.344734001645117],[121.94928806091745,13.345247028031526],[121.94912973277623,13.345583137380615],[121.94886269805453,13.345942428428126],[121.94863684936168,13.346544124980197],[121.94871480003775,13.346656703596752],[121.94979710688875,13.346129455605542],[121.95114513007992,13.345714645952853]]]}},{"type":"Feature","properties":{"Id":0,"CLN":"19875","PSGC":"174001013","Barangay":"Bayuti","Land_Class":null,"PIN":"030-01-014-02-025","ALN":"025","Section":"02","Brgy_Code":"014","Owner":"NAVOS, WENCESLAO","TaxDecNo":"01-07475"},"geometry":{"type":"Polygon","coordinates":[[[121.95164082227826,13.341571197302317],[121.9514167515925,13.341297181502153],[121.95124937959032,13.341746854637478],[121.95137439989206,13.342137311494028],[121.95073797920028,13.342808210108563],[121.95071315665689,13.342967628096552],[121.95060419691215,13.34304989149358],[121.95050704895407,13.343191285492498],[121.95097883376343,13.342921462305107],[121.95143331058134,13.342431620001268],[121.95173563623858,13.34197071960204],[121.95164082227826,13.341571197302317]]]}},{"type":"Feature","properties":{"Id":0,"CLN":"19720","PSGC":"174001013","Barangay":"Bayuti","Land_Class":null,"PIN":"030-01-014-02-022","ALN":"022","Section":"02","Brgy_Code":"014","Owner":"OSMILLO, ANICETO","TaxDecNo":"01-07472"},"geometry":{"type":"Polygon","coordinates":[[[121.95344248658674,13.340719985849324],[121.95329853222141,13.340522452199242],[121.95279946381781,13.340591289445205],[121.9527522823248,13.340339012210043],[121.9521896726164,13.34021852406453],[121.95184392670159,13.340177707063805],[121.9515701402337,13.340239595600249],[121.9514880639047,13.340617379561877],[121.95143938879211,13.340711709093894],[121.9512700798049,13.341144306214987],[121.9514167515925,13.341297181502153],[121.95164082227826,13.341571197302317],[121.95295656211269,13.342406405981585],[121.95336682485042,13.34178839774296],[121.95344248658674,13.340719985849324]]]}},{"type":"Feature","properties":{"Id":0,"CLN":"19684","PSGC":"174001013","Barangay":"Bayuti","Land_Class":null,"PIN":"030-01-014-02-035","ALN":"035","Section":"02","Brgy_Code":"014","Owner":"MONLEON, JUAN","TaxDecNo":"01-07485"},"geometry":{"type":"Polygon","coordinates":[[[121.95141020892797,13.340016423917717],[121.95008065285361,13.338539785775279],[121.9489097508807,13.340029702780127],[121.9511913902431,13.341203062456362],[121.95139927943782,13.340565839247722],[121.95153035913036,13.340137022671845],[121.95141020892797,13.340016423917717]]]}},{"type":"Feature","properties":{"Id":0,"CLN":"19674","PSGC":"174001013","Barangay":"Bayuti","Land_Class":null,"PIN":"030-01-014-02-034","ALN":"034","Section":"02","Brgy_Code":"014","Owner":"MONLEON, FELIX","TaxDecNo":"01-07484"},"geometry":{"type":"Polygon","coordinates":[[[121.95119139024307,13.341203062456362],[121.94890975088067,13.340029702780111],[121.94850794537626,13.342255417715903],[121.9506839074708,13.342754812704813],[121.95123537539743,13.342195818134648],[121.95128407641762,13.342095580609127],[121.95124237750832,13.341971336388584],[121.95116465636598,13.341805585892597],[121.95115931120051,13.341646043006303],[121.95127514468435,13.34136883789793],[121.95119139024307,13.341203062456362]]]}},{"type":"Feature","properties":{"Id":0,"CLN":"19739","PSGC":"174001013","Barangay":"Bayuti","Land_Class":null,"PIN":"030-01-014-02-026","ALN":"026","Section":"02","Brgy_Code":"014","Owner":"LOTO, ROMULO","TaxDecNo":"01-07476"},"geometry":{"type":"Polygon","coordinates":[[[121.9506839074708,13.342754812704813],[121.94850794537626,13.342255417715903],[121.94727396708147,13.34437132906452],[121.94905490376289,13.345530813261952],[121.94943250790242,13.344717051026626],[121.95004935644602,13.344388749391568],[121.95019584512285,13.343999416691034],[121.95025231570428,13.343497455759648],[121.95041680181342,13.343131830076294],[121.95065911040703,13.34290832261618],[121.9506839074708,13.342754812704813]]]}},{"type":"Feature","properties":{"Id":0,"CLN":"19746","PSGC":"174001013","Barangay":"Bayuti","Land_Class":null,"PIN":"030-01-014-02-009","ALN":"009","Section":"02","Brgy_Code":"014","Owner":"OSMILLO, ARSENIO","TaxDecNo":"01-07459"},"geometry":{"type":"Polygon","coordinates":[[[121.94905490376289,13.345530813261952],[121.94727396708147,13.34437132906452],[121.9468182279875,13.34511386494734],[121.94700055671261,13.346201725427756],[121.94750864886093,13.347302755350718],[121.94762988343757,13.347173279147837],[121.94790719780268,13.347227604151149],[121.9485196829826,13.346515257728008],[121.94873354150533,13.34589578704909],[121.94905490376289,13.345530813261952]]]}},{"type":"Feature","properties":{"Id":0,"CLN":"19747","PSGC":"174001013","Barangay":"Bayuti","Land_Class":null,"PIN":"030-01-014-02-007","ALN":"007","Section":"02","Brgy_Code":"014","Owner":"LOTO, RUDY","TaxDecNo":"01-07457"},"geometry":{"type":"Polygon","coordinates":[[[121.94820123199379,13.347601039390687],[121.94862143553279,13.346704741338103],[121.9485196829826,13.346515257728026],[121.94790719780268,13.347227604151149],[121.94762988343757,13.347173279147837],[121.94750864886093,13.347302755350752],[121.94700055671261,13.346201725427786],[121.94635527405711,13.346128145443313],[121.9462724696139,13.345743770342134],[121.94647152520952,13.34575641422415],[121.94626237516994,13.345288799536132],[121.94567735364588,13.345233193040409],[121.94746411787791,13.34908036932149],[121.94814126489389,13.348742593392332],[121.94813670128643,13.348569711209356],[121.94820123199379,13.347601039390687]]]}},{"type":"Feature","properties":{"Id":0,"CLN":"19745","PSGC":"174001013","Barangay":"Bayuti","Land_Class":null,"PIN":"030-01-014-02-008","ALN":"008","Section":"02","Brgy_Code":"014","Owner":"LOTO, RUDY","TaxDecNo":"01-07458"},"geometry":{"type":"Polygon","coordinates":[[[121.94700055671261,13.346201725427756],[121.9468182279875,13.34511386494734],[121.94594480195708,13.344779376663743],[121.94626237516991,13.345288799536098],[121.94647152520952,13.345756414224136],[121.9462724696139,13.345743770342134],[121.94635527405711,13.346128145443313],[121.94700055671261,13.346201725427756]]]}},{"type":"Feature","properties":{"Id":0,"CLN":"19748","PSGC":"174001013","Barangay":"Bayuti","Land_Class":null,"PIN":"030-01-014-02-006","ALN":"006","Section":"02","Brgy_Code":"014","Owner":"LOTO, RUDY","TaxDecNo":"01-07456"},"geometry":{"type":"Polygon","coordinates":[[[121.94567735364588,13.345233193040409],[121.94532784504615,13.345131300046393],[121.94544397744926,13.346177528530278],[121.9454980230055,13.34623683506753],[121.94549727947977,13.346408168759629],[121.9454872204265,13.347335708771887],[121.94562789849022,13.348287508638156],[121.94597759110465,13.348348045132289],[121.94616360775903,13.348585145442057],[121.94673361821488,13.349317406907437],[121.94701808927383,13.349255642132908],[121.94746411787791,13.34908036932149],[121.94567735364588,13.345233193040409]]]}},{"type":"Feature","properties":{"Id":0,"CLN":"19751","PSGC":"174001013","Barangay":"Bayuti","Land_Class":null,"PIN":"030-01-014-02-003","ALN":"003","Section":"02","Brgy_Code":"014","Owner":"MATIMTIM, CRISANTO","TaxDecNo":"01-35518"},"geometry":{"type":"Polygon","coordinates":[[[121.94593509955429,13.348406950026074],[121.9455070469588,13.348328362890104],[121.94461656708785,13.348988813458602],[121.94562151124957,13.349589962725299],[121.94637972686898,13.350073811147114],[121.94662568135861,13.349434773446292],[121.94635234953594,13.3490465297076],[121.94606106201631,13.348578810767137],[121.94593509955429,13.348406950026074]]]}},{"type":"Feature","properties":{"Id":0,"CLN":"19750","PSGC":"174001013","Barangay":"Bayuti","Land_Class":null,"PIN":"030-01-014-02-004","ALN":"004","Section":"02","Brgy_Code":"014","Owner":"LOTO, DOMINGO","TaxDecNo":"01-07454"},"geometry":{"type":"Polygon","coordinates":[[[121.9455070469588,13.348328362890104],[121.94539047803377,13.347382571492124],[121.94352802597756,13.348320119404656],[121.94461656708785,13.348988813458602],[121.9455070469588,13.348328362890104]]]}},{"type":"Feature","properties":{"Id":0,"CLN":"19749","PSGC":"174001013","Barangay":"Bayuti","Land_Class":null,"PIN":"030-01-014-02-005","ALN":"005","Section":"02","Brgy_Code":"014","Owner":"LOTO, DOMINGO","TaxDecNo":"01-07455"},"geometry":{"type":"Polygon","coordinates":[[[121.94352802597756,13.34832011940464],[121.94539047803377,13.347382571492124],[121.9454376105794,13.34625430818134],[121.94501667279664,13.345927607185434],[121.94258324533489,13.347743087080278],[121.94352802597756,13.34832011940464]]]}},{"type":"Feature","properties":{"Id":0,"CLN":"19744","PSGC":"174001013","Barangay":"Bayuti","Land_Class":null,"PIN":"030-01-014-02-046","ALN":"046","Section":"02","Brgy_Code":"014","Owner":"MIRONES, LEONARDO","TaxDecNo":"01-07496"},"geometry":{"type":"Polygon","coordinates":[[[121.94258324533489,13.347743087080278],[121.94501667279664,13.345927607185434],[121.94503802103618,13.3458745225725],[121.94544397744923,13.346177528530282],[121.94532784504615,13.345131300046393],[121.94567735364588,13.345233193040409],[121.94626237516991,13.345288799536098],[121.94594480195708,13.344779376663743],[121.9468182279875,13.34511386494734],[121.94727396708147,13.34437132906452],[121.94663252848706,13.343643928816514],[121.94465019270514,13.344407683173348],[121.94209359992763,13.344026780484986],[121.94258324533489,13.347743087080278]]]}},{"type":"Feature","properties":{"Id":0,"CLN":"19740","PSGC":"174001013","Barangay":"Bayuti","Land_Class":null,"PIN":"030-01-014-02-027","ALN":"027","Section":"02","Brgy_Code":"014","Owner":"REPUBLIC OF THE PHILIPPINES","TaxDecNo":"01-07477"},"geometry":{"type":"Polygon","coordinates":[[[121.94727396708147,13.34437132906452],[121.94850794537626,13.342255417715903],[121.94644124584056,13.341374397179479],[121.94652423958917,13.34264302895747],[121.94663252848706,13.343643928816514],[121.94727396708147,13.34437132906452]]]}},{"type":"Feature","properties":{"Id":0,"CLN":"19742","PSGC":"174001013","Barangay":"Bayuti","Land_Class":null,"PIN":"030-01-014-02-028","ALN":"028","Section":"02","Brgy_Code":"014","Owner":"REPUBLIC OF THE PHILIPPINES","TaxDecNo":"01-07478"},"geometry":{"type":"Polygon","coordinates":[[[121.94663252848706,13.343643928816514],[121.94652423958917,13.34264302895747],[121.94480964214226,13.342887979229484],[121.94465019270514,13.344407683173348],[121.94663252848706,13.343643928816514]]]}},{"type":"Feature","properties":{"Id":0,"CLN":"19741","PSGC":"174001013","Barangay":"Bayuti","Land_Class":null,"PIN":"030-01-014-02-030","ALN":"030","Section":"02","Brgy_Code":"014","Owner":"REPUBLIC OF THE PHILIPPINES","TaxDecNo":"01-07480"},"geometry":{"type":"Polygon","coordinates":[[[121.94652423958917,13.34264302895747],[121.94644124584056,13.341374397179479],[121.94439994252956,13.340901129951606],[121.94480964214226,13.342887979229484],[121.94652423958917,13.34264302895747]]]}},{"type":"Feature","properties":{"Id":0,"CLN":"19743","PSGC":"174001013","Barangay":"Bayuti","Land_Class":null,"PIN":"030-01-014-02-029","ALN":"029","Section":"02","Brgy_Code":"014","Owner":"REPUBLIC OF THE PHILIPPINES","TaxDecNo":"01-07479"},"geometry":{"type":"Polygon","coordinates":[[[121.94209359992763,13.344026780484986],[121.94465019270514,13.344407683173348],[121.94480964214226,13.342887979229484],[121.94439994252956,13.340901129951606],[121.94206715971066,13.340859895887775],[121.94209359992763,13.344026780484986]]]}},{"type":"Feature","properties":{"Id":0,"CLN":"19675","PSGC":"174001013","Barangay":"Bayuti","Land_Class":null,"PIN":"030-01-014-02-033","ALN":"033","Section":"02","Brgy_Code":"014","Owner":"MARQUEZ, ALFREDO POCHOLO S.","TaxDecNo":"01-07483"},"geometry":{"type":"Polygon","coordinates":[[[121.94850794537626,13.342255417715903],[121.94890975088067,13.340029702780111],[121.94783234571487,13.339662866002767],[121.94644124584056,13.341374397179479],[121.94850794537626,13.342255417715903]]]}},{"type":"Feature","properties":{"Id":0,"CLN":"19676","PSGC":"174001013","Barangay":"Bayuti","Land_Class":null,"PIN":"030-01-014-02-032","ALN":"032","Section":"02","Brgy_Code":"014","Owner":"MARQUEZ, ALFREDO POCHOLO S.","TaxDecNo":"01-07482"},"geometry":{"type":"Polygon","coordinates":[[[121.94644124584056,13.341374397179479],[121.94783234571487,13.339662866002767],[121.94690180855919,13.339052430524227],[121.94439994252956,13.340901129951606],[121.94644124584056,13.341374397179479]]]}},{"type":"Feature","properties":{"Id":0,"CLN":"19683","PSGC":"174001013","Barangay":"Bayuti","Land_Class":null,"PIN":"030-01-014-02-036","ALN":"036","Section":"02","Brgy_Code":"014","Owner":"MARQUEZ, MILA S.","TaxDecNo":"01-07486"},"geometry":{"type":"Polygon","coordinates":[[[121.94890975088067,13.340029702780111],[121.95008065285359,13.33853978577526],[121.94740701289679,13.337565669001654],[121.94690180855919,13.339052430524227],[121.94783234571487,13.339662866002767],[121.94890975088067,13.340029702780111]]]}},{"type":"Feature","properties":{"Id":0,"CLN":"19677","PSGC":"174001013","Barangay":"Bayuti","Land_Class":null,"PIN":"030-01-014-02-037","ALN":"037","Section":"02","Brgy_Code":"014","Owner":"REPUBLIC OF THE PHILIPPINES","TaxDecNo":"01-07487"},"geometry":{"type":"Polygon","coordinates":[[[121.94439994252956,13.340901129951606],[121.94690180855919,13.339052430524227],[121.94740701289679,13.337565669001654],[121.94640005709013,13.337884467181752],[121.9442491428644,13.338576623450574],[121.94439994252956,13.340901129951606]]]}},{"type":"Feature","properties":{"Id":0,"CLN":"19678","PSGC":"174001013","Barangay":"Bayuti","Land_Class":null,"PIN":"030-01-014-02-031","ALN":"031","Section":"02","Brgy_Code":"014","Owner":"REPUBLIC OF THE PHILIPPINES","TaxDecNo":"01-07481"},"geometry":{"type":"Polygon","coordinates":[[[121.94439994252956,13.340901129951606],[121.9442491428644,13.338576623450574],[121.94203807779535,13.338299570940851],[121.94183206363446,13.339425200872665],[121.94206715971066,13.340859895887775],[121.94439994252956,13.340901129951606]]]}},{"type":"Feature","properties":{"Id":0,"CLN":"19685","PSGC":"174001013","Barangay":"Bayuti","Land_Class":null,"PIN":"030-01-014-03-005","ALN":"005","Section":"03","Brgy_Code":"014","Owner":"REPUBLIC OF THE PHILIPPINES","TaxDecNo":"01-07501"},"geometry":{"type":"Polygon","coordinates":[[[121.95279837517029,13.338976382312897],[121.95106333196276,13.33755456119832],[121.95008065285361,13.338539785775279],[121.95141020892797,13.340016423917717],[121.95153035913036,13.340137022671845],[121.95189260154018,13.340083377430709],[121.95221448529489,13.340061075163804],[121.95230324689864,13.339998421391329],[121.95248280643632,13.339400467763568],[121.95279837517029,13.338976382312897]]]}},{"type":"Feature","properties":{"Id":0,"CLN":"19686","PSGC":"174001013","Barangay":"Bayuti","Land_Class":null,"PIN":"030-01-014-03-006","ALN":"006","Section":"03","Brgy_Code":"014","Owner":"MARQUEZ, ALFREDO POCHOLO S.","TaxDecNo":"01-07502"},"geometry":{"type":"Polygon","coordinates":[[[121.95364850703051,13.337711602156682],[121.95376204480206,13.337499376040904],[121.95366588407276,13.337412325929431],[121.95335167531948,13.337521315317606],[121.95318301283727,13.337457598503729],[121.95310328041717,13.337291840251389],[121.9526937255772,13.337124720043608],[121.95251735844978,13.336982195247929],[121.95234957897817,13.336713664626323],[121.9519805533865,13.336475812626382],[121.95106333196276,13.33755456119832],[121.95279837517029,13.338976382312897],[121.9530170356519,13.338638549580446],[121.95313223634795,13.338040329496522],[121.95364850703051,13.337711602156682]]]}},{"type":"Feature","properties":{"Id":0,"CLN":"19687","PSGC":"174001013","Barangay":"Bayuti","Land_Class":null,"PIN":"030-01-014-03-007","ALN":"007","Section":"03","Brgy_Code":"014","Owner":"MARQUEZ, ALFREDO POCHOLO S.","TaxDecNo":"01-07503"},"geometry":{"type":"Polygon","coordinates":[[[121.9518948826063,13.335821619932588],[121.94904352747484,13.335834140291851],[121.95106333196276,13.33755456119832],[121.9519805533865,13.336475812626382],[121.95202973652678,13.336263321373345],[121.95207111276714,13.335995654821524],[121.9518948826063,13.335821619932588]]]}},{"type":"Feature","properties":{"Id":0,"CLN":"19682","PSGC":"174001013","Barangay":"Bayuti","Land_Class":null,"PIN":"030-01-014-02-045","ALN":"045","Section":"02","Brgy_Code":"014","Owner":"REPUBLIC OF THE PHILIPPINES","TaxDecNo":"01-07495"},"geometry":{"type":"Polygon","coordinates":[[[121.95008065285359,13.33853978577526],[121.95106333196276,13.337554561198305],[121.94904352747484,13.335834140291835],[121.94740701289679,13.337565669001654],[121.95008065285359,13.33853978577526]]]}},{"type":"Feature","properties":{"Id":0,"CLN":"19681","PSGC":"174001013","Barangay":"Bayuti","Land_Class":null,"PIN":"030-01-014-02-042","ALN":"042","Section":"02","Brgy_Code":"014","Owner":"REPUBLIC OF THE PHILIPPINES","TaxDecNo":"01-07492"},"geometry":{"type":"Polygon","coordinates":[[[121.94740701289679,13.337565669001654],[121.94904352747484,13.335834140291835],[121.94732916254856,13.335417396885704],[121.94604274464446,13.335254502970677],[121.94640005709013,13.337884467181752],[121.94740701289679,13.337565669001654]]]}},{"type":"Feature","properties":{"Id":0,"CLN":"19680","PSGC":"174001013","Barangay":"Bayuti","Land_Class":null,"PIN":"030-01-014-02-041","ALN":"041","Section":"02","Brgy_Code":"014","Owner":"REPUBLIC OF THE PHILIPPINES","TaxDecNo":"01-07491"},"geometry":{"type":"Polygon","coordinates":[[[121.94640005709013,13.337884467181752],[121.94604274464446,13.335254502970677],[121.94440009755857,13.335615290737568],[121.9442491428644,13.338576623450574],[121.94640005709013,13.337884467181752]]]}},{"type":"Feature","properties":{"Id":0,"CLN":"19679","PSGC":"174001013","Barangay":"Bayuti","Land_Class":null,"PIN":"030-01-014-02-038","ALN":"038","Section":"02","Brgy_Code":"014","Owner":"REPUBLIC OF THE PHILIPPINES","TaxDecNo":"01-07488"},"geometry":{"type":"Polygon","coordinates":[[[121.9442491428644,13.338576623450574],[121.94440009755857,13.335615290737568],[121.94378813174039,13.335749287159336],[121.94192160705892,13.33579402382439],[121.94203807779535,13.338299570940851],[121.9442491428644,13.338576623450574]]]}},{"type":"Feature","properties":{"Id":0,"CLN":"19688","PSGC":"174001013","Barangay":"Bayuti","Land_Class":null,"PIN":"030-01-014-03-008","ALN":"008","Section":"03","Brgy_Code":"014","Owner":"REPUBLIC OF THE PHILIPPINES","TaxDecNo":"01-07504"},"geometry":{"type":"Polygon","coordinates":[[[121.94904352747484,13.335834140291851],[121.9518948826063,13.335821619932588],[121.95242460994218,13.334561620694508],[121.9525637314678,13.33447948071422],[121.95271481768569,13.334421022784543],[121.9526432579946,13.334225757273662],[121.95278917563846,13.333966399724572],[121.95004937629226,13.333905675873735],[121.94904352747484,13.335834140291851]]]}},{"type":"Feature","properties":{"Id":0,"CLN":"19693","PSGC":"174001013","Barangay":"Bayuti","Land_Class":null,"PIN":"030-01-014-03-022","ALN":"022","Section":"03","Brgy_Code":"014","Owner":"MALAPIT, JUAN","TaxDecNo":"01-07518"},"geometry":{"type":"Polygon","coordinates":[[[121.9523070321458,13.335307998186282],[121.95405428762045,13.334470339591189],[121.9551270178773,13.334752445845366],[121.95540581022195,13.334396670743809],[121.95484646734758,13.333986701630742],[121.95473500896931,13.33324771903376],[121.95436985079519,13.332578589000743],[121.95388397948548,13.331920777155837],[121.95361245955807,13.33192556551127],[121.95139297447047,13.333145302483198],[121.95004937629226,13.333905675873735],[121.95278917563846,13.333966399724572],[121.95287954736986,13.333996313738933],[121.95270366697898,13.334208282166328],[121.95276954958202,13.334320809665035],[121.95282331482493,13.33444510348727],[121.9527927668929,13.334533600104043],[121.95251465104808,13.334668339852893],[121.9523070321458,13.335307998186282]]]}},{"type":"Feature","properties":{"Id":0,"CLN":"19689","PSGC":"174001013","Barangay":"Bayuti","Land_Class":null,"PIN":"030-01-014-02-044","ALN":"044","Section":"02","Brgy_Code":"014","Owner":"REPUBLIC OF THE PHILIPPINES","TaxDecNo":"01-07494"},"geometry":{"type":"Polygon","coordinates":[[[121.94904352747484,13.335834140291835],[121.95004937629227,13.333905675873703],[121.94754295239147,13.333107531694312],[121.94732916254856,13.335417396885704],[121.94904352747484,13.335834140291835]]]}},{"type":"Feature","properties":{"Id":0,"CLN":"19690","PSGC":"174001013","Barangay":"Bayuti","Land_Class":null,"PIN":"030-01-014-02-043","ALN":"043","Section":"02","Brgy_Code":"014","Owner":"MARQUEZ, ALFREDO POCHOLO S.","TaxDecNo":"01-07493"},"geometry":{"type":"Polygon","coordinates":[[[121.94732916254856,13.335417396885704],[121.94754295239147,13.333107531694312],[121.94583705949502,13.333215985598061],[121.94604274464446,13.335254502970677],[121.94732916254856,13.335417396885704]]]}},{"type":"Feature","properties":{"Id":0,"CLN":"19691","PSGC":"174001013","Barangay":"Bayuti","Land_Class":null,"PIN":"030-01-014-02-040","ALN":"040","Section":"02","Brgy_Code":"014","Owner":"REPUBLIC OF THE PHILIPPINES","TaxDecNo":"01-07490"},"geometry":{"type":"Polygon","coordinates":[[[121.94604274464446,13.335254502970677],[121.94583705949502,13.333215985598061],[121.94352961231549,13.333531991332118],[121.94378813174039,13.335749287159336],[121.94440009755857,13.335615290737568],[121.94604274464446,13.335254502970677]]]}},{"type":"Feature","properties":{"Id":0,"CLN":"19692","PSGC":"174001013","Barangay":"Bayuti","Land_Class":null,"PIN":"030-01-014-02-039","ALN":"039","Section":"02","Brgy_Code":"014","Owner":"REPUBLIC OF THE PHILIPPINES","TaxDecNo":"01-07489"},"geometry":{"type":"Polygon","coordinates":[[[121.94378813174039,13.335749287159336],[121.94352961231549,13.333531991332118],[121.94165114510393,13.333860269343221],[121.94192160705892,13.33579402382439],[121.94378813174039,13.335749287159336]]]}},{"type":"Feature","properties":{"Id":0,"CLN":"19702","PSGC":"174001013","Barangay":"Bayuti","Land_Class":null,"PIN":"030-01-014-03-028","ALN":"028","Section":"03","Brgy_Code":"014","Owner":"LOTO, PELAGIO","TaxDecNo":"01-07524"},"geometry":{"type":"Polygon","coordinates":[[[121.96070600636472,13.330633183927205],[121.95950916411938,13.330218643323333],[121.95981181409049,13.330928867902147],[121.95961683154725,13.331377091254764],[121.95965452660592,13.331841253912634],[121.95906278002437,13.33193321816543],[121.95890467704723,13.333984189643738],[121.96042427309038,13.334194638055623],[121.96021394408157,13.332937475709988],[121.96035946828077,13.332349878417004],[121.96061856172695,13.331958810919025],[121.96070600636472,13.330633183927205]]]}},{"type":"Feature","properties":{"Id":0,"CLN":"19700","PSGC":"174001013","Barangay":"Bayuti","Land_Class":null,"PIN":"030-01-014-03-027","ALN":"027","Section":"03","Brgy_Code":"014","Owner":"NAVOS, CRISANTO","TaxDecNo":"01-07523"},"geometry":{"type":"Polygon","coordinates":[[[121.95890467704723,13.333984189643738],[121.95906278002437,13.33193321816543],[121.95965452660592,13.331841253912634],[121.95961683154725,13.331377091254764],[121.9590050619043,13.3314691127594],[121.9584825209679,13.331388192086923],[121.9581271558716,13.331717591704619],[121.9574271679899,13.331746226260876],[121.9572299234881,13.331987726702515],[121.9576992995887,13.332273248902126],[121.95818395956199,13.332160030060246],[121.95835798376282,13.332732362375184],[121.9580092604505,13.33280182846109],[121.9578728670763,13.332951927051505],[121.95782119430689,13.333394829144243],[121.95770712138336,13.33361591761211],[121.95785585606122,13.333753894201351],[121.95890467704723,13.333984189643738]]]}},{"type":"Feature","properties":{"Id":0,"CLN":"19699","PSGC":"174001013","Barangay":"Bayuti","Land_Class":null,"PIN":"030-01-014-03-029","ALN":"029","Section":"03","Brgy_Code":"014","Owner":"NAVOS, CATALINO","TaxDecNo":"01-07525"},"geometry":{"type":"Polygon","coordinates":[[[121.95961683154725,13.33137709125478],[121.95981181409046,13.330928867902129],[121.95950916411938,13.330218643323315],[121.95793252714469,13.33020429488568],[121.95790717976463,13.33048778405002],[121.9584825209679,13.331388192086889],[121.9590050619043,13.33146911275938],[121.95961683154725,13.33137709125478]]]}},{"type":"Feature","properties":{"Id":0,"CLN":"19695","PSGC":"174001013","Barangay":"Bayuti","Land_Class":null,"PIN":"030-01-014-03-025","ALN":"025","Section":"03","Brgy_Code":"014","Owner":"NAVOS, FELIX","TaxDecNo":"01-07521"},"geometry":{"type":"Polygon","coordinates":[[[121.95583217496163,13.332052875545848],[121.9560354730972,13.331748380518022],[121.9569060627595,13.332063201716778],[121.9572299234881,13.331987726702515],[121.9574271679899,13.331746226260876],[121.9581271558716,13.331717591704619],[121.9584825209679,13.331388192086923],[121.95790717976463,13.33048778405002],[121.95793252714469,13.330204294885698],[121.95802270055728,13.329810785668101],[121.9577575786471,13.329730920805138],[121.95713641801592,13.330138003052658],[121.95585975186637,13.32958132112461],[121.95524494170667,13.33038230393769],[121.95561304903265,13.330832841903957],[121.95551469173529,13.331257826582917],[121.95463632317534,13.331614927466653],[121.95488782010491,13.332787510109197],[121.9556932841195,13.332081844759815],[121.95583217496163,13.332052875545848]]]}},{"type":"Feature","properties":{"Id":0,"CLN":"19696","PSGC":"174001013","Barangay":"Bayuti","Land_Class":null,"PIN":"030-01-014-03-024","ALN":"024","Section":"03","Brgy_Code":"014","Owner":"REPUBLIC OF THE PHILIPPINES","TaxDecNo":"01-07520"},"geometry":{"type":"Polygon","coordinates":[[[121.95388397948545,13.331920777155839],[121.95463632317534,13.33161492746664],[121.95551469173529,13.331257826582899],[121.95561304903265,13.330832841903957],[121.95524494170667,13.330382303937675],[121.95585975186637,13.329581321124593],[121.952104565706,13.329384979472211],[121.95388397948545,13.331920777155839]]]}},{"type":"Feature","properties":{"Id":0,"CLN":"19697","PSGC":"174001013","Barangay":"Bayuti","Land_Class":null,"PIN":"030-01-014-03-030","ALN":"030","Section":"03","Brgy_Code":"014","Owner":"REPUBLIC OF THE PHILIPPINES","TaxDecNo":"01-07526"},"geometry":{"type":"Polygon","coordinates":[[[121.95793252714469,13.33020429488568],[121.95950916411938,13.330218643323315],[121.95907908427962,13.328741467371545],[121.95603292889781,13.328749959514353],[121.95585975186637,13.329581321124593],[121.95713641801586,13.330138003052658],[121.9577575786471,13.329730920805105],[121.95802270055728,13.329810785668123],[121.95793252714469,13.33020429488568]]]}},{"type":"Feature","properties":{"Id":0,"CLN":"19698","PSGC":"174001013","Barangay":"Bayuti","Land_Class":null,"PIN":"030-01-014-03-031","ALN":"031","Section":"03","Brgy_Code":"014","Owner":"REPUBLIC OF THE PHILIPPINES","TaxDecNo":"01-07527"},"geometry":{"type":"Polygon","coordinates":[[[121.95603292889781,13.328749959514353],[121.95907908427962,13.328741467371545],[121.9587321961147,13.327091000999106],[121.95684324570544,13.32737733980036],[121.95603292889781,13.328749959514353]]]}},{"type":"Feature","properties":{"Id":0,"CLN":"19727","PSGC":"174001013","Barangay":"Bayuti","Land_Class":null,"PIN":"030-01-014-01-004","ALN":"004","Section":"01","Brgy_Code":"014","Owner":"REPUBLIC OF THE PHILIPPINES","TaxDecNo":"01-07447"},"geometry":{"type":"Polygon","coordinates":[[[121.95584078342932,13.349542505713552],[121.95822034415045,13.348078945734011],[121.95727123563307,13.346783118893724],[121.95573275973011,13.347848134261797],[121.95485739207857,13.348981554645151],[121.95497621066127,13.34906160137091],[121.95513701471134,13.349454744016805],[121.95526065700156,13.349672708718888],[121.95555359950572,13.349567840927374],[121.95584078342932,13.349542505713552]]]}},{"type":"Feature","properties":{"Id":0,"CLN":"19731","PSGC":"174001013","Barangay":"Bayuti","Land_Class":null,"PIN":"030-01-014-01-002","ALN":"002","Section":"01","Brgy_Code":"014","Owner":"REPUBLIC OF THE PHILIPPINES","TaxDecNo":"01-07445"},"geometry":{"type":"Polygon","coordinates":[[[121.95789433442656,13.350643539066374],[121.95787619653281,13.351083678224352],[121.95778297903213,13.351348483758782],[121.95765744460978,13.351570726035895],[121.95870175332,13.351824298403006],[121.95907025510645,13.351783382586884],[121.96062700629822,13.351270003607338],[121.95963499882559,13.349615068943475],[121.95789433442656,13.350643539066374]]]}},{"type":"Feature","properties":{"Id":0,"CLN":"19732","PSGC":"174001013","Barangay":"Bayuti","Land_Class":null,"PIN":"030-01-014-01-001","ALN":"001","Section":"01","Brgy_Code":"014","Owner":"REPUBLIC OF THE PHILIPPINES","TaxDecNo":"01-07444"},"geometry":{"type":"Polygon","coordinates":[[[121.95907025510645,13.351783382586884],[121.95897662937111,13.352143655007419],[121.95840198246701,13.352257976045886],[121.95820667075255,13.352331425820712],[121.9582542134059,13.35261272168956],[121.9587181211964,13.353060146641399],[121.95871684777714,13.353357153122188],[121.95898150624099,13.353533265718381],[121.95948578689874,13.353408046961501],[121.95959823843398,13.353710824428871],[121.9601670404953,13.353697248763243],[121.96061330564001,13.353205828517401],[121.96131924311123,13.352789725211883],[121.96120706191775,13.352423304061087],[121.96070969830717,13.352198505094686],[121.96067849302158,13.351896061377596],[121.96062700629822,13.351270003607338],[121.95907025510645,13.351783382586884]]]}},{"type":"Feature","properties":{"Id":0,"CLN":"19758","PSGC":"174001013","Barangay":"Bayuti","Land_Class":null,"PIN":"030-01-014-04-001","ALN":"001","Section":"04","Brgy_Code":"014","Owner":"MALVAR, EMPERATRIZ & LAZARTE, JUSTINO","TaxDecNo":"01-07529"},"geometry":{"type":"Polygon","coordinates":[[[121.94583705949502,13.333215985598061],[121.94754295239147,13.33310753169433],[121.95004937629226,13.333905675873735],[121.95139297447047,13.333145302483198],[121.95361245955807,13.33192556551127],[121.95388397948548,13.331920777155837],[121.95210456570602,13.329384979472223],[121.95585975186637,13.32958132112461],[121.95603292889781,13.328749959514353],[121.95684324570549,13.327377339800373],[121.9587321961147,13.327091000999138],[121.95808329284543,13.315301896624932],[121.95803939493192,13.311755400462458],[121.9213696841456,13.352819199194704],[121.93191320902768,13.353496856070906],[121.93768612856826,13.350526886765278],[121.93854002971885,13.350144443407887],[121.943077816747,13.34939213049633],[121.9430799722473,13.34858645140378],[121.94352802597756,13.348320119404656],[121.94258324533489,13.347743087080278],[121.94209359992763,13.344026780485022],[121.94206715971066,13.34085989588779],[121.94183206363446,13.339425200872665],[121.94203807779535,13.338299570940837],[121.94192160705892,13.335794023824404],[121.94165114510393,13.333860269343221],[121.94352961231549,13.333531991332123],[121.94583705949502,13.333215985598061]]]}},{"type":"Feature","properties":{"Id":0,"CLN":"19653","PSGC":"174001013","Barangay":"Bayuti","Land_Class":null,"PIN":"030-01-014-02-001","ALN":"001","Section":"02","Brgy_Code":"014","Owner":"LOTO, DOMINGO","TaxDecNo":"01-07451"},"geometry":{"type":"Polygon","coordinates":[[[121.94461656708785,13.348988813458602],[121.94407752505388,13.349454566133245],[121.94425972170319,13.350234987575156],[121.94518772588286,13.35022126650498],[121.94562151124957,13.349589962725299],[121.94461656708785,13.348988813458602]]]}},{"type":"Feature","properties":{"Id":0,"CLN":"19752","PSGC":"174001013","Barangay":"Bayuti","Land_Class":null,"PIN":"030-01-014-02-002","ALN":"002","Section":"02","Brgy_Code":"014","Owner":"LARA, MANUEL","TaxDecNo":"01-07452"},"geometry":{"type":"Polygon","coordinates":[[[121.94407752505388,13.349454566133245],[121.94461656708785,13.348988813458602],[121.94352802597756,13.348320119404656],[121.9430799722473,13.34858645140378],[121.94307781674698,13.34939213049633],[121.94331159597412,13.349369303280723],[121.94407752505388,13.349454566133245]]]}}]}