{
"type": "FeatureCollection",
"name": "Maligaya",
"crs": { "type": "name", "properties": { "name": "urn:ogc:def:crs:OGC:1.3:CRS84" } },
"features": [
{ "type": "Feature", "properties": { "Id": 0, "CLN": "8532", "PSGC": "174001019", "Barangay": "Maligaya", "Land_Class": null, "Area": 0.0, "PIN": "030-01-035-01-099" }, "geometry": { "type": "Polygon", "coordinates": [ [ [ 121.840384680211542, 13.475386985176383 ], [ 121.840485276573389, 13.475734187626538 ], [ 121.840653675476418, 13.475666942138639 ], [ 121.840574876865418, 13.475317174562434 ], [ 121.840384680211542, 13.475386985176383 ] ] ] } },
{ "type": "Feature", "properties": { "Id": 0, "CLN": "8532", "PSGC": "174001019", "Barangay": "Maligaya", "Land_Class": null, "Area": 0.0, "PIN": "030-01-035-01-099" }, "geometry": { "type": "Polygon", "coordinates": [ [ [ 121.840485276573389, 13.475734187626538 ], [ 121.840560642076213, 13.476020012722946 ], [ 121.840925639308466, 13.475863638670965 ], [ 121.840905184237997, 13.475829914759521 ], [ 121.841115439428961, 13.475696366900037 ], [ 121.841017734928428, 13.475490890843744 ], [ 121.840653675476418, 13.475666942138639 ], [ 121.840485276573389, 13.475734187626538 ] ] ] } },
{ "type": "Feature", "properties": { "Id": 0, "CLN": "8535", "PSGC": "174001019", "Barangay": "Maligaya", "Land_Class": null, "Area": 0.0, "PIN": "030-01-035-01-100" }, "geometry": { "type": "Polygon", "coordinates": [ [ [ 121.840560642076213, 13.476020012722946 ], [ 121.840573734446309, 13.476244550143845 ], [ 121.841015510211122, 13.476021481560553 ], [ 121.840925639308466, 13.475863638670965 ], [ 121.840560642076213, 13.476020012722946 ] ] ] } },
{ "type": "Feature", "properties": { "Id": 0, "CLN": "8534", "PSGC": "174001019", "Barangay": "Maligaya", "Land_Class": null, "Area": 0.0, "PIN": "030-01-035-01-101" }, "geometry": { "type": "Polygon", "coordinates": [ [ [ 121.841015510211122, 13.476021481560553 ], [ 121.841234214376684, 13.475961957538614 ], [ 121.841115439428961, 13.475696366900037 ], [ 121.840905184237997, 13.475829914759521 ], [ 121.840925639308466, 13.475863638670965 ], [ 121.841015510211122, 13.476021481560553 ] ] ] } },
{ "type": "Feature", "properties": { "Id": 0, "CLN": "8530", "PSGC": "174001019", "Barangay": "Maligaya", "Land_Class": null, "Area": 0.0, "PIN": "030-01-035-01-167" }, "geometry": { "type": "Polygon", "coordinates": [ [ [ 121.840058518177017, 13.474568282441236 ], [ 121.839607199558557, 13.475010504768434 ], [ 121.839759283372345, 13.475454699442771 ], [ 121.84022720326071, 13.475332431287628 ], [ 121.840058518177017, 13.474568282441236 ] ] ] } },
{ "type": "Feature", "properties": { "Id": 0, "CLN": "wlng naklagay", "PSGC": "174001019", "Barangay": "Maligaya", "Land_Class": null, "Area": null, "PIN": null }, "geometry": { "type": "Polygon", "coordinates": [ [ [ 121.840089793524271, 13.474484848444536 ], [ 121.840042281027337, 13.474494727418691 ], [ 121.84022720326071, 13.475332431287613 ], [ 121.840261597436935, 13.47532586419503 ], [ 121.840089793524271, 13.474484848444536 ] ] ] } },
{ "type": "Feature", "properties": { "Id": 0, "CLN": "wlng naklagay", "PSGC": "174001019", "Barangay": "Maligaya", "Land_Class": null, "Area": null, "PIN": null }, "geometry": { "type": "Polygon", "coordinates": [ [ [ 121.840345422148445, 13.475396902303437 ], [ 121.840573734446309, 13.476244550143845 ], [ 121.840560642076213, 13.476020012722946 ], [ 121.840485276573389, 13.475734187626538 ], [ 121.840384680211542, 13.475386985176383 ], [ 121.840345422148445, 13.475396902303437 ] ] ] } },
{ "type": "Feature", "properties": { "Id": 0, "CLN": "8537", "PSGC": "174001019", "Barangay": "Maligaya", "Land_Class": null, "Area": 0.0, "PIN": "030-01-035-01-161" }, "geometry": { "type": "Polygon", "coordinates": [ [ [ 121.840573734446309, 13.476244550143845 ], [ 121.840626642928328, 13.476822941708139 ], [ 121.840991507091459, 13.47716988875673 ], [ 121.841585690381848, 13.477468569933786 ], [ 121.841234214376684, 13.475961957538614 ], [ 121.841015510211122, 13.476021481560588 ], [ 121.840573734446309, 13.476244550143845 ] ] ] } },
{ "type": "Feature", "properties": { "Id": 0, "CLN": "8538", "PSGC": "174001019", "Barangay": "Maligaya", "Land_Class": null, "Area": 0.0, "PIN": "030-01-035-01-102" }, "geometry": { "type": "Polygon", "coordinates": [ [ [ 121.84193398740922, 13.475497136714058 ], [ 121.84160128206311, 13.475590527278742 ], [ 121.841508942803131, 13.475481038888663 ], [ 121.841424994405031, 13.47534331371064 ], [ 121.841017734928428, 13.475490890843767 ], [ 121.841115439428961, 13.475696366900037 ], [ 121.841234214376684, 13.475961957538614 ], [ 121.841585690381848, 13.477468569933786 ], [ 121.84193398740922, 13.475497136714058 ] ] ] } },
{ "type": "Feature", "properties": { "Id": 0, "CLN": "wlng naklagay", "PSGC": "174001019", "Barangay": "Maligaya", "Land_Class": null, "Area": null, "PIN": null }, "geometry": { "type": "Polygon", "coordinates": [ [ [ 121.840261597436964, 13.475325864195067 ], [ 121.84022720326071, 13.475332431287628 ], [ 121.840422783861897, 13.476342219576585 ], [ 121.840459631075092, 13.476302034284618 ], [ 121.840261597436964, 13.475325864195067 ] ] ] } },
{ "type": "Feature", "properties": { "Id": 0, "CLN": "8528", "PSGC": "174001019", "Barangay": "Maligaya", "Land_Class": null, "Area": 0.0, "PIN": "030-01-035-01-095" }, "geometry": { "type": "Polygon", "coordinates": [ [ [ 121.840422783861897, 13.476342219576585 ], [ 121.84022720326071, 13.475332431287628 ], [ 121.839759283372345, 13.475454699442771 ], [ 121.839951831881208, 13.476142751689766 ], [ 121.839949280370476, 13.4766718440888 ], [ 121.840109700960483, 13.476659133207441 ], [ 121.840462613260868, 13.476633859203563 ], [ 121.840422783861897, 13.476342219576585 ] ] ] } },
{ "type": "Feature", "properties": { "Id": 0, "CLN": "8527", "PSGC": "174001019", "Barangay": "Maligaya", "Land_Class": null, "Area": 0.0, "PIN": "030-01-035-01-096" }, "geometry": { "type": "Polygon", "coordinates": [ [ [ 121.839582009004971, 13.474936929995273 ], [ 121.83972439306801, 13.476751516049383 ], [ 121.839949280370476, 13.4766718440888 ], [ 121.839951831881208, 13.476142751689766 ], [ 121.839759283372345, 13.475454699442771 ], [ 121.839582009004971, 13.474936929995273 ] ] ] } },
{ "type": "Feature", "properties": { "Id": 0, "CLN": "8526", "PSGC": "174001019", "Barangay": "Maligaya", "Land_Class": null, "Area": 0.0, "PIN": "030-01-035-01-097" }, "geometry": { "type": "Polygon", "coordinates": [ [ [ 121.83972439306801, 13.476751516049383 ], [ 121.839582009004971, 13.474936929995273 ], [ 121.839150801823692, 13.475342911773449 ], [ 121.839280173282631, 13.476709108032859 ], [ 121.839550206005654, 13.476768647002897 ], [ 121.83972439306801, 13.476751516049383 ] ] ] } },
{ "type": "Feature", "properties": { "Id": 0, "CLN": "8521", "PSGC": "174001019", "Barangay": "Maligaya", "Land_Class": null, "Area": 0.0, "PIN": "030-01-035-01-087" }, "geometry": { "type": "Polygon", "coordinates": [ [ [ 121.839280173282631, 13.476709108032859 ], [ 121.839150801823692, 13.475342911773449 ], [ 121.838528258451916, 13.475626827521078 ], [ 121.838492602438521, 13.475660710853797 ], [ 121.838674133600023, 13.476020264834112 ], [ 121.838762756505133, 13.476643941155015 ], [ 121.839280173282631, 13.476709108032859 ] ] ] } },
{ "type": "Feature", "properties": { "Id": 0, "CLN": "8620", "PSGC": "174001019", "Barangay": "Maligaya", "Land_Class": null, "Area": 0.0, "PIN": "030-01-052-02-018" }, "geometry": { "type": "Polygon", "coordinates": [ [ [ 121.838762756505133, 13.476643941155015 ], [ 121.838674133600023, 13.476020264834112 ], [ 121.838492602438521, 13.475660710853797 ], [ 121.837973368906972, 13.475972184348144 ], [ 121.838102639494082, 13.476717114967002 ], [ 121.838762756505133, 13.476643941155015 ] ] ] } },
{ "type": "Feature", "properties": { "Id": 0, "CLN": "8477", "PSGC": "174001019", "Barangay": "Maligaya", "Land_Class": null, "Area": 0.0, "PIN": "030-01-035-01-104" }, "geometry": { "type": "Polygon", "coordinates": [ [ [ 121.840991507091459, 13.47716988875673 ], [ 121.840626642928328, 13.476822941708139 ], [ 121.840715422348183, 13.477415230891538 ], [ 121.840741129151439, 13.477785274150516 ], [ 121.840895758648855, 13.47778598789267 ], [ 121.840950287386292, 13.477546757695153 ], [ 121.840991507091459, 13.47716988875673 ] ] ] } },
{ "type": "Feature", "properties": { "Id": 0, "CLN": "8478", "PSGC": "174001019", "Barangay": "Maligaya", "Land_Class": null, "Area": 0.0, "PIN": "030-01-035-01-094" }, "geometry": { "type": "Polygon", "coordinates": [ [ [ 121.840462613260868, 13.476633859203563 ], [ 121.840109700960483, 13.476659133207441 ], [ 121.840171739784822, 13.477570779265349 ], [ 121.840566871221412, 13.477579329702973 ], [ 121.840462613260868, 13.476633859203563 ] ] ] } },
{ "type": "Feature", "properties": { "Id": 0, "CLN": "8479", "PSGC": "174001019", "Barangay": "Maligaya", "Land_Class": null, "Area": 0.0, "PIN": "030-01-035-01-093" }, "geometry": { "type": "Polygon", "coordinates": [ [ [ 121.840566871221412, 13.477579329702973 ], [ 121.840171739784822, 13.477570779265349 ], [ 121.840148852275476, 13.478041486587133 ], [ 121.840616793381116, 13.477915855245685 ], [ 121.840566871221412, 13.477579329702973 ] ] ] } },
{ "type": "Feature", "properties": { "Id": 0, "CLN": "8481", "PSGC": "174001019", "Barangay": "Maligaya", "Land_Class": null, "Area": 0.0, "PIN": "030-01-035-01-092" }, "geometry": { "type": "Polygon", "coordinates": [ [ [ 121.840148852275476, 13.478041486587133 ], [ 121.840171739784822, 13.477570779265349 ], [ 121.840109700960483, 13.476659133207441 ], [ 121.839949280370476, 13.4766718440888 ], [ 121.83972439306801, 13.476751516049383 ], [ 121.839713361605391, 13.477851149683685 ], [ 121.839769652128311, 13.478291956164725 ], [ 121.840003623052212, 13.478229140990434 ], [ 121.840210039281544, 13.478179650132891 ], [ 121.840148852275476, 13.478041486587133 ] ] ] } },
{ "type": "Feature", "properties": { "Id": 0, "CLN": "8525", "PSGC": "174001019", "Barangay": "Maligaya", "Land_Class": null, "Area": 0.0, "PIN": "030-01-035-01-091" }, "geometry": { "type": "Polygon", "coordinates": [ [ [ 121.839550206005654, 13.476768647002903 ], [ 121.839525929561262, 13.477291988870391 ], [ 121.839517670691151, 13.477470029286843 ], [ 121.839503690189446, 13.477771412499632 ], [ 121.839330389719009, 13.477770560843881 ], [ 121.839343399498375, 13.477878445533799 ], [ 121.8394709175043, 13.477883601470831 ], [ 121.839501867335755, 13.477884852855958 ], [ 121.839500349004851, 13.477843439524241 ], [ 121.839713361605391, 13.477851149683692 ], [ 121.83972439306801, 13.476751516049379 ], [ 121.839550206005654, 13.476768647002903 ] ] ] } },
{ "type": "Feature", "properties": { "Id": 0, "CLN": "8523", "PSGC": "174001019", "Barangay": "Maligaya", "Land_Class": null, "Area": 0.0, "PIN": "030-01-035-01-089" }, "geometry": { "type": "Polygon", "coordinates": [ [ [ 121.83952592956129, 13.477291988870396 ], [ 121.839550206005654, 13.476768647002897 ], [ 121.839280173282631, 13.476709108032859 ], [ 121.839222279932258, 13.477075401952851 ], [ 121.83921446628321, 13.47727041690024 ], [ 121.83952592956129, 13.477291988870396 ] ] ] } },
{ "type": "Feature", "properties": { "Id": 0, "CLN": "8524", "PSGC": "174001019", "Barangay": "Maligaya", "Land_Class": null, "Area": 0.0, "PIN": "030-01-035-01-090" }, "geometry": { "type": "Polygon", "coordinates": [ [ [ 121.83921446628321, 13.47727041690024 ], [ 121.8392031839456, 13.477472141709264 ], [ 121.839517670691151, 13.477470029286843 ], [ 121.83952592956129, 13.477291988870396 ], [ 121.83921446628321, 13.47727041690024 ] ] ] } },
{ "type": "Feature", "properties": { "Id": 0, "CLN": "8522", "PSGC": "174001019", "Barangay": "Maligaya", "Land_Class": null, "Area": 0.0, "PIN": "030-01-035-01-088" }, "geometry": { "type": "Polygon", "coordinates": [ [ [ 121.838762756505133, 13.476643941155015 ], [ 121.838792852502351, 13.477053239098419 ], [ 121.838978423438775, 13.477050734097165 ], [ 121.839222279932258, 13.477075401952851 ], [ 121.839280173282631, 13.476709108032859 ], [ 121.838762756505133, 13.476643941155015 ] ] ] } },
{ "type": "Feature", "properties": { "Id": 0, "CLN": "8517pt.", "PSGC": "174001019", "Barangay": "Maligaya", "Land_Class": null, "Area": 0.0, "PIN": "030-01-035-01-131" }, "geometry": { "type": "Polygon", "coordinates": [ [ [ 121.839343399498375, 13.477878445533793 ], [ 121.839342787919321, 13.478005183858356 ], [ 121.839472326685097, 13.477998215886998 ], [ 121.8394709175043, 13.477883601470833 ], [ 121.839343399498375, 13.477878445533793 ] ] ] } },
{ "type": "Feature", "properties": { "Id": 0, "CLN": "8518", "PSGC": "174001019", "Barangay": "Maligaya", "Land_Class": null, "Area": 0.0, "PIN": "030-01-035-01-084" }, "geometry": { "type": "Polygon", "coordinates": [ [ [ 121.838792852502351, 13.477053239098419 ], [ 121.838775254956559, 13.477851227520368 ], [ 121.838987888689033, 13.477848427327022 ], [ 121.838978423438775, 13.477050734097165 ], [ 121.838792852502351, 13.477053239098419 ] ] ] } },
{ "type": "Feature", "properties": { "Id": 0, "CLN": "8517", "PSGC": "174001019", "Barangay": "Maligaya", "Land_Class": null, "Area": 0.0, "PIN": "030-01-035-01-083" }, "geometry": { "type": "Polygon", "coordinates": [ [ [ 121.838775254956559, 13.477851227520368 ], [ 121.838771062562742, 13.478200604487418 ], [ 121.838920550072203, 13.478198773477725 ], [ 121.838923942977516, 13.478029800988027 ], [ 121.839052800939129, 13.478030396722643 ], [ 121.839054562446421, 13.478199393049776 ], [ 121.839183408332232, 13.478202510880259 ], [ 121.839197194897579, 13.47801593093358 ], [ 121.839342787919321, 13.478005183858356 ], [ 121.839343399498375, 13.477878445533793 ], [ 121.839330389719009, 13.477770560843876 ], [ 121.839503690189446, 13.477771412499623 ], [ 121.839517670691151, 13.477470029286843 ], [ 121.8392031839456, 13.477472141709264 ], [ 121.83921446628321, 13.47727041690024 ], [ 121.839222279932258, 13.477075401952851 ], [ 121.838978423438775, 13.477050734097165 ], [ 121.838987888689033, 13.477848427327022 ], [ 121.838775254956559, 13.477851227520368 ] ] ] } },
{ "type": "Feature", "properties": { "Id": 0, "CLN": "8480", "PSGC": "174001019", "Barangay": "Maligaya", "Land_Class": null, "Area": 0.0, "PIN": "030-01-035-01-164" }, "geometry": { "type": "Polygon", "coordinates": [ [ [ 121.838920550072203, 13.478198773477725 ], [ 121.839054562446421, 13.478199393049776 ], [ 121.839052800939129, 13.478030396722643 ], [ 121.838923942977516, 13.478029800988027 ], [ 121.838920550072203, 13.478198773477725 ] ] ] } },
{ "type": "Feature", "properties": { "Id": 0, "CLN": "8519", "PSGC": "174001019", "Barangay": "Maligaya", "Land_Class": null, "Area": 0.0, "PIN": "030-01-035-01-085" }, "geometry": { "type": "Polygon", "coordinates": [ [ [ 121.838102639494082, 13.476717114967002 ], [ 121.8381479370194, 13.477017327534101 ], [ 121.838464792224613, 13.477046537500131 ], [ 121.838505047476062, 13.477783209402505 ], [ 121.838522636937896, 13.477876612572841 ], [ 121.838775254956559, 13.477851227520368 ], [ 121.838792852502351, 13.477053239098419 ], [ 121.838762756505133, 13.476643941155015 ], [ 121.838102639494082, 13.476717114967002 ] ] ] } },
{ "type": "Feature", "properties": { "Id": 0, "CLN": "8508", "PSGC": "174001019", "Barangay": "Maligaya", "Land_Class": null, "Area": 0.0, "PIN": "030-01-035-01-052" }, "geometry": { "type": "Polygon", "coordinates": [ [ [ 121.838102639494082, 13.476717114967002 ], [ 121.837653916911151, 13.47685109790311 ], [ 121.83772997604008, 13.477111237621063 ], [ 121.8381479370194, 13.477017327534101 ], [ 121.838102639494082, 13.476717114967002 ] ] ] } },
{ "type": "Feature", "properties": { "Id": 0, "CLN": "8510", "PSGC": "174001019", "Barangay": "Maligaya", "Land_Class": null, "Area": 0.0, "PIN": "030-01-035-01-054" }, "geometry": { "type": "Polygon", "coordinates": [ [ [ 121.837994709684779, 13.477793459608359 ], [ 121.838116707460784, 13.478147133607594 ], [ 121.838169487646425, 13.478424821005282 ], [ 121.838279263438906, 13.478107530275116 ], [ 121.838493326015779, 13.47807573169905 ], [ 121.838510501374685, 13.478254888136497 ], [ 121.838564499968513, 13.478280359995754 ], [ 121.838558432193793, 13.478469497776349 ], [ 121.838666575638314, 13.478490175611405 ], [ 121.83875932918437, 13.478495648966584 ], [ 121.838771062562742, 13.478200604487418 ], [ 121.838775254956559, 13.477851227520368 ], [ 121.838522636937896, 13.477876612572841 ], [ 121.838505047476062, 13.477783209402505 ], [ 121.837994709684779, 13.477793459608359 ] ] ] } },
{ "type": "Feature", "properties": { "Id": 0, "CLN": "8505", "PSGC": "174001019", "Barangay": "Maligaya", "Land_Class": null, "Area": 0.0, "PIN": "030-01-035-01-049" }, "geometry": { "type": "Polygon", "coordinates": [ [ [ 121.838116707460784, 13.478147133607594 ], [ 121.837767718422725, 13.478367473234872 ], [ 121.838169487646425, 13.478424821005282 ], [ 121.838116707460784, 13.478147133607594 ] ] ] } },
{ "type": "Feature", "properties": { "Id": 0, "CLN": "8571", "PSGC": "174001019", "Barangay": "Maligaya", "Land_Class": null, "Area": 0.0, "PIN": "030-01-052-01-012" }, "geometry": { "type": "Polygon", "coordinates": [ [ [ 121.838510501374685, 13.478254888136497 ], [ 121.838403388227718, 13.478554535821392 ], [ 121.838516003937002, 13.478716478235617 ], [ 121.838652666818732, 13.478701977035987 ], [ 121.838666575638314, 13.478490175611405 ], [ 121.838558432193793, 13.478469497776349 ], [ 121.838564499968513, 13.478280359995754 ], [ 121.838510501374685, 13.478254888136497 ] ] ] } },
{ "type": "Feature", "properties": { "Id": 0, "CLN": "8513", "PSGC": "174001019", "Barangay": "Maligaya", "Land_Class": null, "Area": 0.0, "PIN": "030-01-035-01-081" }, "geometry": { "type": "Polygon", "coordinates": [ [ [ 121.83875932918437, 13.478495648966584 ], [ 121.839107039394847, 13.478540134222474 ], [ 121.839151630283268, 13.478378918807264 ], [ 121.839183408332232, 13.478202510880259 ], [ 121.839054562446421, 13.478199393049776 ], [ 121.838920550072203, 13.478198773477725 ], [ 121.838771062562742, 13.478200604487418 ], [ 121.83875932918437, 13.478495648966584 ] ] ] } },
{ "type": "Feature", "properties": { "Id": 0, "CLN": "8515", "PSGC": "174001019", "Barangay": "Maligaya", "Land_Class": null, "Area": 0.0, "PIN": "030-01-035-01-079" }, "geometry": { "type": "Polygon", "coordinates": [ [ [ 121.839472326685097, 13.477998215886998 ], [ 121.839503974221429, 13.477997171091575 ], [ 121.839484133025024, 13.478370366782498 ], [ 121.83954429343035, 13.478721232264997 ], [ 121.839838504152951, 13.478636836481806 ], [ 121.839769652128311, 13.478291956164725 ], [ 121.839713361605391, 13.477851149683685 ], [ 121.839500349004851, 13.477843439524241 ], [ 121.839501867335755, 13.477884852855965 ], [ 121.8394709175043, 13.477883601470833 ], [ 121.839472326685097, 13.477998215886998 ] ] ] } },
{ "type": "Feature", "properties": { "Id": 0, "CLN": "8516", "PSGC": "174001019", "Barangay": "Maligaya", "Land_Class": null, "Area": 0.0, "PIN": "030-01-035-01-082" }, "geometry": { "type": "Polygon", "coordinates": [ [ [ 121.839151630283268, 13.478378918807264 ], [ 121.839484133025024, 13.478370366782498 ], [ 121.839503974221429, 13.477997171091575 ], [ 121.839472326685097, 13.477998215886998 ], [ 121.839342787919321, 13.478005183858356 ], [ 121.839197194897579, 13.47801593093358 ], [ 121.839183408332232, 13.478202510880259 ], [ 121.839151630283268, 13.478378918807264 ] ] ] } },
{ "type": "Feature", "properties": { "Id": 0, "CLN": "8514", "PSGC": "174001019", "Barangay": "Maligaya", "Land_Class": null, "Area": 0.0, "PIN": "030-01-035-01-080" }, "geometry": { "type": "Polygon", "coordinates": [ [ [ 121.839107039394847, 13.478540134222474 ], [ 121.839080683390421, 13.478661078538613 ], [ 121.839229647776278, 13.478767700052265 ], [ 121.839263455259825, 13.478704801030087 ], [ 121.83954429343035, 13.478721232264997 ], [ 121.839484133025024, 13.478370366782498 ], [ 121.839151630283268, 13.478378918807264 ], [ 121.839107039394847, 13.478540134222474 ] ] ] } },
{ "type": "Feature", "properties": { "Id": 0, "CLN": "8572", "PSGC": "174001019", "Barangay": "Maligaya", "Land_Class": null, "Area": 0.0, "PIN": "030-01-052-01-013" }, "geometry": { "type": "Polygon", "coordinates": [ [ [ 121.838169487646425, 13.478424821005282 ], [ 121.838053852488613, 13.478710136542446 ], [ 121.838166760427015, 13.478811547390904 ], [ 121.838323998268493, 13.478983785180937 ], [ 121.838344079601271, 13.479094855361103 ], [ 121.837724031182987, 13.479408103233151 ], [ 121.837837004275144, 13.479496062751508 ], [ 121.838959829865956, 13.478959822231339 ], [ 121.839012266088176, 13.4787751024916 ], [ 121.839080683390421, 13.478661078538613 ], [ 121.839107039394847, 13.478540134222474 ], [ 121.83875932918437, 13.478495648966584 ], [ 121.838666575638314, 13.478490175611405 ], [ 121.838652666818732, 13.478701977035987 ], [ 121.838516003937002, 13.478716478235617 ], [ 121.838403388227718, 13.478554535821392 ], [ 121.838510501374685, 13.478254888136497 ], [ 121.838493326015779, 13.47807573169905 ], [ 121.838279263438906, 13.478107530275116 ], [ 121.838169487646425, 13.478424821005282 ] ] ] } },
{ "type": "Feature", "properties": { "Id": 0, "CLN": "8500", "PSGC": "174001019", "Barangay": "Maligaya", "Land_Class": null, "Area": 0.0, "PIN": "030-01-035-01-045" }, "geometry": { "type": "Polygon", "coordinates": [ [ [ 121.837724031182987, 13.479408103233151 ], [ 121.838344079601271, 13.479094855361103 ], [ 121.838323998268493, 13.478983785180937 ], [ 121.838166760427015, 13.478811547390904 ], [ 121.837563536118708, 13.479198857588274 ], [ 121.837724031182987, 13.479408103233151 ] ] ] } },
{ "type": "Feature", "properties": { "Id": 0, "CLN": "8501", "PSGC": "174001019", "Barangay": "Maligaya", "Land_Class": null, "Area": 0.0, "PIN": "030-01-035-01-046" }, "geometry": { "type": "Polygon", "coordinates": [ [ [ 121.837563536118708, 13.479198857588274 ], [ 121.838166760427015, 13.478811547390904 ], [ 121.838053852488613, 13.478710136542446 ], [ 121.837698442850424, 13.479014519969272 ], [ 121.837405502181952, 13.479191400068588 ], [ 121.837563536118708, 13.479198857588274 ] ] ] } },
{ "type": "Feature", "properties": { "Id": 0, "CLN": "8503", "PSGC": "174001019", "Barangay": "Maligaya", "Land_Class": null, "Area": 0.0, "PIN": "030-01-035-01-047" }, "geometry": { "type": "Polygon", "coordinates": [ [ [ 121.837405502181952, 13.479191400068588 ], [ 121.837698442850424, 13.479014519969272 ], [ 121.837404992023465, 13.478586067251593 ], [ 121.83693279907267, 13.478879820002055 ], [ 121.837405502181952, 13.479191400068588 ] ] ] } },
{ "type": "Feature", "properties": { "Id": 0, "CLN": "8504", "PSGC": "174001019", "Barangay": "Maligaya", "Land_Class": null, "Area": 0.0, "PIN": "030-01-035-01-048" }, "geometry": { "type": "Polygon", "coordinates": [ [ [ 121.837404992023465, 13.478586067251593 ], [ 121.837698442850424, 13.479014519969272 ], [ 121.838053852488613, 13.478710136542446 ], [ 121.838169487646425, 13.478424821005282 ], [ 121.837767718422725, 13.478367473234872 ], [ 121.837404992023465, 13.478586067251593 ] ] ] } },
{ "type": "Feature", "properties": { "Id": 0, "CLN": "8497", "PSGC": "174001019", "Barangay": "Maligaya", "Land_Class": null, "Area": 0.0, "PIN": "030-01-035-01-056" }, "geometry": { "type": "Polygon", "coordinates": [ [ [ 121.838959829865956, 13.478959822231339 ], [ 121.839179115290719, 13.479091991027417 ], [ 121.839400186071046, 13.478854243503614 ], [ 121.839555092020163, 13.478797789263746 ], [ 121.83954429343035, 13.478721232264997 ], [ 121.839263455259825, 13.478704801030087 ], [ 121.839229647776278, 13.478767700052265 ], [ 121.839080683390421, 13.478661078538613 ], [ 121.839012266088176, 13.4787751024916 ], [ 121.838959829865956, 13.478959822231339 ] ] ] } },
{ "type": "Feature", "properties": { "Id": 0, "CLN": "8496", "PSGC": "174001019", "Barangay": "Maligaya", "Land_Class": null, "Area": 0.0, "PIN": "030-01-035-01-057" }, "geometry": { "type": "Polygon", "coordinates": [ [ [ 121.839179115290719, 13.479091991027417 ], [ 121.839387670331661, 13.479311546727425 ], [ 121.8396803016268, 13.479198558823454 ], [ 121.839555092020163, 13.478797789263746 ], [ 121.839400186071046, 13.478854243503614 ], [ 121.839179115290719, 13.479091991027417 ] ] ] } },
{ "type": "Feature", "properties": { "Id": 0, "CLN": "8495", "PSGC": "174001019", "Barangay": "Maligaya", "Land_Class": null, "Area": 0.0, "PIN": "030-01-035-01-197" }, "geometry": { "type": "Polygon", "coordinates": [ [ [ 121.83998160519954, 13.479293368850675 ], [ 121.839788924415217, 13.479399577187602 ], [ 121.839836973071741, 13.479488496375359 ], [ 121.840029937449572, 13.47937841051081 ], [ 121.83998160519954, 13.479293368850675 ] ] ] } },
{ "type": "Feature", "properties": { "Id": 0, "CLN": "8483", "PSGC": "174001019", "Barangay": "Maligaya", "Land_Class": null, "Area": 0.0, "PIN": "030-01-035-01-078" }, "geometry": { "type": "Polygon", "coordinates": [ [ [ 121.839933028022159, 13.478809624336574 ], [ 121.840057024047354, 13.478749664030019 ], [ 121.840222433072, 13.478652902475421 ], [ 121.840003623052212, 13.478229140990434 ], [ 121.839769652128311, 13.478291956164725 ], [ 121.839838504152951, 13.478636836481806 ], [ 121.839933028022159, 13.478809624336574 ] ] ] } },
{ "type": "Feature", "properties": { "Id": 0, "CLN": "8482", "PSGC": "174001019", "Barangay": "Maligaya", "Land_Class": null, "Area": 0.0, "PIN": "030-01-035-01-075" }, "geometry": { "type": "Polygon", "coordinates": [ [ [ 121.840222433072, 13.478652902475421 ], [ 121.840518758841426, 13.478486123353433 ], [ 121.840457539163353, 13.47835468561658 ], [ 121.84036801912525, 13.478391264700244 ], [ 121.840210039281544, 13.478179650132891 ], [ 121.840003623052212, 13.478229140990434 ], [ 121.840222433072, 13.478652902475421 ] ] ] } },
{ "type": "Feature", "properties": { "Id": 0, "CLN": "8480", "PSGC": "174001019", "Barangay": "Maligaya", "Land_Class": null, "Area": 0.0, "PIN": "030-01-035-01-077" }, "geometry": { "type": "Polygon", "coordinates": [ [ [ 121.840616793381116, 13.477915855245685 ], [ 121.840148852275476, 13.478041486587133 ], [ 121.840210039281544, 13.478179650132891 ], [ 121.84036801912525, 13.478391264700244 ], [ 121.840457539163353, 13.47835468561658 ], [ 121.840657455826602, 13.47822781651737 ], [ 121.840616793381116, 13.477915855245685 ] ] ] } },
{ "type": "Feature", "properties": { "Id": 0, "CLN": "8484", "PSGC": "174001019", "Barangay": "Maligaya", "Land_Class": null, "Area": 0.0, "PIN": "030-01-035-01-076" }, "geometry": { "type": "Polygon", "coordinates": [ [ [ 121.840518758841426, 13.478486123353438 ], [ 121.840617469027649, 13.478681630230168 ], [ 121.840675677214136, 13.478787510649637 ], [ 121.840743507084099, 13.478910892742384 ], [ 121.840657455826602, 13.478227816517364 ], [ 121.840457539163339, 13.478354685616575 ], [ 121.840518758841426, 13.478486123353438 ] ] ] } },
{ "type": "Feature", "properties": { "Id": 0, "CLN": "8485", "PSGC": "174001019", "Barangay": "Maligaya", "Land_Class": null, "Area": 0.0, "PIN": "030-01-035-01-074" }, "geometry": { "type": "Polygon", "coordinates": [ [ [ 121.840222433072, 13.478652902475421 ], [ 121.840269190611679, 13.478754847659209 ], [ 121.840343381242363, 13.47886868985089 ], [ 121.840617469027649, 13.478681630230181 ], [ 121.840518758841426, 13.478486123353433 ], [ 121.840222433072, 13.478652902475421 ] ] ] } },
{ "type": "Feature", "properties": { "Id": 0, "CLN": "8486", "PSGC": "174001019", "Barangay": "Maligaya", "Land_Class": null, "Area": 0.0, "PIN": "030-01-035-01-073" }, "geometry": { "type": "Polygon", "coordinates": [ [ [ 121.840057024047354, 13.478749664030019 ], [ 121.840106439789153, 13.478834806768852 ], [ 121.840269190611679, 13.478754847659209 ], [ 121.840222433072, 13.478652902475421 ], [ 121.840057024047354, 13.478749664030019 ] ] ] } },
{ "type": "Feature", "properties": { "Id": 0, "CLN": "8487", "PSGC": "174001019", "Barangay": "Maligaya", "Land_Class": null, "Area": 0.0, "PIN": "030-01-035-01-072" }, "geometry": { "type": "Polygon", "coordinates": [ [ [ 121.840106439789153, 13.478834806768852 ], [ 121.840057024047354, 13.478749664030019 ], [ 121.839933028022159, 13.478809624336574 ], [ 121.840072729271881, 13.479055765007821 ], [ 121.840221694808562, 13.478984149640514 ], [ 121.840106439789153, 13.478834806768852 ] ] ] } },
{ "type": "Feature", "properties": { "Id": 0, "CLN": "8489", "PSGC": "174001019", "Barangay": "Maligaya", "Land_Class": null, "Area": 0.0, "PIN": "030-01-035-01-071" }, "geometry": { "type": "Polygon", "coordinates": [ [ [ 121.840515893530636, 13.478902275228501 ], [ 121.840598593981568, 13.478854735031348 ], [ 121.840659935422778, 13.478960951178404 ], [ 121.840743507084099, 13.478910892742391 ], [ 121.840675677214136, 13.478787510649639 ], [ 121.840617469027649, 13.478681630230181 ], [ 121.840343381242363, 13.47886868985089 ], [ 121.840269190611679, 13.478754847659209 ], [ 121.840106439789153, 13.478834806768852 ], [ 121.840221694808562, 13.478984149640514 ], [ 121.840283109075344, 13.479075232929826 ], [ 121.840337387777382, 13.479042694839574 ], [ 121.840409816107368, 13.478987540635567 ], [ 121.840515893530636, 13.478902275228501 ] ] ] } },
{ "type": "Feature", "properties": { "Id": 0, "CLN": "8488", "PSGC": "174001019", "Barangay": "Maligaya", "Land_Class": null, "Area": 0.0, "PIN": "030-01-035-01-070" }, "geometry": { "type": "Polygon", "coordinates": [ [ [ 121.840158099796326, 13.479167136681522 ], [ 121.840252024906519, 13.479107878132076 ], [ 121.840283109075344, 13.479075232929826 ], [ 121.840221694808562, 13.478984149640514 ], [ 121.840072729271881, 13.479055765007821 ], [ 121.840158099796326, 13.479167136681522 ] ] ] } },
{ "type": "Feature", "properties": { "Id": 0, "CLN": "8493", "PSGC": "174001019", "Barangay": "Maligaya", "Land_Class": null, "Area": 0.0, "PIN": "030-01-035-01-065" }, "geometry": { "type": "Polygon", "coordinates": [ [ [ 121.840222901658976, 13.479268324482705 ], [ 121.840313402727858, 13.479206527885539 ], [ 121.840252024906519, 13.479107878132076 ], [ 121.840158099796326, 13.479167136681522 ], [ 121.840222901658976, 13.479268324482705 ] ] ] } },
{ "type": "Feature", "properties": { "Id": 0, "CLN": "8491", "PSGC": "174001019", "Barangay": "Maligaya", "Land_Class": null, "Area": 0.0, "PIN": "030-01-035-01-066" }, "geometry": { "type": "Polygon", "coordinates": [ [ [ 121.840313402727858, 13.479206527885539 ], [ 121.84040130631125, 13.47914892294463 ], [ 121.840337387777382, 13.479042694839574 ], [ 121.840283109075344, 13.479075232929826 ], [ 121.840252024906519, 13.479107878132076 ], [ 121.840313402727858, 13.479206527885539 ] ] ] } },
{ "type": "Feature", "properties": { "Id": 0, "CLN": "8490", "PSGC": "174001019", "Barangay": "Maligaya", "Land_Class": null, "Area": 0.0, "PIN": "030-01-035-01-067" }, "geometry": { "type": "Polygon", "coordinates": [ [ [ 121.84040130631125, 13.47914892294463 ], [ 121.840463377333961, 13.479103809748242 ], [ 121.840409816107368, 13.478987540635567 ], [ 121.840337387777382, 13.479042694839574 ], [ 121.84040130631125, 13.47914892294463 ] ] ] } },
{ "type": "Feature", "properties": { "Id": 0, "CLN": "8491", "PSGC": "174001019", "Barangay": "Maligaya", "Land_Class": null, "Area": 0.0, "PIN": "030-01-035-01-066" }, "geometry": { "type": "Polygon", "coordinates": [ [ [ 121.840463377333961, 13.479103809748242 ], [ 121.840502168671733, 13.479076244530836 ], [ 121.840566828988045, 13.479028621048991 ], [ 121.840515893530636, 13.478902275228501 ], [ 121.840409816107368, 13.478987540635567 ], [ 121.840463377333961, 13.479103809748242 ] ] ] } },
{ "type": "Feature", "properties": { "Id": 0, "CLN": "8492", "PSGC": "174001019", "Barangay": "Maligaya", "Land_Class": null, "Area": 0.0, "PIN": "030-01-035-01-069" }, "geometry": { "type": "Polygon", "coordinates": [ [ [ 121.840566828988045, 13.479028621048991 ], [ 121.840659935422778, 13.478960951178404 ], [ 121.840598593981568, 13.478854735031348 ], [ 121.840515893530636, 13.478902275228501 ], [ 121.840566828988045, 13.479028621048991 ] ] ] } },
{ "type": "Feature", "properties": { "Id": 0, "CLN": "8457", "PSGC": "174001019", "Barangay": "Maligaya", "Land_Class": null, "Area": 0.0, "PIN": "030-01-035-01-059" }, "geometry": { "type": "Polygon", "coordinates": [ [ [ 121.839836973071741, 13.479488496375359 ], [ 121.839716068069166, 13.479619933491357 ], [ 121.840047015447027, 13.47993421682243 ], [ 121.840233363064144, 13.47977113379995 ], [ 121.840123018772786, 13.479672257841994 ], [ 121.840360946135945, 13.479501846313298 ], [ 121.840294486851349, 13.479388039823437 ], [ 121.840501402609675, 13.479235140390962 ], [ 121.84055572996084, 13.479192513628236 ], [ 121.840502168671733, 13.479076244530836 ], [ 121.840463377333961, 13.479103809748242 ], [ 121.84040130631125, 13.47914892294463 ], [ 121.840313402727858, 13.479206527885539 ], [ 121.840222901658976, 13.479268324482705 ], [ 121.839836973071741, 13.479488496375359 ] ] ] } },
{ "type": "Feature", "properties": { "Id": 0, "CLN": "8460", "PSGC": "174001019", "Barangay": "Maligaya", "Land_Class": null, "Area": 0.0, "PIN": "030-01-035-01-125" }, "geometry": { "type": "Polygon", "coordinates": [ [ [ 121.84055572996084, 13.479192513628236 ], [ 121.840767666010649, 13.479067381470214 ], [ 121.840743507084099, 13.478910892742391 ], [ 121.840659935422778, 13.478960951178404 ], [ 121.840566828988045, 13.479028621048991 ], [ 121.840502168671733, 13.479076244530836 ], [ 121.84055572996084, 13.479192513628236 ] ] ] } },
{ "type": "Feature", "properties": { "Id": 0, "CLN": "8458", "PSGC": "174001019", "Barangay": "Maligaya", "Land_Class": null, "Area": 0.0, "PIN": "030-01-035-01-063" }, "geometry": { "type": "Polygon", "coordinates": [ [ [ 121.840360946135945, 13.479501846313298 ], [ 121.840598873170634, 13.479331434529584 ], [ 121.840501402609675, 13.479235140390962 ], [ 121.840294486851349, 13.479388039823437 ], [ 121.840360946135945, 13.479501846313298 ] ] ] } },
{ "type": "Feature", "properties": { "Id": 0, "CLN": "8459", "PSGC": "174001019", "Barangay": "Maligaya", "Land_Class": null, "Area": 0.0, "PIN": "030-01-035-01-064" }, "geometry": { "type": "Polygon", "coordinates": [ [ [ 121.840598873170634, 13.479331434529584 ], [ 121.840782411793938, 13.479216260102836 ], [ 121.840767666010649, 13.479067381470214 ], [ 121.84055572996084, 13.479192513628236 ], [ 121.840501402609675, 13.479235140390962 ], [ 121.840598873170634, 13.479331434529584 ] ] ] } },
{ "type": "Feature", "properties": { "Id": 0, "CLN": "8506", "PSGC": "174001019", "Barangay": "Maligaya", "Land_Class": null, "Area": 0.0, "PIN": "030-01-035-01-050" }, "geometry": { "type": "Polygon", "coordinates": [ [ [ 121.83693279907267, 13.478879820002055 ], [ 121.837404992023465, 13.478586067251593 ], [ 121.837767718422725, 13.478367473234872 ], [ 121.838116707460784, 13.478147133607594 ], [ 121.837994709684779, 13.477793459608359 ], [ 121.837941137749468, 13.477679712231911 ], [ 121.837022281525051, 13.478258930044573 ], [ 121.836926761391652, 13.47811500194055 ], [ 121.836425781940676, 13.478440007943091 ], [ 121.83693279907267, 13.478879820002055 ] ] ] } },
{ "type": "Feature", "properties": { "Id": 0, "CLN": "8507", "PSGC": "174001019", "Barangay": "Maligaya", "Land_Class": null, "Area": 0.0, "PIN": "030-01-035-01-051" }, "geometry": { "type": "Polygon", "coordinates": [ [ [ 121.836425781940676, 13.478440007943091 ], [ 121.836926761391652, 13.47811500194055 ], [ 121.837022281525051, 13.478258930044573 ], [ 121.837941137749468, 13.477679712231911 ], [ 121.83772997604008, 13.477111237621063 ], [ 121.83738480590263, 13.4771934334071 ], [ 121.836425781940676, 13.478440007943091 ] ] ] } },
{ "type": "Feature", "properties": { "Id": 0, "CLN": "8502", "PSGC": "174001019", "Barangay": "Maligaya", "Land_Class": null, "Area": 0.0, "PIN": "030-01-035-01-126" }, "geometry": { "type": "Polygon", "coordinates": [ [ [ 121.836425781940676, 13.478440007943091 ], [ 121.8380260455354, 13.480079568246842 ], [ 121.838008542195809, 13.479909097914852 ], [ 121.837837004275144, 13.479496062751508 ], [ 121.837724031182987, 13.479408103233151 ], [ 121.837563536118708, 13.479198857588274 ], [ 121.837405502181952, 13.479191400068588 ], [ 121.83693279907267, 13.478879820002055 ], [ 121.836425781940676, 13.478440007943091 ] ] ] } },
{ "type": "Feature", "properties": { "Id": 0, "CLN": "8498", "PSGC": "174001019", "Barangay": "Maligaya", "Land_Class": null, "Area": 0.0, "PIN": "030-01-035-01-042" }, "geometry": { "type": "Polygon", "coordinates": [ [ [ 121.838008542195809, 13.479909097914852 ], [ 121.838780554534608, 13.479437372675113 ], [ 121.839003691353952, 13.479720892138113 ], [ 121.838226641889946, 13.480286757242048 ], [ 121.838413775160419, 13.480435592724113 ], [ 121.839716068069166, 13.479619933491357 ], [ 121.839836973071741, 13.479488496375359 ], [ 121.8396803016268, 13.479198558823454 ], [ 121.839387670331661, 13.479311546727425 ], [ 121.839179115290719, 13.479091991027417 ], [ 121.838959829865956, 13.478959822231339 ], [ 121.837837004275144, 13.479496062751508 ], [ 121.838008542195809, 13.479909097914852 ] ] ] } },
{ "type": "Feature", "properties": { "Id": 0, "CLN": "8499", "PSGC": "174001019", "Barangay": "Maligaya", "Land_Class": null, "Area": 0.0, "PIN": "030-01-035-01-043" }, "geometry": { "type": "Polygon", "coordinates": [ [ [ 121.8380260455354, 13.480079568246842 ], [ 121.838226641889946, 13.480286757242048 ], [ 121.839003691353952, 13.479720892138113 ], [ 121.838780554534608, 13.479437372675113 ], [ 121.838008542195809, 13.479909097914852 ], [ 121.8380260455354, 13.480079568246842 ] ] ] } },
{ "type": "Feature", "properties": { "Id": 0, "CLN": "8454", "PSGC": "174001019", "Barangay": "Maligaya", "Land_Class": null, "Area": 0.0, "PIN": "030-01-035-01-041" }, "geometry": { "type": "Polygon", "coordinates": [ [ [ 121.838413775160419, 13.480435592724113 ], [ 121.838742485564893, 13.480679245456443 ], [ 121.839432938228541, 13.480018815966393 ], [ 121.839779564865083, 13.480347744905387 ], [ 121.840111239517029, 13.479977110863594 ], [ 121.840047015447027, 13.47993421682243 ], [ 121.839716068069166, 13.479619933491357 ], [ 121.838413775160419, 13.480435592724113 ] ] ] } },
{ "type": "Feature", "properties": { "Id": 0, "CLN": "8444", "PSGC": "174001019", "Barangay": "Maligaya", "Land_Class": null, "Area": 0.0, "PIN": "030-01-035-01-040" }, "geometry": { "type": "Polygon", "coordinates": [ [ [ 121.838742485564893, 13.480679245456443 ], [ 121.839225956216055, 13.481134358098103 ], [ 121.839779564865083, 13.480347744905387 ], [ 121.839432938228541, 13.480018815966393 ], [ 121.838742485564893, 13.480679245456443 ] ] ] } },
{ "type": "Feature", "properties": { "Id": 0, "CLN": "8443", "PSGC": "174001019", "Barangay": "Maligaya", "Land_Class": null, "Area": 0.0, "PIN": "030-01-035-01-039" }, "geometry": { "type": "Polygon", "coordinates": [ [ [ 121.839225956216055, 13.481134358098103 ], [ 121.839564394388617, 13.481261472630598 ], [ 121.840143762196305, 13.480833692236377 ], [ 121.839779564865083, 13.480347744905387 ], [ 121.839225956216055, 13.481134358098103 ] ] ] } },
{ "type": "Feature", "properties": { "Id": 0, "CLN": "8456", "PSGC": "174001019", "Barangay": "Maligaya", "Land_Class": null, "Area": 0.0, "PIN": "030-01-035-01-060" }, "geometry": { "type": "Polygon", "coordinates": [ [ [ 121.840111239517029, 13.479977110863594 ], [ 121.840166089632021, 13.480004267825635 ], [ 121.840841559834615, 13.479599349014082 ], [ 121.840782411793938, 13.479216260102836 ], [ 121.840598873170634, 13.479331434529584 ], [ 121.840360946135945, 13.479501846313298 ], [ 121.840123018772786, 13.479672257841994 ], [ 121.840233363064144, 13.47977113379995 ], [ 121.840047015447027, 13.47993421682243 ], [ 121.840111239517029, 13.479977110863594 ] ] ] } },
{ "type": "Feature", "properties": { "Id": 0, "CLN": "8455", "PSGC": "174001019", "Barangay": "Maligaya", "Land_Class": null, "Area": 0.0, "PIN": "030-01-035-01-061" }, "geometry": { "type": "Polygon", "coordinates": [ [ [ 121.840166089632021, 13.480004267825635 ], [ 121.840408139067549, 13.480166807358886 ], [ 121.840890380372898, 13.479926901558798 ], [ 121.840841559834615, 13.479599349014082 ], [ 121.840166089632021, 13.480004267825635 ] ] ] } },
{ "type": "Feature", "properties": { "Id": 0, "CLN": "8440", "PSGC": "174001019", "Barangay": "Maligaya", "Land_Class": null, "Area": 0.0, "PIN": "030-01-035-01-188" }, "geometry": { "type": "Polygon", "coordinates": [ [ [ 121.840408139067549, 13.480166807358886 ], [ 121.840450605448453, 13.480386716198764 ], [ 121.84094634903758, 13.48019731693552 ], [ 121.840890380372898, 13.479926901558798 ], [ 121.840408139067549, 13.480166807358886 ] ] ] } },
{ "type": "Feature", "properties": { "Id": 0, "CLN": "8440", "PSGC": "174001019", "Barangay": "Maligaya", "Land_Class": null, "Area": 0.0, "PIN": "030-01-035-01-187" }, "geometry": { "type": "Polygon", "coordinates": [ [ [ 121.840450605448453, 13.480386716198764 ], [ 121.840470622980163, 13.480511237785487 ], [ 121.840976659356542, 13.480325248964926 ], [ 121.84094634903758, 13.48019731693552 ], [ 121.840450605448453, 13.480386716198764 ] ] ] } },
{ "type": "Feature", "properties": { "Id": 0, "CLN": "8440", "PSGC": "174001019", "Barangay": "Maligaya", "Land_Class": null, "Area": 0.0, "PIN": "030-01-035-01-186" }, "geometry": { "type": "Polygon", "coordinates": [ [ [ 121.840470622980163, 13.480511237785487 ], [ 121.840500819562763, 13.480662709976597 ], [ 121.840993143666196, 13.480469931923816 ], [ 121.840976659356542, 13.480325248964926 ], [ 121.840470622980163, 13.480511237785487 ] ] ] } },
{ "type": "Feature", "properties": { "Id": 0, "CLN": "8440", "PSGC": "174001019", "Barangay": "Maligaya", "Land_Class": null, "Area": 0.0, "PIN": null }, "geometry": { "type": "Polygon", "coordinates": [ [ [ 121.840500819562763, 13.480662709976597 ], [ 121.840527693424221, 13.480790626172389 ], [ 121.841033697957812, 13.4806113630359 ], [ 121.840993143666196, 13.480469931923816 ], [ 121.840500819562763, 13.480662709976597 ] ] ] } },
{ "type": "Feature", "properties": { "Id": 0, "CLN": "3440", "PSGC": "174001019", "Barangay": "Maligaya", "Land_Class": null, "Area": 0.0, "PIN": null }, "geometry": { "type": "Polygon", "coordinates": [ [ [ 121.840527693424221, 13.480790626172389 ], [ 121.840551114838831, 13.480921889373137 ], [ 121.841064008357719, 13.480739295058655 ], [ 121.841033697957812, 13.4806113630359 ], [ 121.840527693424221, 13.480790626172389 ] ] ] } },
{ "type": "Feature", "properties": { "Id": 0, "CLN": "8441", "PSGC": "174001019", "Barangay": "Maligaya", "Land_Class": null, "Area": 0.0, "PIN": "030-01-035-01-038" }, "geometry": { "type": "Polygon", "coordinates": [ [ [ 121.839564394388617, 13.481261472630598 ], [ 121.839797835873853, 13.481783808542129 ], [ 121.84046417012236, 13.481374365079043 ], [ 121.840427840996753, 13.481306938303613 ], [ 121.841148547987274, 13.481023294082666 ], [ 121.841064008357719, 13.480739295058655 ], [ 121.840551114838831, 13.480921889373137 ], [ 121.840527693424221, 13.480790626172389 ], [ 121.840500819562763, 13.480662709976597 ], [ 121.840470622980163, 13.480511237785487 ], [ 121.840450605448453, 13.480386716198764 ], [ 121.840408139067549, 13.480166807358886 ], [ 121.840166089632021, 13.480004267825635 ], [ 121.840111239517029, 13.479977110863594 ], [ 121.839779564865083, 13.480347744905387 ], [ 121.840143762196305, 13.480833692236377 ], [ 121.839564394388617, 13.481261472630598 ] ] ] } },
{ "type": "Feature", "properties": { "Id": 0, "CLN": "8442", "PSGC": "174001019", "Barangay": "Maligaya", "Land_Class": null, "Area": 0.0, "PIN": "030-01-035-01-020" }, "geometry": { "type": "Polygon", "coordinates": [ [ [ 121.839225956216055, 13.481134358098103 ], [ 121.839813751579783, 13.482046192094844 ], [ 121.839810996806875, 13.481904935516843 ], [ 121.839797835873853, 13.481783808542129 ], [ 121.839564394388617, 13.481261472630598 ], [ 121.839225956216055, 13.481134358098103 ] ] ] } },
{ "type": "Feature", "properties": { "Id": 0, "CLN": "8434", "PSGC": "174001019", "Barangay": "Maligaya", "Land_Class": null, "Area": 0.0, "PIN": "030-01-035-01-033" }, "geometry": { "type": "Polygon", "coordinates": [ [ [ 121.839813751579783, 13.482046192094844 ], [ 121.839827383080546, 13.482069795729254 ], [ 121.840079074443793, 13.481896085350652 ], [ 121.840017789412286, 13.481778098986792 ], [ 121.839810996806875, 13.481904935516843 ], [ 121.839813751579783, 13.482046192094844 ] ] ] } },
{ "type": "Feature", "properties": { "Id": 0, "CLN": "8433", "PSGC": "174001019", "Barangay": "Maligaya", "Land_Class": null, "Area": 0.0, "PIN": "030-01-035-01-034" }, "geometry": { "type": "Polygon", "coordinates": [ [ [ 121.840079074443793, 13.481896085350652 ], [ 121.840310228948013, 13.481705465082001 ], [ 121.840262559142914, 13.481614445254923 ], [ 121.840017789412286, 13.481778098986792 ], [ 121.840079074443793, 13.481896085350652 ] ] ] } },
{ "type": "Feature", "properties": { "Id": 0, "CLN": "8432", "PSGC": "174001019", "Barangay": "Maligaya", "Land_Class": null, "Area": 0.0, "PIN": "030-01-035-01-035" }, "geometry": { "type": "Polygon", "coordinates": [ [ [ 121.840310228948013, 13.481705465082001 ], [ 121.840602895338378, 13.481585750574382 ], [ 121.840568824558048, 13.481525060143168 ], [ 121.840517637340142, 13.481450838863452 ], [ 121.840262559142914, 13.481614445254923 ], [ 121.840310228948013, 13.481705465082001 ] ] ] } },
{ "type": "Feature", "properties": { "Id": 0, "CLN": "8435", "PSGC": "174001019", "Barangay": "Maligaya", "Land_Class": null, "Area": 0.0, "PIN": "030-01-035-01-132" }, "geometry": { "type": "Polygon", "coordinates": [ [ [ 121.84046417012236, 13.481374365079043 ], [ 121.839797835873853, 13.481783808542129 ], [ 121.839810996806875, 13.481904935516843 ], [ 121.840017789412286, 13.481778098986792 ], [ 121.840262559142914, 13.481614445254923 ], [ 121.840517637340142, 13.481450838863452 ], [ 121.84046417012236, 13.481374365079043 ] ] ] } },
{ "type": "Feature", "properties": { "Id": 0, "CLN": "8436", "PSGC": "174001019", "Barangay": "Maligaya", "Land_Class": null, "Area": 0.0, "PIN": "030-01-035-01-211" }, "geometry": { "type": "Polygon", "coordinates": [ [ [ 121.840881965159625, 13.481128211776982 ], [ 121.840929321319877, 13.481262452030567 ], [ 121.840712644807866, 13.481337995902564 ], [ 121.840731973165887, 13.481384729299323 ], [ 121.840571563940657, 13.481449768799626 ], [ 121.840586102000515, 13.481476148019455 ], [ 121.84054791030826, 13.481494734563498 ], [ 121.840568824558048, 13.481525060143168 ], [ 121.841233320067786, 13.481259091870403 ], [ 121.841148547987274, 13.481023294082666 ], [ 121.840881965159625, 13.481128211776982 ] ] ] } },
{ "type": "Feature", "properties": { "Id": 0, "CLN": "8430", "PSGC": "174001019", "Barangay": "Maligaya", "Land_Class": null, "Area": 0.0, "PIN": "030-01-035-01-027" }, "geometry": { "type": "Polygon", "coordinates": [ [ [ 121.840602895338378, 13.481585750574382 ], [ 121.840626738408631, 13.481629579024114 ], [ 121.840739243474673, 13.481815060764507 ], [ 121.841125013194215, 13.481628516513807 ], [ 121.841304217601561, 13.481521729210176 ], [ 121.841233320067786, 13.481259091870403 ], [ 121.840568824558048, 13.481525060143168 ], [ 121.840602895338378, 13.481585750574382 ] ] ] } },
{ "type": "Feature", "properties": { "Id": 0, "CLN": "8431", "PSGC": "174001019", "Barangay": "Maligaya", "Land_Class": null, "Area": 0.0, "PIN": "030-01-035-01-032" }, "geometry": { "type": "Polygon", "coordinates": [ [ [ 121.839827383080546, 13.482069795729254 ], [ 121.839898349035579, 13.48213990484976 ], [ 121.839999164191383, 13.482077315390553 ], [ 121.840203481042934, 13.481929448841443 ], [ 121.840309572082404, 13.481841661496073 ], [ 121.840626738408631, 13.481629579024114 ], [ 121.840602895338378, 13.481585750574382 ], [ 121.840310228948013, 13.481705465082001 ], [ 121.840079074443793, 13.481896085350652 ], [ 121.839827383080546, 13.482069795729254 ] ] ] } },
{ "type": "Feature", "properties": { "Id": 0, "CLN": "8426", "PSGC": "174001019", "Barangay": "Maligaya", "Land_Class": null, "Area": 0.0, "PIN": "030-01-035-01-031" }, "geometry": { "type": "Polygon", "coordinates": [ [ [ 121.839898349035579, 13.48213990484976 ], [ 121.840013386308541, 13.482334646694399 ], [ 121.840119355935684, 13.482272081007677 ], [ 121.839999164191383, 13.482077315390553 ], [ 121.839898349035579, 13.48213990484976 ] ] ] } },
{ "type": "Feature", "properties": { "Id": 0, "CLN": "8427", "PSGC": "174001019", "Barangay": "Maligaya", "Land_Class": null, "Area": 0.0, "PIN": "030-01-035-01-030" }, "geometry": { "type": "Polygon", "coordinates": [ [ [ 121.840119355935684, 13.482272081007677 ], [ 121.840344144561996, 13.482154575475096 ], [ 121.840203481042934, 13.481929448841443 ], [ 121.839999164191383, 13.482077315390553 ], [ 121.840119355935684, 13.482272081007677 ] ] ] } },
{ "type": "Feature", "properties": { "Id": 0, "CLN": "8428", "PSGC": "174001019", "Barangay": "Maligaya", "Land_Class": null, "Area": 0.0, "PIN": "030-01-035-01-029" }, "geometry": { "type": "Polygon", "coordinates": [ [ [ 121.840344144561996, 13.482154575475096 ], [ 121.840452812865237, 13.482066799978833 ], [ 121.840309572082404, 13.481841661496073 ], [ 121.840203481042934, 13.481929448841443 ], [ 121.840344144561996, 13.482154575475096 ] ] ] } },
{ "type": "Feature", "properties": { "Id": 0, "CLN": "8429", "PSGC": "174001019", "Barangay": "Maligaya", "Land_Class": null, "Area": 0.0, "PIN": "030-01-035-01-028" }, "geometry": { "type": "Polygon", "coordinates": [ [ [ 121.840452812865237, 13.482066799978833 ], [ 121.840739243474673, 13.481815060764507 ], [ 121.840626738408631, 13.481629579024114 ], [ 121.840309572082404, 13.481841661496073 ], [ 121.840452812865237, 13.482066799978833 ] ] ] } },
{ "type": "Feature", "properties": { "Id": 0, "CLN": "8425", "PSGC": "174001019", "Barangay": "Maligaya", "Land_Class": null, "Area": 0.0, "PIN": "030-01-035-01-025" }, "geometry": { "type": "Polygon", "coordinates": [ [ [ 121.840013386308541, 13.482334646694399 ], [ 121.840317567915534, 13.482855627613461 ], [ 121.841088178802906, 13.482319432739281 ], [ 121.84108075109593, 13.4822563431385 ], [ 121.841158310404296, 13.482206256903273 ], [ 121.841295327721511, 13.482118611874434 ], [ 121.841357362948443, 13.482081064985827 ], [ 121.84131143511118, 13.481985008938446 ], [ 121.84125781216315, 13.481881350730843 ], [ 121.841125013194215, 13.481628516513807 ], [ 121.840739243474673, 13.481815060764507 ], [ 121.840452812865237, 13.482066799978833 ], [ 121.840344144561996, 13.482154575475096 ], [ 121.840119355935684, 13.482272081007677 ], [ 121.840013386308541, 13.482334646694399 ] ] ] } },
{ "type": "Feature", "properties": { "Id": 0, "CLN": "8424 part", "PSGC": "174001019", "Barangay": "Maligaya", "Land_Class": null, "Area": 0.0, "PIN": "030-01-035-01-173" }, "geometry": { "type": "Polygon", "coordinates": [ [ [ 121.841357362948443, 13.482081064985827 ], [ 121.841540854859602, 13.481975978796765 ], [ 121.841492289000513, 13.481892521669813 ], [ 121.84131143511118, 13.481985008938446 ], [ 121.841357362948443, 13.482081064985827 ] ] ] } },
{ "type": "Feature", "properties": { "Id": 0, "CLN": "8424 part", "PSGC": "174001019", "Barangay": "Maligaya", "Land_Class": null, "Area": 0.0, "PIN": "030-01-035-01-171" }, "geometry": { "type": "Polygon", "coordinates": [ [ [ 121.841492289000513, 13.481892521669813 ], [ 121.841420662033926, 13.481781213774836 ], [ 121.84125781216315, 13.481881350730843 ], [ 121.84131143511118, 13.481985008938446 ], [ 121.841492289000513, 13.481892521669813 ] ] ] } },
{ "type": "Feature", "properties": { "Id": 0, "CLN": "8420", "PSGC": "174001019", "Barangay": "Maligaya", "Land_Class": null, "Area": 0.0, "PIN": "030-01-035-01-172" }, "geometry": { "type": "Polygon", "coordinates": [ [ [ 121.841420662033926, 13.481781213774836 ], [ 121.841364449721354, 13.481680065852091 ], [ 121.841304217601561, 13.481521729210176 ], [ 121.841125013194215, 13.481628516513807 ], [ 121.84125781216315, 13.481881350730843 ], [ 121.841420662033926, 13.481781213774836 ] ] ] } },
{ "type": "Feature", "properties": { "Id": 0, "CLN": "8421", "PSGC": "174001019", "Barangay": "Maligaya", "Land_Class": null, "Area": 0.0, "PIN": "030-01-035-01-191" }, "geometry": { "type": "Polygon", "coordinates": [ [ [ 121.841485925464141, 13.482143452488858 ], [ 121.841413721882773, 13.482048788135105 ], [ 121.841357362948443, 13.482081064985827 ], [ 121.841295327721511, 13.482118611874434 ], [ 121.841387560212482, 13.482232537112935 ], [ 121.841485925464141, 13.482143452488858 ] ] ] } },
{ "type": "Feature", "properties": { "Id": 0, "CLN": "8422", "PSGC": "174001019", "Barangay": "Maligaya", "Land_Class": null, "Area": 0.0, "PIN": "030-01-035-01-022" }, "geometry": { "type": "Polygon", "coordinates": [ [ [ 121.841387560212482, 13.482232537112935 ], [ 121.841295327721511, 13.482118611874434 ], [ 121.841158310404296, 13.482206256903273 ], [ 121.84123753527021, 13.482345344277867 ], [ 121.841387560212482, 13.482232537112935 ] ] ] } },
{ "type": "Feature", "properties": { "Id": 0, "CLN": "8423", "PSGC": "174001019", "Barangay": "Maligaya", "Land_Class": null, "Area": 0.0, "PIN": "030-01-035-01-023" }, "geometry": { "type": "Polygon", "coordinates": [ [ [ 121.84123753527021, 13.482345344277867 ], [ 121.841158310404296, 13.482206256903273 ], [ 121.84108075109593, 13.4822563431385 ], [ 121.841088178802906, 13.482319432739281 ], [ 121.841113355214631, 13.482443137370852 ], [ 121.84123753527021, 13.482345344277867 ] ] ] } },
{ "type": "Feature", "properties": { "Id": 0, "CLN": "8424", "PSGC": "174001019", "Barangay": "Maligaya", "Land_Class": null, "Area": 0.0, "PIN": "030-01-035-01-024" }, "geometry": { "type": "Polygon", "coordinates": [ [ [ 121.841113355214631, 13.482443137370852 ], [ 121.841088178802906, 13.482319432739281 ], [ 121.840317567915534, 13.482855627613461 ], [ 121.840013386308541, 13.482334646694399 ], [ 121.839898349035579, 13.48213990484976 ], [ 121.839827383080546, 13.482069795729254 ], [ 121.840380635787923, 13.483138406667251 ], [ 121.84042240645816, 13.48302762229225 ], [ 121.841113355214631, 13.482443137370852 ] ] ] } },
{ "type": "Feature", "properties": { "Id": 0, "CLN": "8404", "PSGC": "174001019", "Barangay": "Maligaya", "Land_Class": null, "Area": 0.0, "PIN": "030-01-035-01-011" }, "geometry": { "type": "Polygon", "coordinates": [ [ [ 121.84047831453114, 13.483191824301127 ], [ 121.840722164990666, 13.48339724967609 ], [ 121.840715406244087, 13.483195441501277 ], [ 121.840517532280771, 13.483075983692595 ], [ 121.84047831453114, 13.483191824301127 ] ] ] } },
{ "type": "Feature", "properties": { "Id": 0, "CLN": "8410", "PSGC": "174001019", "Barangay": "Maligaya", "Land_Class": null, "Area": 0.0, "PIN": "030-01-035-01-012" }, "geometry": { "type": "Polygon", "coordinates": [ [ [ 121.840722164990666, 13.48339724967609 ], [ 121.84132452878255, 13.483011609926983 ], [ 121.841067706960317, 13.48282378072806 ], [ 121.841112747392614, 13.482569245190341 ], [ 121.840517532280771, 13.483075983692595 ], [ 121.840715406244087, 13.483195441501277 ], [ 121.840722164990666, 13.48339724967609 ] ] ] } },
{ "type": "Feature", "properties": { "Id": 0, "CLN": "8411", "PSGC": "174001019", "Barangay": "Maligaya", "Land_Class": null, "Area": 0.0, "PIN": "030-01-035-01-013" }, "geometry": { "type": "Polygon", "coordinates": [ [ [ 121.84132452878255, 13.483011609926983 ], [ 121.8414066186334, 13.482912781764909 ], [ 121.84127352730475, 13.482720479344078 ], [ 121.841243719041259, 13.482488298201767 ], [ 121.841112747392614, 13.482569245190341 ], [ 121.841067706960317, 13.48282378072806 ], [ 121.84132452878255, 13.483011609926983 ] ] ] } },
{ "type": "Feature", "properties": { "Id": 0, "CLN": "8412", "PSGC": "174001019", "Barangay": "Maligaya", "Land_Class": null, "Area": 0.0, "PIN": "030-01-035-01-014" }, "geometry": { "type": "Polygon", "coordinates": [ [ [ 121.8414066186334, 13.482912781764909 ], [ 121.841582225630205, 13.482839607238457 ], [ 121.841350632609647, 13.482408080844344 ], [ 121.841243719041259, 13.482488298201767 ], [ 121.84127352730475, 13.482720479344078 ], [ 121.8414066186334, 13.482912781764909 ] ] ] } },
{ "type": "Feature", "properties": { "Id": 0, "CLN": "8413", "PSGC": "174001019", "Barangay": "Maligaya", "Land_Class": null, "Area": 0.0, "PIN": "030-01-035-01-015" }, "geometry": { "type": "Polygon", "coordinates": [ [ [ 121.841582225630205, 13.482839607238457 ], [ 121.841723534496609, 13.48275282253603 ], [ 121.841430007282739, 13.482337825200977 ], [ 121.841350632609647, 13.482408080844344 ], [ 121.841582225630205, 13.482839607238457 ] ] ] } },
{ "type": "Feature", "properties": { "Id": 0, "CLN": "8414", "PSGC": "174001019", "Barangay": "Maligaya", "Land_Class": null, "Area": 0.0, "PIN": "030-01-035-01-016" }, "geometry": { "type": "Polygon", "coordinates": [ [ [ 121.841723534496609, 13.48275282253603 ], [ 121.841788872475135, 13.482743035131078 ], [ 121.841550763040672, 13.482237493922865 ], [ 121.841430007282739, 13.482337825200977 ], [ 121.841723534496609, 13.48275282253603 ] ] ] } },
{ "type": "Feature", "properties": { "Id": 0, "CLN": "8415", "PSGC": "174001019", "Barangay": "Maligaya", "Land_Class": null, "Area": 0.0, "PIN": "030-01-035-01-017" }, "geometry": { "type": "Polygon", "coordinates": [ [ [ 121.841788872475135, 13.482743035131078 ], [ 121.841905803288626, 13.482723396862234 ], [ 121.841616343898139, 13.482177263413735 ], [ 121.841550763040672, 13.482237493922865 ], [ 121.841788872475135, 13.482743035131078 ] ] ] } },
{ "type": "Feature", "properties": { "Id": 0, "CLN": "8416", "PSGC": "174001019", "Barangay": "Maligaya", "Land_Class": null, "Area": 0.0, "PIN": "030-01-035-01-018" }, "geometry": { "type": "Polygon", "coordinates": [ [ [ 121.841905803288626, 13.482723396862234 ], [ 121.841981822627162, 13.482636310808775 ], [ 121.841668066224528, 13.482140509599338 ], [ 121.841616343898139, 13.482177263413735 ], [ 121.841905803288626, 13.482723396862234 ] ] ] } },
{ "type": "Feature", "properties": { "Id": 0, "CLN": "8417", "PSGC": "174001019", "Barangay": "Maligaya", "Land_Class": null, "Area": 0.0, "PIN": "030-01-035-01-019" }, "geometry": { "type": "Polygon", "coordinates": [ [ [ 121.841981822627162, 13.482636310808775 ], [ 121.842192504596269, 13.48241532776164 ], [ 121.841816473952477, 13.482006676246602 ], [ 121.841668066224528, 13.482140509599338 ], [ 121.841981822627162, 13.482636310808775 ] ] ] } },
{ "type": "Feature", "properties": { "Id": 0, "CLN": "8419", "PSGC": "174001019", "Barangay": "Maligaya", "Land_Class": null, "Area": 0.0, "PIN": "030-01-035-01-123" }, "geometry": { "type": "Polygon", "coordinates": [ [ [ 121.841700010456776, 13.481920570538318 ], [ 121.841796598612049, 13.481843668270002 ], [ 121.841755573953435, 13.481799760650089 ], [ 121.841740433639771, 13.481375958987289 ], [ 121.841444396514149, 13.481482207529545 ], [ 121.841501808489681, 13.481690975391102 ], [ 121.841700010456776, 13.481920570538318 ] ] ] } },
{ "type": "Feature", "properties": { "Id": 0, "CLN": "8437 part", "PSGC": "174001019", "Barangay": "Maligaya", "Land_Class": null, "Area": 0.0, "PIN": "030-01-035-01-177" }, "geometry": { "type": "Polygon", "coordinates": [ [ [ 121.841740433639771, 13.481375958987289 ], [ 121.841706637963526, 13.481258099792942 ], [ 121.841400373202845, 13.481347486356553 ], [ 121.841444396514149, 13.481482207529545 ], [ 121.841740433639771, 13.481375958987289 ] ] ] } },
{ "type": "Feature", "properties": { "Id": 0, "CLN": "8437 part", "PSGC": "174001019", "Barangay": "Maligaya", "Land_Class": null, "Area": 0.0, "PIN": "030-01-035-01-176" }, "geometry": { "type": "Polygon", "coordinates": [ [ [ 121.841706637963526, 13.481258099792942 ], [ 121.841672858514983, 13.481136877719404 ], [ 121.841518113412064, 13.481159704414068 ], [ 121.841359786195824, 13.481212781035932 ], [ 121.841400373202845, 13.481347486356553 ], [ 121.841706637963526, 13.481258099792942 ] ] ] } },
{ "type": "Feature", "properties": { "Id": 0, "CLN": "8467", "PSGC": "174001019", "Barangay": "Maligaya", "Land_Class": null, "Area": 0.0, "PIN": "030-01-035-01-115" }, "geometry": { "type": "Polygon", "coordinates": [ [ [ 121.841672858514983, 13.481136877719404 ], [ 121.841667298111489, 13.480864453037055 ], [ 121.84146775224248, 13.480913976631944 ], [ 121.841518113412064, 13.481159704414068 ], [ 121.841672858514983, 13.481136877719404 ] ] ] } },
{ "type": "Feature", "properties": { "Id": 0, "CLN": "8466", "PSGC": "174001019", "Barangay": "Maligaya", "Land_Class": null, "Area": 0.0, "PIN": "030-01-035-01-114" }, "geometry": { "type": "Polygon", "coordinates": [ [ [ 121.841359786195824, 13.481212781035932 ], [ 121.841518113412064, 13.481159704414068 ], [ 121.84146775224248, 13.480913976631944 ], [ 121.841288775233238, 13.480973683838654 ], [ 121.841359786195824, 13.481212781035932 ] ] ] } },
{ "type": "Feature", "properties": { "Id": 0, "CLN": "8439", "PSGC": "174001019", "Barangay": "Maligaya", "Land_Class": null, "Area": 0.0, "PIN": "030-01-035-01-120" }, "geometry": { "type": "Polygon", "coordinates": [ [ [ 121.841667298111489, 13.480864453037055 ], [ 121.84185105265621, 13.479812696934385 ], [ 121.841682012747725, 13.47994979820891 ], [ 121.841352684305051, 13.479833938447396 ], [ 121.841032692547088, 13.479919898407632 ], [ 121.841288775233238, 13.480973683838654 ], [ 121.84146775224248, 13.480913976631944 ], [ 121.841667298111489, 13.480864453037055 ] ] ] } },
{ "type": "Feature", "properties": { "Id": 0, "CLN": "8469", "PSGC": "174001019", "Barangay": "Maligaya", "Land_Class": null, "Area": 0.0, "PIN": "030-01-035-01-118" }, "geometry": { "type": "Polygon", "coordinates": [ [ [ 121.841032692547088, 13.479919898407632 ], [ 121.841352684305051, 13.479833938447396 ], [ 121.841258736561286, 13.479708134731823 ], [ 121.84118205516468, 13.479587655640367 ], [ 121.841130965336475, 13.479493257236584 ], [ 121.840979479243089, 13.479553091176099 ], [ 121.841032692547088, 13.479919898407632 ] ] ] } },
{ "type": "Feature", "properties": { "Id": 0, "CLN": "8463", "PSGC": "174001019", "Barangay": "Maligaya", "Land_Class": null, "Area": 0.0, "PIN": "030-01-035-01-112" }, "geometry": { "type": "Polygon", "coordinates": [ [ [ 121.841072986872064, 13.47940218998238 ], [ 121.841252140948569, 13.479305491193927 ], [ 121.841201099751984, 13.479201004176479 ], [ 121.840997811078182, 13.479314406293001 ], [ 121.841072986872064, 13.47940218998238 ] ] ] } },
{ "type": "Feature", "properties": { "Id": 0, "CLN": "8470", "PSGC": "174001019", "Barangay": "Maligaya", "Land_Class": null, "Area": 0.0, "PIN": "030-01-035-01-119" }, "geometry": { "type": "Polygon", "coordinates": [ [ [ 121.84185105265621, 13.479812696934385 ], [ 121.841780057685071, 13.479570236967398 ], [ 121.841559636319005, 13.479673471652568 ], [ 121.841352684305051, 13.479833938447396 ], [ 121.841682012747725, 13.47994979820891 ], [ 121.84185105265621, 13.479812696934385 ] ] ] } },
{ "type": "Feature", "properties": { "Id": 0, "CLN": "8468", "PSGC": "174001019", "Barangay": "Maligaya", "Land_Class": null, "Area": 0.0, "PIN": "030-01-035-01-116" }, "geometry": { "type": "Polygon", "coordinates": [ [ [ 121.841559636319005, 13.479673471652568 ], [ 121.841498075612449, 13.479612654516119 ], [ 121.841258736561286, 13.479708134731823 ], [ 121.841352684305051, 13.479833938447396 ], [ 121.841559636319005, 13.479673471652568 ] ] ] } },
{ "type": "Feature", "properties": { "Id": 0, "CLN": "8467", "PSGC": "174001019", "Barangay": "Maligaya", "Land_Class": null, "Area": 0.0, "PIN": "030-01-035-01-115" }, "geometry": { "type": "Polygon", "coordinates": [ [ [ 121.841498075612449, 13.479612654516119 ], [ 121.841403218186542, 13.479508806109889 ], [ 121.84118205516468, 13.479587655640367 ], [ 121.841258736561286, 13.479708134731823 ], [ 121.841498075612449, 13.479612654516119 ] ] ] } },
{ "type": "Feature", "properties": { "Id": 0, "CLN": "8466", "PSGC": "174001019", "Barangay": "Maligaya", "Land_Class": null, "Area": 0.0, "PIN": "030-01-035-01-114" }, "geometry": { "type": "Polygon", "coordinates": [ [ [ 121.841403218186542, 13.479508806109889 ], [ 121.841321185965469, 13.479417627919601 ], [ 121.841130965336475, 13.479493257236584 ], [ 121.84118205516468, 13.479587655640367 ], [ 121.841403218186542, 13.479508806109889 ] ] ] } },
{ "type": "Feature", "properties": { "Id": 0, "CLN": "8465", "PSGC": "174001019", "Barangay": "Maligaya", "Land_Class": null, "Area": 0.0, "PIN": "030-01-035-01-113" }, "geometry": { "type": "Polygon", "coordinates": [ [ [ 121.841321185965469, 13.479417627919601 ], [ 121.841252140948569, 13.479305491193927 ], [ 121.841072986872064, 13.47940218998238 ], [ 121.841130965336475, 13.479493257236584 ], [ 121.841321185965469, 13.479417627919601 ] ] ] } },
{ "type": "Feature", "properties": { "Id": 0, "CLN": "8462", "PSGC": "174001019", "Barangay": "Maligaya", "Land_Class": null, "Area": 0.0, "PIN": "030-01-035-01-111" }, "geometry": { "type": "Polygon", "coordinates": [ [ [ 121.840932927826728, 13.479230033044043 ], [ 121.840997811078182, 13.479314406293001 ], [ 121.841201099751984, 13.479201004176479 ], [ 121.841152538546709, 13.479116706301639 ], [ 121.840932927826728, 13.479230033044043 ] ] ] } },
{ "type": "Feature", "properties": { "Id": 0, "CLN": "8461", "PSGC": "174001019", "Barangay": "Maligaya", "Land_Class": null, "Area": 0.0, "PIN": "030-01-035-01-110" }, "geometry": { "type": "Polygon", "coordinates": [ [ [ 121.840932927826728, 13.479230033044043 ], [ 121.841152538546709, 13.479116706301639 ], [ 121.841067977991628, 13.479015427522764 ], [ 121.840907962399797, 13.479062611012214 ], [ 121.840932927826728, 13.479230033044043 ] ] ] } },
{ "type": "Feature", "properties": { "Id": 0, "CLN": "8471", "PSGC": "174001019", "Barangay": "Maligaya", "Land_Class": null, "Area": 0.0, "PIN": "030-01-035-01-109" }, "geometry": { "type": "Polygon", "coordinates": [ [ [ 121.841152538546709, 13.479116706301639 ], [ 121.841201099751984, 13.479201004176479 ], [ 121.841252140948569, 13.479305491193927 ], [ 121.841321185965469, 13.479417627919601 ], [ 121.841403218186542, 13.479508806109889 ], [ 121.841498075612449, 13.479612654516119 ], [ 121.841559636319005, 13.479673471652568 ], [ 121.841780057685071, 13.479570236967398 ], [ 121.841615225238414, 13.478833830999029 ], [ 121.841152538546709, 13.479116706301639 ] ] ] } },
{ "type": "Feature", "properties": { "Id": 0, "CLN": "8472", "PSGC": "174001019", "Barangay": "Maligaya", "Land_Class": null, "Area": 0.0, "PIN": "030-01-035-01-108" }, "geometry": { "type": "Polygon", "coordinates": [ [ [ 121.84185105265621, 13.479812696934385 ], [ 121.842076087537237, 13.478572805530288 ], [ 121.84205558352771, 13.478549170320102 ], [ 121.841615225238414, 13.478833830999029 ], [ 121.841780057685071, 13.479570236967398 ], [ 121.84185105265621, 13.479812696934385 ] ] ] } },
{ "type": "Feature", "properties": { "Id": 0, "CLN": "8474", "PSGC": "174001019", "Barangay": "Maligaya", "Land_Class": null, "Area": 0.0, "PIN": "030-01-035-01-105" }, "geometry": { "type": "Polygon", "coordinates": [ [ [ 121.840907962399797, 13.479062611012214 ], [ 121.841067977991628, 13.479015427522764 ], [ 121.841152538546709, 13.479116706301639 ], [ 121.841615225238414, 13.478833830999029 ], [ 121.84205558352771, 13.478549170320102 ], [ 121.841650016522124, 13.478328708013207 ], [ 121.841502605377556, 13.478493933615017 ], [ 121.841176119763276, 13.477788449438144 ], [ 121.841400618926059, 13.477789485266227 ], [ 121.841460331111364, 13.477758373193401 ], [ 121.841456138243814, 13.477677643012358 ], [ 121.841585690381848, 13.477468569933786 ], [ 121.840991507091459, 13.47716988875673 ], [ 121.840950287386292, 13.477546757695153 ], [ 121.840895758648855, 13.47778598789267 ], [ 121.840741129151439, 13.477785274150516 ], [ 121.840907962399797, 13.479062611012214 ] ] ] } },
{ "type": "Feature", "properties": { "Id": 0, "CLN": "8475", "PSGC": "174001019", "Barangay": "Maligaya", "Land_Class": null, "Area": 0.0, "PIN": "030-01-035-01-106" }, "geometry": { "type": "Polygon", "coordinates": [ [ [ 121.841400618926059, 13.477789485266227 ], [ 121.841176119763276, 13.477788449438144 ], [ 121.841502605377556, 13.478493933615017 ], [ 121.841650016522124, 13.478328708013207 ], [ 121.841400618926059, 13.477789485266227 ] ] ] } },
{ "type": "Feature", "properties": { "Id": 0, "CLN": "8476", "PSGC": "174001019", "Barangay": "Maligaya", "Land_Class": null, "Area": 0.0, "PIN": "030-01-035-01-107" }, "geometry": { "type": "Polygon", "coordinates": [ [ [ 121.84205558352771, 13.478549170320102 ], [ 121.841585690381848, 13.477468569933786 ], [ 121.841456138243814, 13.477677643012358 ], [ 121.841460331111364, 13.477758373193401 ], [ 121.841400618926059, 13.477789485266227 ], [ 121.841650016522124, 13.478328708013207 ], [ 121.84205558352771, 13.478549170320102 ] ] ] } },
{ "type": "Feature", "properties": { "Id": 0, "CLN": "8452", "PSGC": "174001019", "Barangay": "Maligaya", "Land_Class": null, "Area": 0.0, "PIN": "030-01-035-01-001" }, "geometry": { "type": "Polygon", "coordinates": [ [ [ 121.835490544706616, 13.479752846923022 ], [ 121.837092927909424, 13.480006889201023 ], [ 121.835973700744091, 13.479324630180448 ], [ 121.835490544706616, 13.479752846923022 ] ] ] } },
{ "type": "Feature", "properties": { "Id": 0, "CLN": "8451", "PSGC": "174001019", "Barangay": "Maligaya", "Land_Class": null, "Area": 0.0, "PIN": "030-01-035-01-002" }, "geometry": { "type": "Polygon", "coordinates": [ [ [ 121.835490544706616, 13.479752846923022 ], [ 121.836369681763443, 13.480815129383915 ], [ 121.837092927909424, 13.480006889201023 ], [ 121.835490544706616, 13.479752846923022 ] ] ] } },
{ "type": "Feature", "properties": { "Id": 0, "CLN": "8450", "PSGC": "174001019", "Barangay": "Maligaya", "Land_Class": null, "Area": 0.0, "PIN": "030-01-035-01-003" }, "geometry": { "type": "Polygon", "coordinates": [ [ [ 121.836369681763443, 13.480815129383915 ], [ 121.836488110821762, 13.480959163889848 ], [ 121.83706865363115, 13.480289264265313 ], [ 121.837092927909424, 13.480006889201023 ], [ 121.836369681763443, 13.480815129383915 ] ] ] } },
{ "type": "Feature", "properties": { "Id": 0, "CLN": "8449", "PSGC": "174001019", "Barangay": "Maligaya", "Land_Class": null, "Area": 0.0, "PIN": "030-01-035-01-136" }, "geometry": { "type": "Polygon", "coordinates": [ [ [ 121.836488110821762, 13.480959163889848 ], [ 121.836560853472989, 13.481076083086041 ], [ 121.836757433405793, 13.480856009658561 ], [ 121.837215006471496, 13.48034374920597 ], [ 121.83706865363115, 13.480289264265313 ], [ 121.836488110821762, 13.480959163889848 ] ] ] } },
{ "type": "Feature", "properties": { "Id": 0, "CLN": "8449", "PSGC": "174001019", "Barangay": "Maligaya", "Land_Class": null, "Area": 0.0, "PIN": "030-01-035-01-180" }, "geometry": { "type": "Polygon", "coordinates": [ [ [ 121.836560853472989, 13.481076083086041 ], [ 121.836624497925158, 13.481179508325949 ], [ 121.836753392091467, 13.481054555564391 ], [ 121.836831735953425, 13.480960756040346 ], [ 121.836757433405793, 13.480856009658561 ], [ 121.836560853472989, 13.481076083086041 ] ] ] } },
{ "type": "Feature", "properties": { "Id": 0, "CLN": "8448", "PSGC": "174001019", "Barangay": "Maligaya", "Land_Class": null, "Area": 0.0, "PIN": "030-01-035-01-179" }, "geometry": { "type": "Polygon", "coordinates": [ [ [ 121.836624497925158, 13.481179508325949 ], [ 121.836806984325719, 13.481400907019678 ], [ 121.836939116539355, 13.481257753211358 ], [ 121.836753392091467, 13.481054555564391 ], [ 121.836624497925158, 13.481179508325949 ] ] ] } },
{ "type": "Feature", "properties": { "Id": 0, "CLN": "8449", "PSGC": "174001019", "Barangay": "Maligaya", "Land_Class": null, "Area": 0.0, "PIN": "030-01-035-01-181" }, "geometry": { "type": "Polygon", "coordinates": [ [ [ 121.836831735953425, 13.480960756040346 ], [ 121.837360779902639, 13.480399632610945 ], [ 121.837215006471496, 13.48034374920597 ], [ 121.836757433405793, 13.480856009658561 ], [ 121.836831735953425, 13.480960756040346 ] ] ] } },
{ "type": "Feature", "properties": { "Id": 0, "CLN": "8448", "PSGC": "174001019", "Barangay": "Maligaya", "Land_Class": null, "Area": 0.0, "PIN": "030-01-035-01-178" }, "geometry": { "type": "Polygon", "coordinates": [ [ [ 121.836806984325719, 13.481400907019678 ], [ 121.836935148636911, 13.481545266698975 ], [ 121.837889546697227, 13.480843467268555 ], [ 121.837360779902639, 13.480399632610945 ], [ 121.836831735953425, 13.480960756040346 ], [ 121.836753392091467, 13.481054555564391 ], [ 121.836939116539355, 13.481257753211358 ], [ 121.836806984325719, 13.481400907019678 ] ] ] } },
{ "type": "Feature", "properties": { "Id": 0, "CLN": "8440", "PSGC": "174001019", "Barangay": "Maligaya", "Land_Class": null, "Area": 0.0, "PIN": "030-01-035-01-006" }, "geometry": { "type": "Polygon", "coordinates": [ [ [ 121.836935148636911, 13.481545266698975 ], [ 121.837122381266141, 13.481732777482415 ], [ 121.838117746577041, 13.481086655577119 ], [ 121.837889546697227, 13.480843467268555 ], [ 121.836935148636911, 13.481545266698975 ] ] ] } },
{ "type": "Feature", "properties": { "Id": 0, "CLN": "8446", "PSGC": "174001019", "Barangay": "Maligaya", "Land_Class": null, "Area": 0.0, "PIN": "030-01-035-01-007" }, "geometry": { "type": "Polygon", "coordinates": [ [ [ 121.837122381266141, 13.481732777482415 ], [ 121.837260781558328, 13.481892317688239 ], [ 121.837421116657183, 13.48177956076078 ], [ 121.838354628863371, 13.481133151458181 ], [ 121.838117746577041, 13.481086655577119 ], [ 121.837122381266141, 13.481732777482415 ] ] ] } },
{ "type": "Feature", "properties": { "Id": 0, "CLN": "8445", "PSGC": "174001019", "Barangay": "Maligaya", "Land_Class": null, "Area": 0.0, "PIN": "030-01-035-01-168" }, "geometry": { "type": "Polygon", "coordinates": [ [ [ 121.837260781558328, 13.481892317688239 ], [ 121.837381190406333, 13.482041685676059 ], [ 121.837549281546345, 13.48192392016851 ], [ 121.837421116657183, 13.48177956076078 ], [ 121.837260781558328, 13.481892317688239 ] ] ] } },
{ "type": "Feature", "properties": { "Id": 0, "CLN": "8405", "PSGC": "174001019", "Barangay": "Maligaya", "Land_Class": null, "Area": 0.0, "PIN": "030-01-035-01-010" }, "geometry": { "type": "Polygon", "coordinates": [ [ [ 121.840438301771371, 13.483267980504005 ], [ 121.840310007399935, 13.483506157244189 ], [ 121.840185424847505, 13.48368718091645 ], [ 121.840533139348395, 13.483554269226147 ], [ 121.840438301771371, 13.483267980504005 ] ] ] } },
{ "type": "Feature", "properties": { "Id": 0, "CLN": "8445", "PSGC": "174001019", "Barangay": "Maligaya", "Land_Class": null, "Area": 0.0, "PIN": "030-01-035-01-169" }, "geometry": { "type": "Polygon", "coordinates": [ [ [ 121.837381190406333, 13.482041685676059 ], [ 121.837534944515127, 13.482223996742652 ], [ 121.8385872773367, 13.481522648193771 ], [ 121.838745144050705, 13.48138717903489 ], [ 121.838354628863371, 13.481133151458181 ], [ 121.837421116657183, 13.48177956076078 ], [ 121.837549281546345, 13.48192392016851 ], [ 121.837381190406333, 13.482041685676059 ] ] ] } },
{ "type": "Feature", "properties": { "Id": 0, "CLN": "8406", "PSGC": "174001019", "Barangay": "Maligaya", "Land_Class": null, "Area": 0.0, "PIN": "030-01-035-01-009" }, "geometry": { "type": "Polygon", "coordinates": [ [ [ 121.837534944515127, 13.482223996742652 ], [ 121.838772290326105, 13.484403307928163 ], [ 121.839181358543499, 13.48476989293745 ], [ 121.839369123509414, 13.48478869691718 ], [ 121.83955434130722, 13.484385999523697 ], [ 121.839642952543699, 13.484063566144988 ], [ 121.839887147483935, 13.483782207155064 ], [ 121.84011251742244, 13.483603891324716 ], [ 121.838745144050705, 13.48138717903489 ], [ 121.8385872773367, 13.481522648193771 ], [ 121.837534944515127, 13.482223996742652 ] ] ] } },
{ "type": "Feature", "properties": { "Id": 0, "CLN": "8407", "PSGC": "174001019", "Barangay": "Maligaya", "Land_Class": null, "Area": 0.0, "PIN": "030-01-035-01-128" }, "geometry": { "type": "Polygon", "coordinates": [ [ [ 121.83876403078294, 13.481370129887035 ], [ 121.837955371283741, 13.480713135963478 ], [ 121.837465140423248, 13.480294701975984 ], [ 121.837092927909424, 13.480006889201023 ], [ 121.83706865363115, 13.480289264265313 ], [ 121.837215006471496, 13.48034374920597 ], [ 121.837360779902639, 13.480399632610945 ], [ 121.837889546697227, 13.480843467268555 ], [ 121.838117746577041, 13.481086655577119 ], [ 121.838354628863371, 13.481133151458181 ], [ 121.838745144050705, 13.48138717903489 ], [ 121.84011251742244, 13.483603891324716 ], [ 121.840259738222656, 13.483479021421928 ], [ 121.840348002067159, 13.483228328981923 ], [ 121.83876403078294, 13.481370129887035 ] ] ] } },
{ "type": "Feature", "properties": { "Id": 0, "CLN": "8464", "PSGC": "174001019", "Barangay": "Maligaya", "Land_Class": null, "Area": 0.0, "PIN": "030-01-035-01-117" }, "geometry": { "type": "Polygon", "coordinates": [ [ [ 121.840979479243089, 13.479553091176099 ], [ 121.841130965336475, 13.479493257236584 ], [ 121.841072986872064, 13.47940218998238 ], [ 121.840997811078182, 13.479314406293001 ], [ 121.840932927826728, 13.479230033044043 ], [ 121.840979479243089, 13.479553091176099 ] ] ] } },
{ "type": "Feature", "properties": { "Id": 0, "CLN": "8530", "PSGC": "174001019", "Barangay": "Maligaya", "Land_Class": null, "Area": 0.0, "PIN": "030-01-035-01-166" }, "geometry": { "type": "Polygon", "coordinates": [ [ [ 121.840058518177017, 13.474568282441236 ], [ 121.840042281027365, 13.474494727418675 ], [ 121.839582009004971, 13.474936929995273 ], [ 121.839607199558557, 13.475010504768434 ], [ 121.840058518177017, 13.474568282441236 ] ] ] } },
{ "type": "Feature", "properties": { "Id": 0, "CLN": "8495", "PSGC": "174001019", "Barangay": "Maligaya", "Land_Class": null, "Area": 0.0, "PIN": "030-01-035-01-153" }, "geometry": { "type": "Polygon", "coordinates": [ [ [ 121.840023020785267, 13.478968183316983 ], [ 121.839933028022159, 13.478809624336574 ], [ 121.839838504152951, 13.478636836481806 ], [ 121.83954429343035, 13.478721232264997 ], [ 121.839555092020163, 13.478797789263746 ], [ 121.839654432795129, 13.479115758245193 ], [ 121.840023020785267, 13.478968183316983 ] ] ] } },
{ "type": "Feature", "properties": { "Id": 0, "CLN": "8495", "PSGC": "174001019", "Barangay": "Maligaya", "Land_Class": null, "Area": 0.0, "PIN": "030-01-035-01-201" }, "geometry": { "type": "Polygon", "coordinates": [ [ [ 121.840064950841636, 13.479042060147803 ], [ 121.840023020785267, 13.478968183316983 ], [ 121.839838726842004, 13.479041970853539 ], [ 121.839885900253051, 13.479124973696875 ], [ 121.840064950841636, 13.479042060147803 ] ] ] } },
{ "type": "Feature", "properties": { "Id": 0, "CLN": "8495", "PSGC": "174001019", "Barangay": "Maligaya", "Land_Class": null, "Area": 0.0, "PIN": "030-01-035-01-202" }, "geometry": { "type": "Polygon", "coordinates": [ [ [ 121.840064950841636, 13.479042060147803 ], [ 121.839885900253051, 13.479124973696875 ], [ 121.839933272981909, 13.479208327183404 ], [ 121.840115414524462, 13.479111450847633 ], [ 121.840072729271881, 13.479055765007821 ], [ 121.840064950841636, 13.479042060147803 ] ] ] } },
{ "type": "Feature", "properties": { "Id": 0, "CLN": "8495", "PSGC": "174001019", "Barangay": "Maligaya", "Land_Class": null, "Area": 0.0, "PIN": "030-01-035-01-200" }, "geometry": { "type": "Polygon", "coordinates": [ [ [ 121.839885900253051, 13.479124973696875 ], [ 121.839838726842004, 13.479041970853539 ], [ 121.839654432795129, 13.479115758245193 ], [ 121.8396803016268, 13.479198558823454 ], [ 121.839689646847447, 13.47921585319137 ], [ 121.839885900253051, 13.479124973696875 ] ] ] } },
{ "type": "Feature", "properties": { "Id": 0, "CLN": "8495", "PSGC": "174001019", "Barangay": "Maligaya", "Land_Class": null, "Area": 0.0, "PIN": "030-01-035-01-199" }, "geometry": { "type": "Polygon", "coordinates": [ [ [ 121.839885900253051, 13.479124973696875 ], [ 121.839689646847447, 13.47921585319137 ], [ 121.839740875792216, 13.47931065799292 ], [ 121.839933272981909, 13.479208327183404 ], [ 121.839885900253051, 13.479124973696875 ] ] ] } },
{ "type": "Feature", "properties": { "Id": 0, "CLN": "8495", "PSGC": "174001019", "Barangay": "Maligaya", "Land_Class": null, "Area": 0.0, "PIN": "030-01-035-01-198" }, "geometry": { "type": "Polygon", "coordinates": [ [ [ 121.83998160519954, 13.479293368850675 ], [ 121.839933272981909, 13.479208327183404 ], [ 121.839740875792216, 13.47931065799292 ], [ 121.839788924415217, 13.479399577187602 ], [ 121.83998160519954, 13.479293368850675 ] ] ] } },
{ "type": "Feature", "properties": { "Id": 0, "CLN": "8495", "PSGC": "174001019", "Barangay": "Maligaya", "Land_Class": null, "Area": 0.0, "PIN": "030-01-035-01-204" }, "geometry": { "type": "Polygon", "coordinates": [ [ [ 121.840173972417674, 13.479191921713236 ], [ 121.83998160519954, 13.479293368850675 ], [ 121.840029937449572, 13.47937841051081 ], [ 121.840222901658976, 13.479268324482705 ], [ 121.840173972417674, 13.479191921713236 ] ] ] } },
{ "type": "Feature", "properties": { "Id": 0, "CLN": "8495", "PSGC": "174001019", "Barangay": "Maligaya", "Land_Class": null, "Area": 0.0, "PIN": "030-01-035-01-203" }, "geometry": { "type": "Polygon", "coordinates": [ [ [ 121.840173972417674, 13.479191921713236 ], [ 121.840158099796326, 13.479167136681522 ], [ 121.840115414524462, 13.479111450847633 ], [ 121.839933272981909, 13.479208327183404 ], [ 121.83998160519954, 13.479293368850675 ], [ 121.840173972417674, 13.479191921713236 ] ] ] } },
{ "type": "Feature", "properties": { "Id": 0, "CLN": "8436", "PSGC": "174001019", "Barangay": "Maligaya", "Land_Class": null, "Area": 0.0, "PIN": "030-01-035-01-219" }, "geometry": { "type": "Polygon", "coordinates": [ [ [ 121.84065490315534, 13.481217575150138 ], [ 121.840712644807866, 13.481337995902564 ], [ 121.840929321319877, 13.481262452030567 ], [ 121.840881965159625, 13.481128211776982 ], [ 121.84065490315534, 13.481217575150138 ] ] ] } },
{ "type": "Feature", "properties": { "Id": 0, "CLN": "8436", "PSGC": "174001019", "Barangay": "Maligaya", "Land_Class": null, "Area": 0.0, "PIN": "030-01-035-01-214" }, "geometry": { "type": "Polygon", "coordinates": [ [ [ 121.840712644807866, 13.481337995902564 ], [ 121.84065490315534, 13.481217575150138 ], [ 121.840427840996753, 13.481306938303613 ], [ 121.84046417012236, 13.481374365079043 ], [ 121.840517637340142, 13.481450838863452 ], [ 121.84054791030826, 13.481494734563498 ], [ 121.840586102000515, 13.481476148019455 ], [ 121.840571563940657, 13.481449768799626 ], [ 121.840731973165887, 13.481384729299323 ], [ 121.840712644807866, 13.481337995902564 ] ] ] } },
{ "type": "Feature", "properties": { "Id": 0, "CLN": "8421", "PSGC": "174001019", "Barangay": "Maligaya", "Land_Class": null, "Area": 0.0, "PIN": "030-01-035-01-192" }, "geometry": { "type": "Polygon", "coordinates": [ [ [ 121.841413721882773, 13.482048788135105 ], [ 121.841485925464141, 13.482143452488858 ], [ 121.841584290643269, 13.48205436781971 ], [ 121.841540854859602, 13.481975978796765 ], [ 121.841413721882773, 13.482048788135105 ] ] ] } },
{ "type": "Feature", "properties": { "Id": 0, "CLN": "8509", "PSGC": null, "Barangay": "Maligaya", "Land_Class": null, "Area": 0.0, "PIN": "030-01-035-01-053" }, "geometry": { "type": "Polygon", "coordinates": [ [ [ 121.837994709684779, 13.477793459608359 ], [ 121.838505047476062, 13.477783209402524 ], [ 121.838464792224613, 13.477046537500131 ], [ 121.8381479370194, 13.477017327534089 ], [ 121.837729976040109, 13.477111237621099 ], [ 121.837941137749496, 13.477679712231931 ], [ 121.837994709684779, 13.477793459608359 ] ] ] } }
]
}
