{
"type": "FeatureCollection",
"name": "Pili",
"crs": { "type": "name", "properties": { "name": "urn:ogc:def:crs:OGC:1.3:CRS84" } },
"features": [
{ "type": "Feature", "properties": { "Id": 0, "CLN": "5940 RW", "PSGC": "174001043", "Barangay": "Pili", "Land_Class": null, "PIN": "030-01-040-01-", "ALN": null, "Section": "01", "Brgy_Code": "040" }, "geometry": { "type": "Polygon", "coordinates": [ [ [ 121.822587722327285, 13.46445285162457 ], [ 121.822509766749675, 13.464326696407328 ], [ 121.822480698555694, 13.464338981146179 ], [ 121.822556733897386, 13.464469511499248 ], [ 121.822744992201763, 13.464792695069329 ], [ 121.822781381724226, 13.4647662492685 ], [ 121.822587722327285, 13.46445285162457 ] ] ] } },
{ "type": "Feature", "properties": { "Id": 0, "CLN": "5907 RW", "PSGC": "174001043", "Barangay": "Pili", "Land_Class": null, "PIN": "030-01-040-02-", "ALN": null, "Section": "02", "Brgy_Code": "040" }, "geometry": { "type": "Polygon", "coordinates": [ [ [ 121.822480698555694, 13.464338981146147 ], [ 121.822509766749675, 13.464326696407309 ], [ 121.822427047210837, 13.464187904497832 ], [ 121.822408856818797, 13.464200240188532 ], [ 121.822480698555694, 13.464338981146147 ] ] ] } },
{ "type": "Feature", "properties": { "Id": 0, "CLN": "5949 RW", "PSGC": "174001043", "Barangay": "Pili", "Land_Class": null, "PIN": "030-01-040-02-", "ALN": null, "Section": "02", "Brgy_Code": "040" }, "geometry": { "type": "Polygon", "coordinates": [ [ [ 121.822360462189508, 13.46408645088014 ], [ 121.822380309330882, 13.464106062431501 ], [ 121.822694967180468, 13.463899929737018 ], [ 121.822667920232732, 13.4638696379946 ], [ 121.822360462189508, 13.46408645088014 ] ] ] } },
{ "type": "Feature", "properties": { "Id": 0, "CLN": "5911", "PSGC": "174001043", "Barangay": "Pili", "Land_Class": null, "PIN": "030-01-040-02-002", "ALN": "002", "Section": "02", "Brgy_Code": "040" }, "geometry": { "type": "Polygon", "coordinates": [ [ [ 121.823150949587671, 13.464453908265478 ], [ 121.823835401395087, 13.46524267225899 ], [ 121.824108019981281, 13.464881883430396 ], [ 121.823748200177235, 13.464513818204006 ], [ 121.823728448809618, 13.464386613774266 ], [ 121.823551632676669, 13.464452235075225 ], [ 121.82347420397447, 13.464343633296707 ], [ 121.823393175421288, 13.464229691400401 ], [ 121.823342230291743, 13.464266715662504 ], [ 121.823247513804048, 13.464356767478709 ], [ 121.823150949587671, 13.464453908265478 ] ] ] } },
{ "type": "Feature", "properties": { "Id": 0, "CLN": "5912", "PSGC": "174001043", "Barangay": "Pili", "Land_Class": null, "PIN": "030-01-040-02-003", "ALN": "003", "Section": "02", "Brgy_Code": "040" }, "geometry": { "type": "Polygon", "coordinates": [ [ [ 121.823474203974442, 13.464343633296709 ], [ 121.823551632676669, 13.464452235075234 ], [ 121.823728448809632, 13.464386613774257 ], [ 121.823700842125845, 13.464341145161539 ], [ 121.823587067376153, 13.464250117485946 ], [ 121.823474203974442, 13.464343633296709 ] ] ] } },
{ "type": "Feature", "properties": { "Id": 0, "CLN": "5913", "PSGC": "174001043", "Barangay": "Pili", "Land_Class": null, "PIN": "030-01-040-02-004", "ALN": "004", "Section": "02", "Brgy_Code": "040" }, "geometry": { "type": "Polygon", "coordinates": [ [ [ 121.823393175421288, 13.464229691400401 ], [ 121.82347420397447, 13.464343633296723 ], [ 121.823587067376153, 13.464250117485946 ], [ 121.823516838554809, 13.46415219591487 ], [ 121.823393175421288, 13.464229691400401 ] ] ] } },
{ "type": "Feature", "properties": { "Id": 0, "CLN": "5939 RW", "PSGC": "174001043", "Barangay": "Pili", "Land_Class": null, "PIN": "030-01-040-02-", "ALN": null, "Section": "02", "Brgy_Code": "040" }, "geometry": { "type": "Polygon", "coordinates": [ [ [ 121.822794454233374, 13.464688236207909 ], [ 121.822834434970176, 13.464668904879005 ], [ 121.822739050390311, 13.464524730492407 ], [ 121.822700908667898, 13.464538747174446 ], [ 121.822794454233374, 13.464688236207909 ] ] ] } },
{ "type": "Feature", "properties": { "Id": 0, "CLN": "5938", "PSGC": "174001043", "Barangay": "Pili", "Land_Class": null, "PIN": "030-01-040-02-009", "ALN": "009", "Section": "02", "Brgy_Code": "040" }, "geometry": { "type": "Polygon", "coordinates": [ [ [ 121.822739050390311, 13.464524730492407 ], [ 121.822834434970176, 13.464668904879005 ], [ 121.822907196600866, 13.464619561990283 ], [ 121.822849650074005, 13.464523474053735 ], [ 121.822820876827009, 13.464475430081668 ], [ 121.822739050390311, 13.464524730492407 ] ] ] } },
{ "type": "Feature", "properties": { "Id": 0, "CLN": "5926", "PSGC": "174001043", "Barangay": "Pili", "Land_Class": null, "PIN": "030-01-040-02-008", "ALN": "008", "Section": "02", "Brgy_Code": "040" }, "geometry": { "type": "Polygon", "coordinates": [ [ [ 121.822907196600866, 13.464619561990283 ], [ 121.823150949587671, 13.464453908265474 ], [ 121.823075273329792, 13.464357735493072 ], [ 121.822969704933044, 13.464442413135183 ], [ 121.822849650074005, 13.464523474053735 ], [ 121.822907196600866, 13.464619561990283 ] ] ] } },
{ "type": "Feature", "properties": { "Id": 0, "CLN": "5927", "PSGC": "174001043", "Barangay": "Pili", "Land_Class": null, "PIN": "030-01-040-02-011", "ALN": "011", "Section": "02", "Brgy_Code": "040" }, "geometry": { "type": "Polygon", "coordinates": [ [ [ 121.822820876827009, 13.464475430081668 ], [ 121.822849650074005, 13.464523474053735 ], [ 121.822969704933044, 13.464442413135183 ], [ 121.822899432955566, 13.464353363284319 ], [ 121.822801133722791, 13.464434526060412 ], [ 121.822820876827009, 13.464475430081668 ] ] ] } },
{ "type": "Feature", "properties": { "Id": 0, "CLN": "5928", "PSGC": "174001043", "Barangay": "Pili", "Land_Class": null, "PIN": "030-01-040-02-012", "ALN": "012", "Section": "02", "Brgy_Code": "040" }, "geometry": { "type": "Polygon", "coordinates": [ [ [ 121.822899432955566, 13.464353363284319 ], [ 121.822969704933044, 13.464442413135183 ], [ 121.823075273329792, 13.464357735493072 ], [ 121.823008653284987, 13.464263379522714 ], [ 121.822899432955566, 13.464353363284319 ] ] ] } },
{ "type": "Feature", "properties": { "Id": 0, "CLN": "5936 RW", "PSGC": "174001043", "Barangay": "Pili", "Land_Class": null, "PIN": "030-01-040-02-", "ALN": null, "Section": "02", "Brgy_Code": "040" }, "geometry": { "type": "Polygon", "coordinates": [ [ [ 121.822700908667898, 13.464538747174446 ], [ 121.822739050390311, 13.464524730492407 ], [ 121.822677895372664, 13.464425076791143 ], [ 121.822637940697192, 13.464439084973197 ], [ 121.822700908667898, 13.464538747174446 ] ] ] } },
{ "type": "Feature", "properties": { "Id": 0, "CLN": "5937", "PSGC": "174001043", "Barangay": "Pili", "Land_Class": null, "PIN": "030-01-040-02-010", "ALN": "010", "Section": "02", "Brgy_Code": "040" }, "geometry": { "type": "Polygon", "coordinates": [ [ [ 121.822677895372664, 13.464425076791143 ], [ 121.822739050390311, 13.464524730492407 ], [ 121.822820876827009, 13.464475430081668 ], [ 121.822801133722791, 13.464434526060412 ], [ 121.822756139230222, 13.46436688754148 ], [ 121.822677895372664, 13.464425076791143 ] ] ] } },
{ "type": "Feature", "properties": { "Id": 0, "CLN": "5935 RW", "PSGC": "174001043", "Barangay": "Pili", "Land_Class": null, "PIN": "030-01-040-02-", "ALN": null, "Section": "02", "Brgy_Code": "040" }, "geometry": { "type": "Polygon", "coordinates": [ [ [ 121.822637940697192, 13.464439084973197 ], [ 121.822677895372664, 13.464425076791143 ], [ 121.822595288500722, 13.464263218053919 ], [ 121.822557086075435, 13.464289655341084 ], [ 121.822637940697192, 13.464439084973197 ] ] ] } },
{ "type": "Feature", "properties": { "Id": 0, "CLN": "5934", "PSGC": "174001043", "Barangay": "Pili", "Land_Class": null, "PIN": "030-01-040-02-018", "ALN": "018", "Section": "02", "Brgy_Code": "040" }, "geometry": { "type": "Polygon", "coordinates": [ [ [ 121.822595288500722, 13.464263218053919 ], [ 121.822677895372664, 13.464425076791143 ], [ 121.822756139230222, 13.46436688754148 ], [ 121.822729100902563, 13.464334821426887 ], [ 121.822649842308806, 13.46422975968572 ], [ 121.822595288500722, 13.464263218053919 ] ] ] } },
{ "type": "Feature", "properties": { "Id": 0, "CLN": "5929", "PSGC": "174001043", "Barangay": "Pili", "Land_Class": null, "PIN": "030-01-040-02-013", "ALN": "013", "Section": "02", "Brgy_Code": "040" }, "geometry": { "type": "Polygon", "coordinates": [ [ [ 121.822729100902563, 13.464334821426887 ], [ 121.822756139230222, 13.46436688754148 ], [ 121.822801133722791, 13.464434526060412 ], [ 121.822899432955566, 13.464353363284319 ], [ 121.823008653284987, 13.464263379522714 ], [ 121.822936585722204, 13.464170772444959 ], [ 121.822810996674335, 13.464271326013442 ], [ 121.822729100902563, 13.464334821426887 ] ] ] } },
{ "type": "Feature", "properties": { "Id": 0, "CLN": "5930", "PSGC": "174001043", "Barangay": "Pili", "Land_Class": null, "PIN": "030-01-040-02-017", "ALN": "017", "Section": "02", "Brgy_Code": "040" }, "geometry": { "type": "Polygon", "coordinates": [ [ [ 121.822649842308806, 13.46422975968572 ], [ 121.822729100902563, 13.464334821426887 ], [ 121.822810996674335, 13.464271326013442 ], [ 121.822742589822113, 13.46417163836702 ], [ 121.822649842308806, 13.46422975968572 ] ] ] } },
{ "type": "Feature", "properties": { "Id": 0, "CLN": "5931", "PSGC": "174001043", "Barangay": "Pili", "Land_Class": null, "PIN": "030-01-040-02-016", "ALN": "016", "Section": "02", "Brgy_Code": "040" }, "geometry": { "type": "Polygon", "coordinates": [ [ [ 121.822742589822113, 13.46417163836702 ], [ 121.822810996674335, 13.464271326013442 ], [ 121.822936585722204, 13.464170772444959 ], [ 121.822877165589333, 13.464087096655316 ], [ 121.822842632523475, 13.464104679095598 ], [ 121.822742589822113, 13.46417163836702 ] ] ] } },
{ "type": "Feature", "properties": { "Id": 0, "CLN": "5932", "PSGC": "174001043", "Barangay": "Pili", "Land_Class": null, "PIN": "030-01-040-02-019", "ALN": "019", "Section": "02", "Brgy_Code": "040" }, "geometry": { "type": "Polygon", "coordinates": [ [ [ 121.822595288500722, 13.464263218053919 ], [ 121.822649842308806, 13.46422975968572 ], [ 121.822742589822113, 13.46417163836702 ], [ 121.822842632523475, 13.464104679095598 ], [ 121.822759765368161, 13.463996051659127 ], [ 121.822532442117833, 13.464138714585689 ], [ 121.822595288500722, 13.464263218053919 ] ] ] } },
{ "type": "Feature", "properties": { "Id": 0, "CLN": "5933 RW", "PSGC": "174001043", "Barangay": "Pili", "Land_Class": null, "PIN": "030-01-040-02-", "ALN": null, "Section": "02", "Brgy_Code": "040" }, "geometry": { "type": "Polygon", "coordinates": [ [ [ 121.822595288500722, 13.464263218053919 ], [ 121.822532442117833, 13.464138714585689 ], [ 121.822759765368161, 13.463996051659127 ], [ 121.822730914114331, 13.463963977056528 ], [ 121.822507173422736, 13.464115528817773 ], [ 121.822557086075435, 13.464289655341084 ], [ 121.822595288500722, 13.464263218053919 ] ] ] } },
{ "type": "Feature", "properties": { "Id": 0, "CLN": "5925", "PSGC": "174001043", "Barangay": "Pili", "Land_Class": null, "PIN": "030-01-040-02-007", "ALN": "007", "Section": "02", "Brgy_Code": "040" }, "geometry": { "type": "Polygon", "coordinates": [ [ [ 121.823008653284987, 13.464263379522714 ], [ 121.823075273329792, 13.464357735493072 ], [ 121.823150949587671, 13.464453908265474 ], [ 121.823247513804048, 13.464356767478709 ], [ 121.823114143529835, 13.464194671232526 ], [ 121.823008653284987, 13.464263379522714 ] ] ] } },
{ "type": "Feature", "properties": { "Id": 0, "CLN": "5924 pt", "PSGC": "174001043", "Barangay": "Pili", "Land_Class": null, "PIN": "030-01-040-02-087", "ALN": "087", "Section": "02", "Brgy_Code": "040" }, "geometry": { "type": "Polygon", "coordinates": [ [ [ 121.823041710608578, 13.464097779079797 ], [ 121.823114143529835, 13.464194671232526 ], [ 121.823225115970459, 13.4641171164785 ], [ 121.823154887339243, 13.46401919482058 ], [ 121.823041710608578, 13.464097779079797 ] ] ] } },
{ "type": "Feature", "properties": { "Id": 0, "CLN": "5923", "PSGC": "174001043", "Barangay": "Pili", "Land_Class": null, "PIN": "030-01-040-02-015", "ALN": "015", "Section": "02", "Brgy_Code": "040" }, "geometry": { "type": "Polygon", "coordinates": [ [ [ 121.822877165589333, 13.464087096655316 ], [ 121.822936585722204, 13.464170772444959 ], [ 121.823154887339243, 13.464019194820564 ], [ 121.823089984905252, 13.463944365489825 ], [ 121.823031874677937, 13.463963611985735 ], [ 121.82293362770028, 13.464034128582053 ], [ 121.822877165589333, 13.464087096655316 ] ] ] } },
{ "type": "Feature", "properties": { "Id": 0, "CLN": "5922", "PSGC": "174001043", "Barangay": "Pili", "Land_Class": null, "PIN": "030-01-040-02-020", "ALN": "020", "Section": "02", "Brgy_Code": "040" }, "geometry": { "type": "Polygon", "coordinates": [ [ [ 121.822759765368161, 13.463996051659127 ], [ 121.822842632523475, 13.464104679095598 ], [ 121.822877165589333, 13.464087096655316 ], [ 121.82293362770028, 13.464034128582053 ], [ 121.822863355843253, 13.463945078729211 ], [ 121.822759765368161, 13.463996051659127 ] ] ] } },
{ "type": "Feature", "properties": { "Id": 0, "CLN": "5921", "PSGC": "174001043", "Barangay": "Pili", "Land_Class": null, "PIN": "030-01-040-02-021", "ALN": "021", "Section": "02", "Brgy_Code": "040" }, "geometry": { "type": "Polygon", "coordinates": [ [ [ 121.822863355843253, 13.463945078729211 ], [ 121.82293362770028, 13.464034128582053 ], [ 121.823031874677937, 13.463963611985735 ], [ 121.822965220051941, 13.463876353512049 ], [ 121.822863355843253, 13.463945078729211 ] ] ] } },
{ "type": "Feature", "properties": { "Id": 0, "CLN": "5920", "PSGC": "174001043", "Barangay": "Pili", "Land_Class": null, "PIN": "030-01-040-02-022", "ALN": "022", "Section": "02", "Brgy_Code": "040" }, "geometry": { "type": "Polygon", "coordinates": [ [ [ 121.822965220051941, 13.463876353512049 ], [ 121.823031874677937, 13.463963611985735 ], [ 121.823089984905252, 13.463944365489825 ], [ 121.823133600092333, 13.463923276701335 ], [ 121.823058028066654, 13.463805811431245 ], [ 121.822965220051941, 13.463876353512049 ] ] ] } },
{ "type": "Feature", "properties": { "Id": 0, "CLN": "5914", "PSGC": "174001043", "Barangay": "Pili", "Land_Class": null, "PIN": "030-01-040-02-005", "ALN": "005", "Section": "02", "Brgy_Code": "040" }, "geometry": { "type": "Polygon", "coordinates": [ [ [ 121.823342230291743, 13.464266715662506 ], [ 121.823393175421288, 13.464229691400401 ], [ 121.823516838554809, 13.464152195914853 ], [ 121.82343024975863, 13.4640630698329 ], [ 121.823266458615976, 13.464190061073399 ], [ 121.823342230291743, 13.464266715662506 ] ] ] } },
{ "type": "Feature", "properties": { "Id": 0, "CLN": "5919", "PSGC": "174001043", "Barangay": "Pili", "Land_Class": null, "PIN": "030-01-040-02-023", "ALN": "023", "Section": "02", "Brgy_Code": "040" }, "geometry": { "type": "Polygon", "coordinates": [ [ [ 121.823058028066654, 13.463805811431245 ], [ 121.823133600092333, 13.463923276701335 ], [ 121.823226408082348, 13.463852734556074 ], [ 121.823148971032765, 13.463745907075472 ], [ 121.823058028066654, 13.463805811431245 ] ] ] } },
{ "type": "Feature", "properties": { "Id": 0, "CLN": "5916", "PSGC": "174001043", "Barangay": "Pili", "Land_Class": null, "PIN": "030-01-040-02-024", "ALN": "024", "Section": "02", "Brgy_Code": "040" }, "geometry": { "type": "Polygon", "coordinates": [ [ [ 121.823148971032765, 13.463745907075472 ], [ 121.823226408082348, 13.463852734556074 ], [ 121.82327550548662, 13.463822799325172 ], [ 121.82333371971599, 13.463782260263356 ], [ 121.823245361510715, 13.463684253768424 ], [ 121.823148971032765, 13.463745907075472 ] ] ] } },
{ "type": "Feature", "properties": { "Id": 0, "CLN": "5918", "PSGC": "174001043", "Barangay": "Pili", "Land_Class": null, "PIN": "030-01-040-02-045", "ALN": "045", "Section": "02", "Brgy_Code": "040" }, "geometry": { "type": "Polygon", "coordinates": [ [ [ 121.822759765368161, 13.463996051659127 ], [ 121.822863355843253, 13.463945078729211 ], [ 121.822965220051941, 13.463876353512049 ], [ 121.823058028066654, 13.463805811431245 ], [ 121.823148971032765, 13.463745907075472 ], [ 121.823245361510715, 13.463684253768424 ], [ 121.823223727378704, 13.463659310668582 ], [ 121.823038397716289, 13.4637418405497 ], [ 121.822759765368161, 13.463996051659127 ] ] ] } },
{ "type": "Feature", "properties": { "Id": 0, "CLN": "5917 RW", "PSGC": "174001043", "Barangay": "Pili", "Land_Class": null, "PIN": "030-01-040-02-", "ALN": null, "Section": "02", "Brgy_Code": "040" }, "geometry": { "type": "Polygon", "coordinates": [ [ [ 121.822759765368161, 13.463996051659127 ], [ 121.823038397716289, 13.4637418405497 ], [ 121.823223727378704, 13.463659310668582 ], [ 121.823198484673028, 13.463630801841921 ], [ 121.823014976660957, 13.463711565819155 ], [ 121.822730914114331, 13.463963977056528 ], [ 121.822759765368161, 13.463996051659127 ] ] ] } },
{ "type": "Feature", "properties": { "Id": 0, "CLN": "5958", "PSGC": "174001043", "Barangay": "Pili", "Land_Class": null, "PIN": "030-01-040-02-026", "ALN": "026", "Section": "02", "Brgy_Code": "040" }, "geometry": { "type": "Polygon", "coordinates": [ [ [ 121.823383459517785, 13.463991874178873 ], [ 121.823519925973613, 13.463891371201555 ], [ 121.823406498313901, 13.463729368445353 ], [ 121.82333371971599, 13.463782260263356 ], [ 121.82327550548662, 13.463822799325172 ], [ 121.823383459517785, 13.463991874178873 ] ] ] } },
{ "type": "Feature", "properties": { "Id": 0, "CLN": "5960 pt", "PSGC": "174001043", "Barangay": "Pili", "Land_Class": null, "PIN": "030-01-040-02-077", "ALN": "077", "Section": "02", "Brgy_Code": "040" }, "geometry": { "type": "Polygon", "coordinates": [ [ [ 121.824000474609718, 13.463737755873252 ], [ 121.823844994452259, 13.46385281169797 ], [ 121.823682839995897, 13.463572738710678 ], [ 121.823639545651673, 13.463528175705482 ], [ 121.823491984950039, 13.463672987249158 ], [ 121.823867078850284, 13.464084632685406 ], [ 121.824123564754885, 13.463910165410271 ], [ 121.824000474609718, 13.463737755873252 ] ] ] } },
{ "type": "Feature", "properties": { "Id": 0, "CLN": "5957 pt", "PSGC": "174001043", "Barangay": "Pili", "Land_Class": null, "PIN": "030-01-040-02-070", "ALN": "070", "Section": "02", "Brgy_Code": "040" }, "geometry": { "type": "Polygon", "coordinates": [ [ [ 121.823543646512263, 13.463622288209137 ], [ 121.823456742606552, 13.463503112371683 ], [ 121.823360072304581, 13.463583649021901 ], [ 121.823223727378704, 13.463659310668582 ], [ 121.823245361510715, 13.463684253768424 ], [ 121.82333371971599, 13.46378226026339 ], [ 121.823406498313901, 13.463729368445353 ], [ 121.823491984950039, 13.463672987249158 ], [ 121.823543646512263, 13.463622288209137 ] ] ] } },
{ "type": "Feature", "properties": { "Id": 0, "CLN": "5956 RW", "PSGC": "174001043", "Barangay": "Pili", "Land_Class": null, "PIN": "030-01-040-02-", "ALN": null, "Section": "02", "Brgy_Code": "040" }, "geometry": { "type": "Polygon", "coordinates": [ [ [ 121.823223727378704, 13.463659310668582 ], [ 121.823360072304581, 13.463583649021883 ], [ 121.823580342122227, 13.46340014068026 ], [ 121.823562299218437, 13.463382312079457 ], [ 121.823333007957515, 13.463556906097262 ], [ 121.823198484673028, 13.463630801841921 ], [ 121.823223727378704, 13.463659310668582 ] ] ] } },
{ "type": "Feature", "properties": { "Id": 0, "CLN": "5961", "PSGC": "174001043", "Barangay": "Pili", "Land_Class": null, "PIN": "030-01-040-02-029", "ALN": "029", "Section": "02", "Brgy_Code": "040" }, "geometry": { "type": "Polygon", "coordinates": [ [ [ 121.823580342122227, 13.46340014068026 ], [ 121.823639545651659, 13.463528175705465 ], [ 121.823682839995868, 13.463572738710678 ], [ 121.823806502692733, 13.463495243043281 ], [ 121.823669445849021, 13.463345550753663 ], [ 121.823580342122227, 13.46340014068026 ] ] ] } },
{ "type": "Feature", "properties": { "Id": 0, "CLN": "5962 RW", "PSGC": "174001043", "Barangay": "Pili", "Land_Class": null, "PIN": "030-01-040-02-", "ALN": null, "Section": "02", "Brgy_Code": "040" }, "geometry": { "type": "Polygon", "coordinates": [ [ [ 121.823580342122227, 13.46340014068026 ], [ 121.823669445849021, 13.463345550753663 ], [ 121.823647820365736, 13.463318833312877 ], [ 121.823562299218437, 13.463382312079457 ], [ 121.823580342122227, 13.46340014068026 ] ] ] } },
{ "type": "Feature", "properties": { "Id": 0, "CLN": "5966 pt", "PSGC": "174001043", "Barangay": "Pili", "Land_Class": null, "PIN": "030-01-040-02-093", "ALN": "093", "Section": "02", "Brgy_Code": "040" }, "geometry": { "type": "Polygon", "coordinates": [ [ [ 121.824031591460979, 13.463328496623197 ], [ 121.823896087734042, 13.463158324137463 ], [ 121.823788403474836, 13.463247281102538 ], [ 121.823867255862453, 13.463332882612834 ], [ 121.823924920777173, 13.463276981923871 ], [ 121.824015162448262, 13.463369237427406 ], [ 121.82403562448691, 13.463356882819452 ], [ 121.824130171436963, 13.463299797045346 ], [ 121.824124966509373, 13.463251863452371 ], [ 121.824031591460979, 13.463328496623197 ] ] ] } },
{ "type": "Feature", "properties": { "Id": 0, "CLN": "5968", "PSGC": "174001043", "Barangay": "Pili", "Land_Class": null, "PIN": "030-01-040-02-032", "ALN": "032", "Section": "02", "Brgy_Code": "040" }, "geometry": { "type": "Polygon", "coordinates": [ [ [ 121.824221661962, 13.463498959643429 ], [ 121.82431445216632, 13.463431965806596 ], [ 121.824174124338739, 13.463209507393069 ], [ 121.824124966509373, 13.463251863452371 ], [ 121.824130171436963, 13.463299797045346 ], [ 121.824221661962, 13.463498959643429 ] ] ] } },
{ "type": "Feature", "properties": { "Id": 0, "CLN": "5969", "PSGC": "174001043", "Barangay": "Pili", "Land_Class": null, "PIN": "030-01-040-02-048", "ALN": "048", "Section": "02", "Brgy_Code": "040" }, "geometry": { "type": "Polygon", "coordinates": [ [ [ 121.824174124338739, 13.463209507393069 ], [ 121.82431445216632, 13.463431965806596 ], [ 121.824403451807598, 13.463398668121053 ], [ 121.824248715546958, 13.463156623779405 ], [ 121.824174124338739, 13.463209507393069 ] ] ] } },
{ "type": "Feature", "properties": { "Id": 0, "CLN": "5970", "PSGC": "174001043", "Barangay": "Pili", "Land_Class": null, "PIN": "030-01-040-02-047", "ALN": "047", "Section": "02", "Brgy_Code": "040" }, "geometry": { "type": "Polygon", "coordinates": [ [ [ 121.824248715546958, 13.463156623779405 ], [ 121.824403451807598, 13.463398668121053 ], [ 121.824472543518738, 13.463358179640473 ], [ 121.824346987792367, 13.463080783474634 ], [ 121.824248715546958, 13.463156623779405 ] ] ] } },
{ "type": "Feature", "properties": { "Id": 0, "CLN": "5965 RW", "PSGC": "174001043", "Barangay": "Pili", "Land_Class": null, "PIN": "030-01-040-02-", "ALN": null, "Section": "02", "Brgy_Code": "040" }, "geometry": { "type": "Polygon", "coordinates": [ [ [ 121.823989826523771, 13.463080887298828 ], [ 121.823968192357981, 13.463055944260029 ], [ 121.823897765454902, 13.463113734862159 ], [ 121.823647820365736, 13.463318833312877 ], [ 121.823669445849049, 13.463345550753662 ], [ 121.823896087734042, 13.463158324137463 ], [ 121.823989826523771, 13.463080887298828 ] ] ] } },
{ "type": "Feature", "properties": { "Id": 0, "CLN": "5950 RW", "PSGC": "174001043", "Barangay": "Pili", "Land_Class": null, "PIN": "030-01-040-02-", "ALN": null, "Section": "02", "Brgy_Code": "040" }, "geometry": { "type": "Polygon", "coordinates": [ [ [ 121.822667920232732, 13.4638696379946 ], [ 121.822694967180468, 13.463899929737018 ], [ 121.822986386679403, 13.463662099496776 ], [ 121.822965195506782, 13.463616087263128 ], [ 121.822667920232732, 13.4638696379946 ] ] ] } },
{ "type": "Feature", "properties": { "Id": 0, "CLN": "5951", "PSGC": "174001043", "Barangay": "Pili", "Land_Class": null, "PIN": "030-01-040-02-037", "ALN": "037", "Section": "02", "Brgy_Code": "040" }, "geometry": { "type": "Polygon", "coordinates": [ [ [ 121.822574296935699, 13.4637361183116 ], [ 121.822667920232732, 13.463869637994614 ], [ 121.822965195506782, 13.463616087263128 ], [ 121.8229024369016, 13.463519974943365 ], [ 121.822711652750002, 13.463645643156875 ], [ 121.822574296935699, 13.4637361183116 ] ] ] } },
{ "type": "Feature", "properties": { "Id": 0, "CLN": "5947", "PSGC": "174001043", "Barangay": "Pili", "Land_Class": null, "PIN": "030-01-040-02-041", "ALN": "041", "Section": "02", "Brgy_Code": "040" }, "geometry": { "type": "Polygon", "coordinates": [ [ [ 121.82240694044728, 13.46385067136862 ], [ 121.822534272958734, 13.463764321486071 ], [ 121.822319389682207, 13.463461516356903 ], [ 121.822193123875735, 13.463535716762948 ], [ 121.82240694044728, 13.46385067136862 ] ] ] } },
{ "type": "Feature", "properties": { "Id": 0, "CLN": "5952 pt", "PSGC": "174001043", "Barangay": "Pili", "Land_Class": null, "PIN": "030-01-040-02-095", "ALN": "095", "Section": "02", "Brgy_Code": "040" }, "geometry": { "type": "Polygon", "coordinates": [ [ [ 121.822371900212872, 13.463425151004715 ], [ 121.822491123522809, 13.463601972995162 ], [ 121.822591021207444, 13.463526667738293 ], [ 121.822927901974808, 13.463224820300939 ], [ 121.822823296914677, 13.463112542281351 ], [ 121.822371900212872, 13.463425151004715 ] ] ] } },
{ "type": "Feature", "properties": { "Id": 0, "CLN": "5946", "PSGC": "174001043", "Barangay": "Pili", "Land_Class": null, "PIN": "030-01-040-02-040", "ALN": "040", "Section": "02", "Brgy_Code": "040" }, "geometry": { "type": "Polygon", "coordinates": [ [ [ 121.822823296914677, 13.463112542281351 ], [ 121.822642035949187, 13.463104595748032 ], [ 121.822469527420793, 13.463160569044446 ], [ 121.822239186443454, 13.463179008545062 ], [ 121.821876026356534, 13.463228105379057 ], [ 121.821539459475815, 13.463681935996714 ], [ 121.820876925013494, 13.464312178095522 ], [ 121.82091316156999, 13.464778311954737 ], [ 121.821012042023185, 13.464722980746748 ], [ 121.821329185147079, 13.464460572673085 ], [ 121.822067929386051, 13.463999579587638 ], [ 121.82240694044728, 13.463850671368636 ], [ 121.822193123875735, 13.463535716762948 ], [ 121.822319389682207, 13.463461516356917 ], [ 121.822823296914677, 13.463112542281351 ] ] ] } },
{ "type": "Feature", "properties": { "Id": 0, "CLN": "5953", "PSGC": "174001043", "Barangay": "Pili", "Land_Class": null, "PIN": "030-01-040-02-043", "ALN": "043", "Section": "02", "Brgy_Code": "040" }, "geometry": { "type": "Polygon", "coordinates": [ [ [ 121.822927901974808, 13.463224820300919 ], [ 121.822591021207444, 13.463526667738281 ], [ 121.822711652750002, 13.463645643156843 ], [ 121.8229024369016, 13.463519974943365 ], [ 121.82315030608126, 13.463346521873246 ], [ 121.822927901974808, 13.463224820300919 ] ] ] } },
{ "type": "Feature", "properties": { "Id": 0, "CLN": "5954", "PSGC": "174001043", "Barangay": "Pili", "Land_Class": null, "PIN": "030-01-040-02-036", "ALN": "036", "Section": "02", "Brgy_Code": "040" }, "geometry": { "type": "Polygon", "coordinates": [ [ [ 121.8229024369016, 13.463519974943365 ], [ 121.822965195506782, 13.463616087263128 ], [ 121.823123953364231, 13.463545133084327 ], [ 121.823298491797402, 13.463444808450973 ], [ 121.823509575359068, 13.463286098989263 ], [ 121.823491541138239, 13.463266496008767 ], [ 121.82315030608126, 13.463346521873246 ], [ 121.8229024369016, 13.463519974943365 ] ] ] } },
{ "type": "Feature", "properties": { "Id": 0, "CLN": "5955 RW", "PSGC": "174001043", "Barangay": "Pili", "Land_Class": null, "PIN": "030-01-040-02-", "ALN": null, "Section": "02", "Brgy_Code": "040" }, "geometry": { "type": "Polygon", "coordinates": [ [ [ 121.822965195506782, 13.463616087263128 ], [ 121.822986386679403, 13.463662099496776 ], [ 121.823223674848435, 13.463543825516906 ], [ 121.823321878184188, 13.46348218065836 ], [ 121.82352387963455, 13.463326977506449 ], [ 121.823509575359068, 13.463286098989263 ], [ 121.823298491797402, 13.463444808450973 ], [ 121.823123953364231, 13.463545133084327 ], [ 121.822965195506782, 13.463616087263128 ] ] ] } },
{ "type": "Feature", "properties": { "Id": 0, "CLN": "5963 RW", "PSGC": "174001043", "Barangay": "Pili", "Land_Class": null, "PIN": "030-01-040-02-", "ALN": null, "Section": "02", "Brgy_Code": "040" }, "geometry": { "type": "Polygon", "coordinates": [ [ [ 121.823509575359068, 13.463286098989263 ], [ 121.82352387963455, 13.463326977506449 ], [ 121.823929816051375, 13.462991737864725 ], [ 121.823913690097655, 13.46295262525978 ], [ 121.823509575359068, 13.463286098989263 ] ] ] } },
{ "type": "Feature", "properties": { "Id": 0, "CLN": "5973 RW", "PSGC": "174001043", "Barangay": "Pili", "Land_Class": null, "PIN": "030-01-040-02-", "ALN": null, "Section": "02", "Brgy_Code": "040" }, "geometry": { "type": "Polygon", "coordinates": [ [ [ 121.823913690097655, 13.46295262525978 ], [ 121.823929816051375, 13.462991737864725 ], [ 121.824232969683791, 13.462913307188913 ], [ 121.82422228255092, 13.46287422003795 ], [ 121.823913690097655, 13.46295262525978 ] ] ] } },
{ "type": "Feature", "properties": { "Id": 0, "CLN": "5976 RW", "PSGC": "174001043", "Barangay": "Pili", "Land_Class": null, "PIN": "030-01-040-02-", "ALN": null, "Section": "02", "Brgy_Code": "040" }, "geometry": { "type": "Polygon", "coordinates": [ [ [ 121.82422228255092, 13.46287422003795 ], [ 121.824232969683791, 13.462913307188913 ], [ 121.824307404845925, 13.462892362318986 ], [ 121.824646355470904, 13.462537289499958 ], [ 121.824619299737435, 13.462508772333205 ], [ 121.824293083126534, 13.462855032588559 ], [ 121.82422228255092, 13.46287422003795 ] ] ] } },
{ "type": "Feature", "properties": { "Id": 0, "CLN": "5974", "PSGC": "174001043", "Barangay": "Pili", "Land_Class": null, "PIN": "030-01-040-02-034", "ALN": "034", "Section": "02", "Brgy_Code": "040" }, "geometry": { "type": "Polygon", "coordinates": [ [ [ 121.823913690097655, 13.46295262525978 ], [ 121.82422228255092, 13.46287422003795 ], [ 121.824229828941313, 13.462813925167533 ], [ 121.82436810732797, 13.462713430115935 ], [ 121.824581048329264, 13.462360667839366 ], [ 121.8245782541088, 13.462357704933069 ], [ 121.824248502643286, 13.462705617537322 ], [ 121.82382706243645, 13.462900546897046 ], [ 121.823913690097655, 13.46295262525978 ] ] ] } },
{ "type": "Feature", "properties": { "Id": 0, "CLN": "5975", "PSGC": "174001043", "Barangay": "Pili", "Land_Class": null, "PIN": "030-01-040-02-046", "ALN": "046", "Section": "02", "Brgy_Code": "040" }, "geometry": { "type": "Polygon", "coordinates": [ [ [ 121.824619299737435, 13.462508772333205 ], [ 121.824581048329264, 13.462360667839366 ], [ 121.82436810732797, 13.462713430115935 ], [ 121.824229828941313, 13.462813925167533 ], [ 121.82422228255092, 13.46287422003795 ], [ 121.824293083126534, 13.462855032588559 ], [ 121.824619299737435, 13.462508772333205 ] ] ] } },
{ "type": "Feature", "properties": { "Id": 0, "CLN": "5906", "PSGC": "174001043", "Barangay": "Pili", "Land_Class": null, "PIN": "030-01-040-02-049", "ALN": "049", "Section": "02", "Brgy_Code": "040" }, "geometry": { "type": "Polygon", "coordinates": [ [ [ 121.824619299737435, 13.462508772333205 ], [ 121.825090399177398, 13.462111829196763 ], [ 121.825180715239327, 13.46193244364793 ], [ 121.825180819112646, 13.461911151125657 ], [ 121.825051660596586, 13.4619164283157 ], [ 121.824614681105871, 13.461949882516979 ], [ 121.824452961704395, 13.462034272687186 ], [ 121.824364961864887, 13.462239631419079 ], [ 121.824380831860054, 13.462330173577961 ], [ 121.8245782541088, 13.462357704933069 ], [ 121.824581048329264, 13.462360667839366 ], [ 121.824619299737435, 13.462508772333205 ] ] ] } },
{ "type": "Feature", "properties": { "Id": 0, "CLN": "5942 RW", "PSGC": "174001043", "Barangay": "Pili", "Land_Class": null, "PIN": "030-01-040-02-", "ALN": null, "Section": "02", "Brgy_Code": "040" }, "geometry": { "type": "Polygon", "coordinates": [ [ [ 121.824619299737435, 13.462508772333205 ], [ 121.824646355470904, 13.462537289499958 ], [ 121.82511065797425, 13.462147726438717 ], [ 121.825229960891619, 13.461941675240318 ], [ 121.825231141347928, 13.461908743134584 ], [ 121.825211123893425, 13.461909700999714 ], [ 121.825180819112646, 13.461911151125678 ], [ 121.825180715239327, 13.461932443647942 ], [ 121.825090399177398, 13.462111829196763 ], [ 121.824619299737435, 13.462508772333205 ] ] ] } },
{ "type": "Feature", "properties": { "Id": 0, "CLN": "5971", "PSGC": "174001043", "Barangay": "Pili", "Land_Class": null, "PIN": "030-01-040-02-033", "ALN": "033", "Section": "02", "Brgy_Code": "040" }, "geometry": { "type": "Polygon", "coordinates": [ [ [ 121.824346987792367, 13.463080783474634 ], [ 121.824312515059006, 13.463003593992664 ], [ 121.823989826523771, 13.463080887298828 ], [ 121.824124966509373, 13.463251863452371 ], [ 121.824174124338739, 13.463209507393101 ], [ 121.824248715546958, 13.463156623779435 ], [ 121.824249168052248, 13.463156274564691 ], [ 121.824346987792367, 13.463080783474634 ] ] ] } },
{ "type": "Feature", "properties": { "Id": 0, "CLN": "5972 RW", "PSGC": "174001043", "Barangay": "Pili", "Land_Class": null, "PIN": "030-01-040-02-", "ALN": null, "Section": "02", "Brgy_Code": "040" }, "geometry": { "type": "Polygon", "coordinates": [ [ [ 121.824312515058978, 13.463003593992676 ], [ 121.824294905193028, 13.462968141133047 ], [ 121.824176205485188, 13.463000041393169 ], [ 121.824068797162752, 13.463028907063785 ], [ 121.823968192357981, 13.463055944260029 ], [ 121.823989826523771, 13.463080887298828 ], [ 121.824312515058978, 13.463003593992676 ] ] ] } },
{ "type": "Feature", "properties": { "Id": 0, "CLN": "5945 pt", "PSGC": "174001043", "Barangay": "Pili", "Land_Class": null, "PIN": "030-01-040-01-004", "ALN": "004", "Section": "01", "Brgy_Code": "040" }, "geometry": { "type": "Polygon", "coordinates": [ [ [ 121.821474616241787, 13.464645506856931 ], [ 121.821329185147079, 13.464460572673085 ], [ 121.821012042023185, 13.464722980746748 ], [ 121.82091316156999, 13.464778311954737 ], [ 121.820859757333807, 13.464986161798546 ], [ 121.821076286774243, 13.465026811359035 ], [ 121.821474616241787, 13.464645506856931 ] ] ] } },
{ "type": "Feature", "properties": { "Id": 0, "CLN": "5902", "PSGC": "174001043", "Barangay": "Pili", "Land_Class": null, "PIN": "030-01-040-01-007", "ALN": "007", "Section": "01", "Brgy_Code": "040" }, "geometry": { "type": "Polygon", "coordinates": [ [ [ 121.820035648175732, 13.46605309783488 ], [ 121.82058620604235, 13.46669910689295 ], [ 121.820969431213001, 13.466216528124525 ], [ 121.820403258928337, 13.465795274234114 ], [ 121.820294320796719, 13.465998081592767 ], [ 121.820035648175732, 13.46605309783488 ] ] ] } },
{ "type": "Feature", "properties": { "Id": 0, "CLN": "5903", "PSGC": "174001043", "Barangay": "Pili", "Land_Class": null, "PIN": "030-01-040-01-006", "ALN": "006", "Section": "01", "Brgy_Code": "040" }, "geometry": { "type": "Polygon", "coordinates": [ [ [ 121.821104766536465, 13.467277609514188 ], [ 121.821375276458511, 13.46652141644323 ], [ 121.820969431213001, 13.466216528124525 ], [ 121.82058620604235, 13.46669910689295 ], [ 121.821104766536465, 13.467277609514188 ] ] ] } },
{ "type": "Feature", "properties": { "Id": 0, "CLN": "5904", "PSGC": "174001043", "Barangay": "Pili", "Land_Class": null, "PIN": "030-01-040-01-005", "ALN": "005", "Section": "01", "Brgy_Code": "040" }, "geometry": { "type": "Polygon", "coordinates": [ [ [ 121.820868192303891, 13.46526324594093 ], [ 121.820764915625716, 13.46555777286564 ], [ 121.821418807183449, 13.466366141558559 ], [ 121.821328520565544, 13.465255438430777 ], [ 121.820868192303891, 13.46526324594093 ] ] ] } },
{ "type": "Feature", "properties": { "Id": 0, "CLN": "5901", "PSGC": "174001043", "Barangay": "Pili", "Land_Class": null, "PIN": "030-01-040-01-008", "ALN": "008", "Section": "01", "Brgy_Code": "040" }, "geometry": { "type": "Polygon", "coordinates": [ [ [ 121.820483326976827, 13.465249480223513 ], [ 121.819902326671851, 13.464796187777448 ], [ 121.81977707601942, 13.464887586062314 ], [ 121.819259270980083, 13.465251706296609 ], [ 121.819226528433759, 13.465283445594876 ], [ 121.819865156418842, 13.465880454271915 ], [ 121.820625334815858, 13.46536376586254 ], [ 121.820483326976827, 13.465249480223513 ] ] ] } },
{ "type": "Feature", "properties": { "Id": 0, "CLN": "5908 RW", "PSGC": "174001043", "Barangay": "Pili", "Land_Class": null, "PIN": "030-01-040-01-", "ALN": null, "Section": "01", "Brgy_Code": "040" }, "geometry": { "type": "Polygon", "coordinates": [ [ [ 121.823029350935357, 13.46522166091566 ], [ 121.822781381724226, 13.4647662492685 ], [ 121.822744992201734, 13.464792695069328 ], [ 121.822961911232994, 13.465178859422277 ], [ 121.8231050751521, 13.465442572838775 ], [ 121.823207474196138, 13.465586239590392 ], [ 121.823419809092741, 13.465874252833787 ], [ 121.823525633007421, 13.466011089200371 ], [ 121.823557863546313, 13.465979845241144 ], [ 121.823370059658885, 13.46572892875338 ], [ 121.823029350935357, 13.46522166091566 ] ] ] } },
{ "type": "Feature", "properties": { "Id": 0, "CLN": "5944", "PSGC": "174001043", "Barangay": "Pili", "Land_Class": null, "PIN": "030-01-040-02-039", "ALN": "039", "Section": "02", "Brgy_Code": "040" }, "geometry": { "type": "Polygon", "coordinates": [ [ [ 121.822297927500074, 13.464268922683443 ], [ 121.822262032722961, 13.464194229061166 ], [ 121.822202422284036, 13.464223390005449 ], [ 121.822067929386051, 13.463999579587604 ], [ 121.821329185147079, 13.464460572673071 ], [ 121.821612464895892, 13.464820798680828 ], [ 121.822240597258784, 13.46449932805969 ], [ 121.822391455355273, 13.464421960590316 ], [ 121.822377081801207, 13.464395277020355 ], [ 121.822297927500074, 13.464268922683443 ] ] ] } },
{ "type": "Feature", "properties": { "Id": 0, "CLN": "5948", "PSGC": "174001043", "Barangay": "Pili", "Land_Class": null, "PIN": "030-01-040-02-038", "ALN": "038", "Section": "02", "Brgy_Code": "040" }, "geometry": { "type": "Polygon", "coordinates": [ [ [ 121.822667920232732, 13.4638696379946 ], [ 121.822574296935699, 13.463736118311584 ], [ 121.822534272958734, 13.463764321486071 ], [ 121.82240694044728, 13.46385067136862 ], [ 121.822067929386051, 13.463999579587604 ], [ 121.822202422284036, 13.464223390005449 ], [ 121.822262032722961, 13.464194229061166 ], [ 121.822380309330882, 13.464106062431501 ], [ 121.822360462189508, 13.46408645088014 ], [ 121.822667920232732, 13.4638696379946 ] ] ] } },
{ "type": "Feature", "properties": { "Id": 0, "CLN": "5910 pt", "PSGC": "174001043", "Barangay": "Pili", "Land_Class": null, "PIN": "030-01-040-02-054", "ALN": "054", "Section": "02", "Brgy_Code": "040" }, "geometry": { "type": "Polygon", "coordinates": [ [ [ 121.823689852657381, 13.465476653274916 ], [ 121.823340031561457, 13.465056244858506 ], [ 121.823391569365143, 13.465014618191454 ], [ 121.822999157843739, 13.464557065490579 ], [ 121.822937635074581, 13.464598876130703 ], [ 121.82305279439133, 13.464793432671147 ], [ 121.822938799369211, 13.464859649753615 ], [ 121.823138120629508, 13.465223944636994 ], [ 121.82354064236506, 13.465788383136621 ], [ 121.823689852657381, 13.465476653274916 ] ] ] } },
{ "type": "Feature", "properties": { "Id": 0, "CLN": "5909 RW", "PSGC": "174001043", "Barangay": "Pili", "Land_Class": null, "PIN": "030-01-040-02-", "ALN": null, "Section": "02", "Brgy_Code": "040" }, "geometry": { "type": "Polygon", "coordinates": [ [ [ 121.822938473594505, 13.464859054341737 ], [ 121.822834434970176, 13.46466890487906 ], [ 121.822794454233374, 13.464688236207955 ], [ 121.822901715450683, 13.464878454640582 ], [ 121.823096422254437, 13.465223749393168 ], [ 121.823520946797416, 13.465819373925457 ], [ 121.823540642365089, 13.465788383136658 ], [ 121.823138120629508, 13.465223944637012 ], [ 121.822938473594505, 13.464859054341737 ] ] ] } },
{ "type": "Feature", "properties": { "Id": 0, "CLN": "5943", "PSGC": "174001043", "Barangay": "Pili", "Land_Class": null, "PIN": "030-01-040-02-044", "ALN": "044", "Section": "02", "Brgy_Code": "040" }, "geometry": { "type": "Polygon", "coordinates": [ [ [ 121.822408856818797, 13.46420024018855 ], [ 121.822297927500074, 13.464268922683443 ], [ 121.822377081801207, 13.464395277020389 ], [ 121.822480698555722, 13.464338981146197 ], [ 121.822408856818797, 13.46420024018855 ] ] ] } },
{ "type": "Feature", "properties": { "Id": 0, "CLN": "5945 pt", "PSGC": "174001043", "Barangay": "Pili", "Land_Class": null, "PIN": "030-01-040-01-003", "ALN": "003", "Section": "01", "Brgy_Code": "040" }, "geometry": { "type": "Polygon", "coordinates": [ [ [ 121.821474616241787, 13.464645506856931 ], [ 121.821076286774243, 13.465026811359035 ], [ 121.821304632425253, 13.465069678989616 ], [ 121.821612464895921, 13.464820798680863 ], [ 121.821474616241787, 13.464645506856931 ] ] ] } },
{ "type": "Feature", "properties": { "Id": 0, "CLN": "5941 pt", "PSGC": "174001043", "Barangay": "Pili", "Land_Class": null, "PIN": "030-01-040-01-009", "ALN": "009", "Section": "01", "Brgy_Code": "040" }, "geometry": { "type": "Polygon", "coordinates": [ [ [ 121.822556934658806, 13.464469856147412 ], [ 121.822480698555694, 13.464338981146179 ], [ 121.822377081801207, 13.464395277020371 ], [ 121.822391455355273, 13.464421960590316 ], [ 121.822240597258784, 13.46449932805969 ], [ 121.822087797410845, 13.464577529424391 ], [ 121.822151920746776, 13.464679574950354 ], [ 121.822556934658806, 13.464469856147412 ] ] ] } },
{ "type": "Feature", "properties": { "Id": 0, "CLN": "5905 pt", "PSGC": "174001043", "Barangay": "Pili", "Land_Class": null, "PIN": "030-01-040-01-010", "ALN": "010", "Section": "01", "Brgy_Code": "040" }, "geometry": { "type": "Polygon", "coordinates": [ [ [ 121.822557832165629, 13.466843558219098 ], [ 121.822343109812522, 13.466686193056688 ], [ 121.822152639678748, 13.466756010713361 ], [ 121.821803157200279, 13.466683662344931 ], [ 121.821517392830614, 13.46618124892446 ], [ 121.821514156250231, 13.466425495457063 ], [ 121.821278396224088, 13.467078074457609 ], [ 121.821246223790823, 13.467331324441398 ], [ 121.8212140916104, 13.467342386154321 ], [ 121.821154475599627, 13.467351076457932 ], [ 121.821229811802851, 13.4674074919734 ], [ 121.822255601190491, 13.467083777092057 ], [ 121.822516692616858, 13.466873085527023 ], [ 121.822557832165629, 13.466843558219098 ] ] ] } },
{ "type": "Feature", "properties": { "Id": 0, "CLN": "5905 pt", "PSGC": "174001043", "Barangay": "Pili", "Land_Class": null, "PIN": "030-01-040-01-011", "ALN": "011", "Section": "01", "Brgy_Code": "040" }, "geometry": { "type": "Polygon", "coordinates": [ [ [ 121.822837867424468, 13.464958033882553 ], [ 121.822744992201763, 13.464792695069329 ], [ 121.822359540008918, 13.464998574797205 ], [ 121.822523055620934, 13.465172348113676 ], [ 121.822837867424468, 13.464958033882553 ] ] ] } },
{ "type": "Feature", "properties": { "Id": 0, "CLN": "5905 pt", "PSGC": "174001043", "Barangay": "Pili", "Land_Class": null, "PIN": "030-01-040-01-013", "ALN": "013", "Section": "01", "Brgy_Code": "040" }, "geometry": { "type": "Polygon", "coordinates": [ [ [ 121.822399174167714, 13.465235109494863 ], [ 121.82226965107084, 13.465046586602631 ], [ 121.82196175868971, 13.465647012162552 ], [ 121.822198355578706, 13.465642538598445 ], [ 121.822399174167714, 13.465235109494863 ] ] ] } },
{ "type": "Feature", "properties": { "Id": 0, "CLN": "5905 pt", "PSGC": "174001043", "Barangay": "Pili", "Land_Class": null, "PIN": "030-01-040-01-015", "ALN": "015", "Section": "01", "Brgy_Code": "040" }, "geometry": { "type": "Polygon", "coordinates": [ [ [ 121.822517975715286, 13.465408026707264 ], [ 121.822399174167714, 13.465235109494863 ], [ 121.822198355578706, 13.465642538598445 ], [ 121.822381007975537, 13.465643394455972 ], [ 121.822517975715286, 13.465408026707264 ] ] ] } },
{ "type": "Feature", "properties": { "Id": 0, "CLN": "5905 pt", "PSGC": "174001043", "Barangay": "Pili", "Land_Class": null, "PIN": "030-01-040-01-020", "ALN": "020", "Section": "01", "Brgy_Code": "040" }, "geometry": { "type": "Polygon", "coordinates": [ [ [ 121.823207474196138, 13.465586239590392 ], [ 121.8231050751521, 13.465442572838775 ], [ 121.822945649419594, 13.465553929942098 ], [ 121.822785945830546, 13.465553181986962 ], [ 121.822785563690317, 13.465631333644513 ], [ 121.822727798749895, 13.465779926787217 ], [ 121.822895107426035, 13.465780710408373 ], [ 121.823207474196138, 13.465586239590392 ] ] ] } },
{ "type": "Feature", "properties": { "Id": 0, "CLN": "5905 pt", "PSGC": "174001043", "Barangay": "Pili", "Land_Class": null, "PIN": "030-01-040-01-019", "ALN": "019", "Section": "01", "Brgy_Code": "040" }, "geometry": { "type": "Polygon", "coordinates": [ [ [ 121.823419809092741, 13.465874252833787 ], [ 121.823207474196138, 13.465586239590392 ], [ 121.822895107426035, 13.465780710408373 ], [ 121.822894829196557, 13.465780709105323 ], [ 121.822962842291147, 13.465926169747497 ], [ 121.823122054940455, 13.466027398322302 ], [ 121.823419809092741, 13.465874252833787 ] ] ] } },
{ "type": "Feature", "properties": { "Id": 0, "CLN": "5952 pt", "PSGC": "174001043", "Barangay": "Pili", "Land_Class": null, "PIN": "030-01-040-02-097", "ALN": "097", "Section": "02", "Brgy_Code": "040" }, "geometry": { "type": "Polygon", "coordinates": [ [ [ 121.822591021207444, 13.463526667738281 ], [ 121.822491123522809, 13.463601972995162 ], [ 121.822444211667829, 13.463637410736494 ], [ 121.822534272958734, 13.46376432148609 ], [ 121.822574296935699, 13.4637361183116 ], [ 121.822711652750002, 13.463645643156875 ], [ 121.822591021207444, 13.463526667738281 ] ] ] } },
{ "type": "Feature", "properties": { "Id": 0, "CLN": "5952 pt", "PSGC": "174001043", "Barangay": "Pili", "Land_Class": null, "PIN": "030-01-040-02-096", "ALN": "096", "Section": "02", "Brgy_Code": "040" }, "geometry": { "type": "Polygon", "coordinates": [ [ [ 121.822491123522809, 13.463601972995162 ], [ 121.822371900212872, 13.463425151004715 ], [ 121.822319389682207, 13.463461516356917 ], [ 121.822444211667829, 13.463637410736494 ], [ 121.822491123522809, 13.463601972995162 ] ] ] } },
{ "type": "Feature", "properties": { "Id": 0, "CLN": "5964", "PSGC": "174001043", "Barangay": "Pili", "Land_Class": null, "PIN": "030-01-040-02-035", "ALN": "035", "Section": "02", "Brgy_Code": "040" }, "geometry": { "type": "Polygon", "coordinates": [ [ [ 121.823913690097683, 13.46295262525978 ], [ 121.823491515780901, 13.463266648553226 ], [ 121.823509654358205, 13.463286166429571 ], [ 121.823913690097683, 13.46295262525978 ] ] ] } },
{ "type": "Feature", "properties": { "Id": 0, "CLN": "5910 pt", "PSGC": "174001043", "Barangay": "Pili", "Land_Class": null, "PIN": "030-01-040-02-076", "ALN": "076", "Section": "02", "Brgy_Code": "040" }, "geometry": { "type": "Polygon", "coordinates": [ [ [ 121.822937635074581, 13.464598876130703 ], [ 121.822907196600866, 13.464619561990283 ], [ 121.822834434970176, 13.464668904879026 ], [ 121.822938799369211, 13.464859649753615 ], [ 121.82305279439133, 13.464793432671147 ], [ 121.822937635074581, 13.464598876130703 ] ] ] } },
{ "type": "Feature", "properties": { "Id": 0, "CLN": "5910 pt", "PSGC": "174001043", "Barangay": "Pili", "Land_Class": null, "PIN": "030-01-040-02-056", "ALN": "056", "Section": "02", "Brgy_Code": "040" }, "geometry": { "type": "Polygon", "coordinates": [ [ [ 121.822999157843739, 13.464557065490579 ], [ 121.823391569365143, 13.465014618191454 ], [ 121.823340031561457, 13.465056244858506 ], [ 121.823689852657381, 13.465476653274916 ], [ 121.823734551070345, 13.465383269241674 ], [ 121.823835401395087, 13.465242672258992 ], [ 121.823150949587642, 13.464453908265476 ], [ 121.822999157843739, 13.464557065490579 ] ] ] } },
{ "type": "Feature", "properties": { "Id": 0, "CLN": "5924 pt", "PSGC": "174001043", "Barangay": "Pili", "Land_Class": null, "PIN": "030-01-040-02-088", "ALN": "088", "Section": "02", "Brgy_Code": "040" }, "geometry": { "type": "Polygon", "coordinates": [ [ [ 121.823114143529835, 13.464194671232526 ], [ 121.823041710608578, 13.464097779079797 ], [ 121.822936585722232, 13.464170772444957 ], [ 121.823008653284958, 13.464263379522697 ], [ 121.823114143529835, 13.464194671232526 ] ] ] } },
{ "type": "Feature", "properties": { "Id": 0, "CLN": "5915 pt", "PSGC": "174001043", "Barangay": "Pili", "Land_Class": null, "PIN": "030-01-040-02-057", "ALN": "057", "Section": "02", "Brgy_Code": "040" }, "geometry": { "type": "Polygon", "coordinates": [ [ [ 121.823266458615976, 13.464190061073399 ], [ 121.823225115970459, 13.4641171164785 ], [ 121.82322511597043, 13.4641171164785 ], [ 121.823225115970459, 13.464117116478533 ], [ 121.823114143529835, 13.464194671232526 ], [ 121.823247513804048, 13.464356767478741 ], [ 121.823342230291772, 13.464266715662506 ], [ 121.823266458615976, 13.464190061073399 ] ] ] } },
{ "type": "Feature", "properties": { "Id": 0, "CLN": "5915 pt", "PSGC": "174001043", "Barangay": "Pili", "Land_Class": null, "PIN": "030-01-040-02-058", "ALN": "058", "Section": "02", "Brgy_Code": "040" }, "geometry": { "type": "Polygon", "coordinates": [ [ [ 121.823351388449922, 13.463941645316885 ], [ 121.82327550548662, 13.463822799325188 ], [ 121.823226408082348, 13.463852734556086 ], [ 121.823184354673799, 13.463884698814422 ], [ 121.823133600092333, 13.463923276701335 ], [ 121.823089984905252, 13.463944365489823 ], [ 121.823154887339243, 13.46401919482058 ], [ 121.823182157445672, 13.464057218270012 ], [ 121.823351388449922, 13.463941645316885 ] ] ] } },
{ "type": "Feature", "properties": { "Id": 0, "CLN": "5959 pt", "PSGC": "174001043", "Barangay": "Pili", "Land_Class": null, "PIN": "030-01-040-02-061", "ALN": "061", "Section": "02", "Brgy_Code": "040" }, "geometry": { "type": "Polygon", "coordinates": [ [ [ 121.823579101778392, 13.463768593461486 ], [ 121.823481688546906, 13.463836758725739 ], [ 121.823519925973613, 13.463891371201555 ], [ 121.82355231843195, 13.463931827179728 ], [ 121.823655449261466, 13.463852380791963 ], [ 121.823579101778392, 13.463768593461486 ] ] ] } },
{ "type": "Feature", "properties": { "Id": 0, "CLN": "5959 pt", "PSGC": "174001043", "Barangay": "Pili", "Land_Class": null, "PIN": "030-01-040-02-060", "ALN": "060", "Section": "02", "Brgy_Code": "040" }, "geometry": { "type": "Polygon", "coordinates": [ [ [ 121.823579101778392, 13.463768593461486 ], [ 121.823491984950039, 13.463672987249158 ], [ 121.823406498313901, 13.463729368445353 ], [ 121.823481688546906, 13.463836758725739 ], [ 121.823579101778392, 13.463768593461486 ] ] ] } },
{ "type": "Feature", "properties": { "Id": 0, "CLN": "5957 pt", "PSGC": "174001043", "Barangay": "Pili", "Land_Class": null, "PIN": "030-01-040-02-069", "ALN": "069", "Section": "02", "Brgy_Code": "040" }, "geometry": { "type": "Polygon", "coordinates": [ [ [ 121.823456742606552, 13.463503112371683 ], [ 121.823543646512263, 13.463622288209137 ], [ 121.823639545651673, 13.463528175705482 ], [ 121.823580342122227, 13.463400140680235 ], [ 121.823456742606552, 13.463503112371683 ] ] ] } },
{ "type": "Feature", "properties": { "Id": 0, "CLN": "5960 pt", "PSGC": "174001043", "Barangay": "Pili", "Land_Class": null, "PIN": "030-01-040-02-078", "ALN": "078", "Section": "02", "Brgy_Code": "040" }, "geometry": { "type": "Polygon", "coordinates": [ [ [ 121.824000474609718, 13.463737755873252 ], [ 121.823821049710801, 13.46348643902661 ], [ 121.823806502692733, 13.463495243043296 ], [ 121.823682839995897, 13.463572738710678 ], [ 121.823844994452259, 13.46385281169797 ], [ 121.824000474609718, 13.463737755873252 ] ] ] } },
{ "type": "Feature", "properties": { "Id": 0, "CLN": "5966 pt", "PSGC": "174001043", "Barangay": "Pili", "Land_Class": null, "PIN": "030-01-040-02-092", "ALN": "092", "Section": "02", "Brgy_Code": "040" }, "geometry": { "type": "Polygon", "coordinates": [ [ [ 121.823956372241994, 13.463308947844341 ], [ 121.823924920777173, 13.463276981923871 ], [ 121.823867255862453, 13.463332882612834 ], [ 121.823894633242062, 13.46336260325438 ], [ 121.823956372241994, 13.463308947844341 ] ] ] } },
{ "type": "Feature", "properties": { "Id": 0, "CLN": "5905 pt", "PSGC": "174001043", "Barangay": "Pili", "Land_Class": null, "PIN": "030-01-040-01-018", "ALN": "018", "Section": "01", "Brgy_Code": "040" }, "geometry": { "type": "Polygon", "coordinates": [ [ [ 121.821517392830614, 13.46618124892446 ], [ 121.821803157200279, 13.466683662344931 ], [ 121.822152639678748, 13.466756010713361 ], [ 121.822343109812522, 13.466686193056688 ], [ 121.822557832165629, 13.466843558219098 ], [ 121.822578775203098, 13.466828526655334 ], [ 121.823166585328039, 13.466340175138775 ], [ 121.823525633007421, 13.466011089200371 ], [ 121.823419809092741, 13.465874252833787 ], [ 121.823122054940455, 13.466027398322302 ], [ 121.822962842291147, 13.465926169747497 ], [ 121.822894829196557, 13.465780709105323 ], [ 121.822727798749895, 13.465779926787217 ], [ 121.822785563690317, 13.465631333644513 ], [ 121.822785945830546, 13.465553181986962 ], [ 121.822945649419594, 13.465553929942098 ], [ 121.8231050751521, 13.465442572838775 ], [ 121.822961911232994, 13.465178859422277 ], [ 121.822519043472099, 13.46540958084003 ], [ 121.822517975715286, 13.465408026707264 ], [ 121.822451660661557, 13.465521983723134 ], [ 121.822381007975537, 13.465643394455972 ], [ 121.822198355578706, 13.465642538598445 ], [ 121.82196175868971, 13.465647012162552 ], [ 121.821910398074436, 13.46565235381637 ], [ 121.821760219869248, 13.465453475103514 ], [ 121.821701516693366, 13.465367781903955 ], [ 121.821526873671175, 13.465465771042965 ], [ 121.821517392830614, 13.46618124892446 ] ] ] } },
{ "type": "Feature", "properties": { "Id": 0, "CLN": "5905 pt", "PSGC": "174001043", "Barangay": "Pili", "Land_Class": null, "PIN": "030-01-040-01-017", "ALN": "017", "Section": "01", "Brgy_Code": "040" }, "geometry": { "type": "Polygon", "coordinates": [ [ [ 121.822201403883881, 13.464935248018024 ], [ 121.822100994137259, 13.46476912348297 ], [ 121.821664020999549, 13.465308097969334 ], [ 121.821701516693366, 13.465367781903955 ], [ 121.821760219869248, 13.465453475103514 ], [ 121.822201403883881, 13.464935248018024 ] ] ] } },
{ "type": "Feature", "properties": { "Id": 0, "CLN": "5905 pt", "PSGC": "174001043", "Barangay": "Pili", "Land_Class": null, "PIN": "030-01-040-01-016", "ALN": "016", "Section": "01", "Brgy_Code": "040" }, "geometry": { "type": "Polygon", "coordinates": [ [ [ 121.82196175868971, 13.465647012162552 ], [ 121.82226965107084, 13.465046586602631 ], [ 121.822201403883881, 13.464935248018024 ], [ 121.821760219869248, 13.465453475103514 ], [ 121.821910398074436, 13.46565235381637 ], [ 121.82196175868971, 13.465647012162552 ] ] ] } },
{ "type": "Feature", "properties": { "Id": 0, "CLN": "5905 pt", "PSGC": "174001043", "Barangay": "Pili", "Land_Class": null, "PIN": "030-01-040-01-014", "ALN": "014", "Section": "01", "Brgy_Code": "040" }, "geometry": { "type": "Polygon", "coordinates": [ [ [ 121.822961911232994, 13.465178859422277 ], [ 121.822837867424468, 13.464958033882553 ], [ 121.822523055620934, 13.465172348113676 ], [ 121.822359540008918, 13.464998574797205 ], [ 121.822198768019774, 13.464751570272018 ], [ 121.822100994137259, 13.46476912348297 ], [ 121.82226965107084, 13.465046586602631 ], [ 121.822519043472099, 13.46540958084003 ], [ 121.822961911232994, 13.465178859422277 ] ] ] } },
{ "type": "Feature", "properties": { "Id": 0, "CLN": "5941 pt", "PSGC": "174001043", "Barangay": "Pili", "Land_Class": null, "PIN": "030-01-040-01-021", "ALN": "021", "Section": "01", "Brgy_Code": "040" }, "geometry": { "type": "Polygon", "coordinates": [ [ [ 121.822198741866458, 13.464751530079402 ], [ 121.822198768019774, 13.464751570272018 ], [ 121.822359540008918, 13.464998574797205 ], [ 121.822744992201763, 13.464792695069329 ], [ 121.822556934658806, 13.464469856147412 ], [ 121.822151920746776, 13.464679574950354 ], [ 121.822087797410845, 13.464577529424391 ], [ 121.821612464895921, 13.464820798680863 ], [ 121.821304632425253, 13.465069678989616 ], [ 121.821453567222079, 13.46522884503301 ], [ 121.821498968905658, 13.465315393631446 ], [ 121.821526873671175, 13.465465771042965 ], [ 121.821701516693366, 13.465367781903955 ], [ 121.821664020999549, 13.465308097969334 ], [ 121.822100994137259, 13.46476912348297 ], [ 121.822198741866458, 13.464751530079402 ] ] ] } },
{ "type": "Feature", "properties": { "Id": 0, "CLN": "5915 pt", "PSGC": "174001043", "Barangay": "Pili", "Land_Class": null, "PIN": "030-01-040-02-066", "ALN": "066", "Section": "02", "Brgy_Code": "040" }, "geometry": { "type": "Polygon", "coordinates": [ [ [ 121.82322511597043, 13.4641171164785 ], [ 121.823225115970459, 13.4641171164785 ], [ 121.823266458615976, 13.464190061073399 ], [ 121.82343024975863, 13.464063069832937 ], [ 121.823383459517785, 13.463991874178873 ], [ 121.823351388449922, 13.463941645316885 ], [ 121.823182157445686, 13.464057218270032 ], [ 121.82322511597043, 13.4641171164785 ] ] ] } },
{ "type": "Feature", "properties": { "Id": 0, "CLN": "5959 pt", "PSGC": "174001043", "Barangay": "Pili", "Land_Class": null, "PIN": "030-01-040-02-098", "ALN": "098", "Section": "02", "Brgy_Code": "040" }, "geometry": { "type": "Polygon", "coordinates": [ [ [ 121.823639835280616, 13.464031861453424 ], [ 121.823748297112544, 13.463954276300919 ], [ 121.823655449261494, 13.463852380791977 ], [ 121.82355231843195, 13.463931827179728 ], [ 121.823639835280616, 13.464031861453424 ] ] ] } },
{ "type": "Feature", "properties": { "Id": 0, "CLN": "5959 pt", "PSGC": "174001043", "Barangay": "Pili", "Land_Class": null, "PIN": "030-01-040-02-099", "ALN": "099", "Section": "02", "Brgy_Code": "040" }, "geometry": { "type": "Polygon", "coordinates": [ [ [ 121.823780318367668, 13.464192461055077 ], [ 121.823867067899727, 13.464084643788331 ], [ 121.823748297112544, 13.463954276300919 ], [ 121.823639835280616, 13.464031861453424 ], [ 121.82355231843195, 13.463931827179728 ], [ 121.823519925973613, 13.463891371201555 ], [ 121.823383459517785, 13.463991874178873 ], [ 121.82343024975863, 13.464063069832937 ], [ 121.823516838554809, 13.464152195914853 ], [ 121.823587067376153, 13.464250117485946 ], [ 121.823700842125845, 13.464341145161592 ], [ 121.823728448809632, 13.464386613774314 ], [ 121.823780318367668, 13.464192461055077 ] ] ] } },
{ "type": "Feature", "properties": { "Id": 0, "CLN": "5967", "PSGC": "174001043", "Barangay": "Pili", "Land_Class": null, "PIN": "030-01-040-02-031", "ALN": "031", "Section": "02", "Brgy_Code": "040" }, "geometry": { "type": "Polygon", "coordinates": [ [ [ 121.824236983428534, 13.463849336415494 ], [ 121.824023914359714, 13.463597796007495 ], [ 121.824009381918998, 13.463603357693096 ], [ 121.823927024882991, 13.463634876392394 ], [ 121.824000474609718, 13.463737755873252 ], [ 121.824123564754885, 13.463910165410271 ], [ 121.824236983428534, 13.463849336415494 ] ] ] } },
{ "type": "Feature", "properties": { "Id": 0, "CLN": "5966 pt", "PSGC": "174001043", "Barangay": "Pili", "Land_Class": null, "PIN": "030-01-040-02-082", "ALN": "082", "Section": "02", "Brgy_Code": "040" }, "geometry": { "type": "Polygon", "coordinates": [ [ [ 121.824023914359714, 13.463597796007495 ], [ 121.824236983428534, 13.463849336415494 ], [ 121.824274086624939, 13.463829437115232 ], [ 121.824274086624939, 13.46382943711518 ], [ 121.82427443928573, 13.46382924797501 ], [ 121.824376381058116, 13.463744552763306 ], [ 121.824222151069591, 13.463499736028496 ], [ 121.824125285416869, 13.463550206205955 ], [ 121.824125260721544, 13.463550159864218 ], [ 121.824023914359714, 13.463597796007495 ] ] ] } },
{ "type": "Feature", "properties": { "Id": 0, "CLN": "5966 pt", "PSGC": "174001043", "Barangay": "Pili", "Land_Class": null, "PIN": "030-01-040-02-084", "ALN": "084", "Section": "02", "Brgy_Code": "040" }, "geometry": { "type": "Polygon", "coordinates": [ [ [ 121.82403562448691, 13.463356882819458 ], [ 121.823928944096295, 13.463421294471527 ], [ 121.824009381918998, 13.463603357693096 ], [ 121.824023914359714, 13.463597796007495 ], [ 121.824125260721544, 13.463550159864218 ], [ 121.82403562448691, 13.463356882819458 ] ] ] } },
{ "type": "Feature", "properties": { "Id": 0, "CLN": "5966 pt", "PSGC": "174001043", "Barangay": "Pili", "Land_Class": null, "PIN": "030-01-040-02-085", "ALN": "085", "Section": "02", "Brgy_Code": "040" }, "geometry": { "type": "Polygon", "coordinates": [ [ [ 121.824130171436963, 13.463299797045346 ], [ 121.82403562448691, 13.463356882819452 ], [ 121.824125282791741, 13.463550207452823 ], [ 121.824222151069591, 13.463499736028496 ], [ 121.824221661962028, 13.463498959643482 ], [ 121.824130171436963, 13.463299797045346 ] ] ] } },
{ "type": "Feature", "properties": { "Id": 0, "CLN": "5966 pt", "PSGC": "174001043", "Barangay": "Pili", "Land_Class": null, "PIN": "030-01-040-02-083", "ALN": "083", "Section": "02", "Brgy_Code": "040" }, "geometry": { "type": "Polygon", "coordinates": [ [ [ 121.823928944096295, 13.463421294471527 ], [ 121.823821049710801, 13.46348643902661 ], [ 121.823927024882991, 13.463634876392394 ], [ 121.824009381918998, 13.463603357693096 ], [ 121.823928944096295, 13.463421294471527 ] ] ] } },
{ "type": "Feature", "properties": { "Id": 0, "CLN": "5966 pt", "PSGC": "174001043", "Barangay": "Pili", "Land_Class": null, "PIN": "030-01-040-02-081", "ALN": "081", "Section": "02", "Brgy_Code": "040" }, "geometry": { "type": "Polygon", "coordinates": [ [ [ 121.82394128374537, 13.463413844023309 ], [ 121.823788403474836, 13.463247281102538 ], [ 121.823669445849049, 13.463345550753662 ], [ 121.823806502692733, 13.463495243043296 ], [ 121.823821049710801, 13.46348643902661 ], [ 121.823928944096295, 13.463421294471527 ], [ 121.82394128374537, 13.463413844023309 ] ] ] } },
{ "type": "Feature", "properties": { "Id": 0, "CLN": "5966 pt", "PSGC": "174001043", "Barangay": "Pili", "Land_Class": null, "PIN": "030-01-040-02-091", "ALN": "091", "Section": "02", "Brgy_Code": "040" }, "geometry": { "type": "Polygon", "coordinates": [ [ [ 121.82394128374537, 13.463413844023309 ], [ 121.824015162448262, 13.463369237427406 ], [ 121.823956372241994, 13.463308947844341 ], [ 121.823894633242062, 13.46336260325438 ], [ 121.82394128374537, 13.463413844023309 ] ] ] } },
{ "type": "Feature", "properties": { "Id": 0, "CLN": "5966 pt", "PSGC": "174001043", "Barangay": "Pili", "Land_Class": null, "PIN": "030-01-040-02-062", "ALN": "062", "Section": "02", "Brgy_Code": "040" }, "geometry": { "type": "Polygon", "coordinates": [ [ [ 121.823896087734042, 13.463158324137463 ], [ 121.824031591460979, 13.463328496623197 ], [ 121.824124966509373, 13.463251863452371 ], [ 121.823989826523771, 13.463080887298828 ], [ 121.823896087734042, 13.463158324137463 ] ] ] } }
]
}
