{
"type": "FeatureCollection",
"name": "San Miguel",
"crs": { "type": "name", "properties": { "name": "urn:ogc:def:crs:OGC:1.3:CRS84" } },
"features": [
{ "type": "Feature", "properties": { "Id": 0, "CLN": "201 RW", "PSGC": "174001049", "Barangay": "San Miguel", "Land_Class": null, "PIN": "030-01-001-04-", "ALN": null, "Section": "04", "Brgy_Code": "01" }, "geometry": { "type": "Polygon", "coordinates": [ [ [ 121.839176674956349, 13.448611281716927 ], [ 121.83917235779893, 13.448524842721065 ], [ 121.839134354986655, 13.448524667407449 ], [ 121.839140962429752, 13.448609441711207 ], [ 121.839176674956349, 13.448611281716927 ] ] ] } },
{ "type": "Feature", "properties": { "Id": 0, "CLN": "198", "PSGC": "174001049", "Barangay": "San Miguel", "Land_Class": null, "PIN": "030-01-001-04-027", "ALN": "027", "Section": "04", "Brgy_Code": "01" }, "geometry": { "type": "Polygon", "coordinates": [ [ [ 121.839252904626562, 13.448521671688619 ], [ 121.839252904626562, 13.448521671688615 ], [ 121.839251178542114, 13.44843665783031 ], [ 121.839162809816827, 13.448440662162804 ], [ 121.83917235779893, 13.448524842721065 ], [ 121.839252904626562, 13.448521671688619 ] ] ] } },
{ "type": "Feature", "properties": { "Id": 0, "CLN": "199 RW", "PSGC": "174001049", "Barangay": "San Miguel", "Land_Class": null, "PIN": "030-01-001-04-", "ALN": null, "Section": "04", "Brgy_Code": "01" }, "geometry": { "type": "Polygon", "coordinates": [ [ [ 121.839251178542114, 13.44843665783031 ], [ 121.839250611595844, 13.448408734360845 ], [ 121.839124934959088, 13.448413918014316 ], [ 121.839134354986683, 13.448524667407449 ], [ 121.83917235779893, 13.448524842721065 ], [ 121.839162809816827, 13.448440662162804 ], [ 121.839251178542114, 13.44843665783031 ] ] ] } },
{ "type": "Feature", "properties": { "Id": 0, "CLN": "196", "PSGC": "174001049", "Barangay": "San Miguel", "Land_Class": null, "PIN": "030-01-001-04-023", "ALN": "023", "Section": "04", "Brgy_Code": "01" }, "geometry": { "type": "Polygon", "coordinates": [ [ [ 121.839259482759701, 13.448567490418112 ], [ 121.839397161872029, 13.448567947135862 ], [ 121.839380440471018, 13.448434590161686 ], [ 121.839251178542114, 13.44843665783031 ], [ 121.839252904626562, 13.448521671688638 ], [ 121.839259482759701, 13.448567490418112 ] ] ] } },
{ "type": "Feature", "properties": { "Id": 0, "CLN": "197  RW", "PSGC": "174001049", "Barangay": "San Miguel", "Land_Class": null, "PIN": "030-01-001-04-", "ALN": null, "Section": "04", "Brgy_Code": "01" }, "geometry": { "type": "Polygon", "coordinates": [ [ [ 121.839251178542114, 13.44843665783031 ], [ 121.839380440471018, 13.448434590161686 ], [ 121.839376532705685, 13.448403565154187 ], [ 121.839250611595844, 13.448408734360845 ], [ 121.839251178542114, 13.44843665783031 ] ] ] } },
{ "type": "Feature", "properties": { "Id": 0, "CLN": "189", "PSGC": "174001049", "Barangay": "San Miguel", "Land_Class": null, "PIN": "030-01-001-04-029", "ALN": "029", "Section": "04", "Brgy_Code": "01" }, "geometry": { "type": "Polygon", "coordinates": [ [ [ 121.839553873485158, 13.448430312878395 ], [ 121.839655104797757, 13.44842876233027 ], [ 121.839653376132858, 13.448411927053963 ], [ 121.839551258292886, 13.448416108606802 ], [ 121.839553873485158, 13.448430312878395 ] ] ] } },
{ "type": "Feature", "properties": { "Id": 0, "CLN": "183", "PSGC": "174001049", "Barangay": "San Miguel", "Land_Class": null, "PIN": "030-01-001-04-018", "ALN": "018", "Section": "04", "Brgy_Code": "01" }, "geometry": { "type": "Polygon", "coordinates": [ [ [ 121.839731142692926, 13.448504006092724 ], [ 121.83979049664373, 13.448498467124613 ], [ 121.839786326268651, 13.448424939139517 ], [ 121.839721178603611, 13.448424638759498 ], [ 121.839731142692926, 13.448504006092724 ] ] ] } },
{ "type": "Feature", "properties": { "Id": 0, "CLN": "162", "PSGC": "174001049", "Barangay": "San Miguel", "Land_Class": null, "PIN": "030-01-001-04-017", "ALN": "017", "Section": "04", "Brgy_Code": "01" }, "geometry": { "type": "Polygon", "coordinates": [ [ [ 121.839838317160897, 13.448489422522442 ], [ 121.83983369813005, 13.448425141273189 ], [ 121.839833377361018, 13.448425156070174 ], [ 121.839786326268651, 13.448424939139533 ], [ 121.83979049664373, 13.448498467124613 ], [ 121.839838317160897, 13.448489422522442 ] ] ] } },
{ "type": "Feature", "properties": { "Id": 0, "CLN": "184  RW", "PSGC": "174001049", "Barangay": "San Miguel", "Land_Class": null, "PIN": "030-01-001-04-", "ALN": null, "Section": "04", "Brgy_Code": "01" }, "geometry": { "type": "Polygon", "coordinates": [ [ [ 121.839721178603611, 13.448424638759498 ], [ 121.839786326268651, 13.448424939139517 ], [ 121.839783769486814, 13.448392158387099 ], [ 121.839717695689629, 13.448396281975073 ], [ 121.839721178603611, 13.448424638759498 ] ] ] } },
{ "type": "Feature", "properties": { "Id": 0, "CLN": "159  RW", "PSGC": "174001049", "Barangay": "San Miguel", "Land_Class": null, "PIN": "030-01-001-04-", "ALN": null, "Section": "04", "Brgy_Code": "01" }, "geometry": { "type": "Polygon", "coordinates": [ [ [ 121.839783769486814, 13.448392158387099 ], [ 121.839786326268651, 13.448424939139517 ], [ 121.839833377361018, 13.448425156070158 ], [ 121.839829396272165, 13.448391016824662 ], [ 121.839783769486814, 13.448392158387099 ] ] ] } },
{ "type": "Feature", "properties": { "Id": 0, "CLN": "182  RW", "PSGC": "174001049", "Barangay": "San Miguel", "Land_Class": null, "PIN": "030-01-001-04-", "ALN": null, "Section": "04", "Brgy_Code": "01" }, "geometry": { "type": "Polygon", "coordinates": [ [ [ 121.839833377361018, 13.448425156070158 ], [ 121.839959106035749, 13.448419172731489 ], [ 121.839954803399891, 13.448388518663867 ], [ 121.839829396272165, 13.448391016824662 ], [ 121.839833377361018, 13.448425156070158 ] ] ] } },
{ "type": "Feature", "properties": { "Id": 0, "CLN": "181", "PSGC": "174001049", "Barangay": "San Miguel", "Land_Class": null, "PIN": "030-01-001-04-016", "ALN": "016", "Section": "04", "Brgy_Code": "01" }, "geometry": { "type": "Polygon", "coordinates": [ [ [ 121.83983369813005, 13.448425141273189 ], [ 121.839838317160897, 13.448489422522442 ], [ 121.839968004000227, 13.448477678501183 ], [ 121.839959106035749, 13.448419172731489 ], [ 121.83983369813005, 13.448425141273189 ] ] ] } },
{ "type": "Feature", "properties": { "Id": 0, "CLN": "179", "PSGC": "174001049", "Barangay": "San Miguel", "Land_Class": null, "PIN": "030-01-001-04-015", "ALN": "015", "Section": "04", "Brgy_Code": "01" }, "geometry": { "type": "Polygon", "coordinates": [ [ [ 121.839838299855032, 13.448489424046267 ], [ 121.839845332213727, 13.448571233632496 ], [ 121.839981975203258, 13.448571087354981 ], [ 121.839968004000227, 13.448477678501183 ], [ 121.839838299855032, 13.448489424046267 ] ] ] } },
{ "type": "Feature", "properties": { "Id": 0, "CLN": "191", "PSGC": "174001049", "Barangay": "San Miguel", "Land_Class": null, "PIN": "030-01-001-04-034", "ALN": "034", "Section": "04", "Brgy_Code": "01" }, "geometry": { "type": "Polygon", "coordinates": [ [ [ 121.839553873485158, 13.448430312878395 ], [ 121.839551258292886, 13.448416108606802 ], [ 121.839548389782095, 13.448400066937724 ], [ 121.8394660044668, 13.448402450514379 ], [ 121.839435805557102, 13.448420836150779 ], [ 121.839437666520155, 13.448432092756525 ], [ 121.839553873485158, 13.448430312878395 ] ] ] } },
{ "type": "Feature", "properties": { "Id": 0, "CLN": "225", "PSGC": "174001049", "Barangay": "San Miguel", "Land_Class": null, "PIN": "030-01-001-04-013", "ALN": "013", "Section": "04", "Brgy_Code": "01" }, "geometry": { "type": "Polygon", "coordinates": [ [ [ 121.840011587892889, 13.44888201339891 ], [ 121.840001588381, 13.448783675632576 ], [ 121.839878500301992, 13.448794884914783 ], [ 121.839876316253566, 13.448866069424568 ], [ 121.840011587892889, 13.44888201339891 ] ] ] } },
{ "type": "Feature", "properties": { "Id": 0, "CLN": "230", "PSGC": "174001049", "Barangay": "San Miguel", "Land_Class": null, "PIN": "030-01-001-04-012", "ALN": "012", "Section": "04", "Brgy_Code": "01" }, "geometry": { "type": "Polygon", "coordinates": [ [ [ 121.839772318641494, 13.448856577959827 ], [ 121.839876316253566, 13.448866069424586 ], [ 121.839878500301964, 13.448794884914822 ], [ 121.839764413764982, 13.448810246964165 ], [ 121.839772318641494, 13.448856577959827 ] ] ] } },
{ "type": "Feature", "properties": { "Id": 0, "CLN": "229", "PSGC": "174001049", "Barangay": "San Miguel", "Land_Class": null, "PIN": "030-01-001-04-011", "ALN": "011", "Section": "04", "Brgy_Code": "01" }, "geometry": { "type": "Polygon", "coordinates": [ [ [ 121.83986672571605, 13.448796462998947 ], [ 121.839872951332595, 13.448750047449199 ], [ 121.839756727260493, 13.448764986314755 ], [ 121.839764413764982, 13.448810246964165 ], [ 121.83986672571605, 13.448796462998947 ] ] ] } },
{ "type": "Feature", "properties": { "Id": 0, "CLN": "228  RW", "PSGC": "174001049", "Barangay": "San Miguel", "Land_Class": null, "PIN": "030-01-001-04-", "ALN": null, "Section": "04", "Brgy_Code": "01" }, "geometry": { "type": "Polygon", "coordinates": [ [ [ 121.839756727260493, 13.448764986314755 ], [ 121.839872951332595, 13.448750047449199 ], [ 121.839865487121799, 13.448700183125949 ], [ 121.839748135922633, 13.448715879697936 ], [ 121.839756727260493, 13.448764986314755 ] ] ] } },
{ "type": "Feature", "properties": { "Id": 0, "CLN": "226", "PSGC": "174001049", "Barangay": "San Miguel", "Land_Class": null, "PIN": "030-01-001-04-014", "ALN": "014", "Section": "04", "Brgy_Code": "01" }, "geometry": { "type": "Polygon", "coordinates": [ [ [ 121.840001588381, 13.448783675632576 ], [ 121.83999664688514, 13.448734148174927 ], [ 121.839872951332595, 13.448750047449199 ], [ 121.83986672571605, 13.448796462998947 ], [ 121.839878500301964, 13.4487948849148 ], [ 121.840001588381, 13.448783675632576 ] ] ] } },
{ "type": "Feature", "properties": { "Id": 0, "CLN": "227  RW", "PSGC": "174001049", "Barangay": "San Miguel", "Land_Class": null, "PIN": "030-01-001-04-", "ALN": null, "Section": "04", "Brgy_Code": "01" }, "geometry": { "type": "Polygon", "coordinates": [ [ [ 121.839872951332595, 13.448750047449199 ], [ 121.839996646885041, 13.448734148174939 ], [ 121.83999664688514, 13.448734148174927 ], [ 121.839988603280034, 13.448683644049002 ], [ 121.839865487121799, 13.448700183125949 ], [ 121.839872951332595, 13.448750047449199 ] ] ] } },
{ "type": "Feature", "properties": { "Id": 0, "CLN": "186  RW", "PSGC": "174001049", "Barangay": "San Miguel", "Land_Class": null, "PIN": "030-01-001-04-", "ALN": null, "Section": "04", "Brgy_Code": "01" }, "geometry": { "type": "Polygon", "coordinates": [ [ [ 121.839851724503006, 13.448624829378478 ], [ 121.839845332213727, 13.448571233632496 ], [ 121.839740868308269, 13.448582039326707 ], [ 121.839751579073962, 13.448642706087753 ], [ 121.839851724503006, 13.448624829378478 ] ] ] } },
{ "type": "Feature", "properties": { "Id": 0, "CLN": "180  RW", "PSGC": "174001049", "Barangay": "San Miguel", "Land_Class": null, "PIN": "030-01-001-04-", "ALN": null, "Section": "04", "Brgy_Code": "01" }, "geometry": { "type": "Polygon", "coordinates": [ [ [ 121.839845332213727, 13.448571233632496 ], [ 121.839851724503006, 13.448624829378478 ], [ 121.839987113098957, 13.448610640202356 ], [ 121.839981975203258, 13.448571087354964 ], [ 121.839845332213727, 13.448571233632496 ] ] ] } },
{ "type": "Feature", "properties": { "Id": 0, "CLN": "185", "PSGC": "174001049", "Barangay": "San Miguel", "Land_Class": null, "PIN": "030-01-001-04-019", "ALN": "019", "Section": "04", "Brgy_Code": "01" }, "geometry": { "type": "Polygon", "coordinates": [ [ [ 121.839838317160897, 13.448489422522442 ], [ 121.83979049664373, 13.448498467124613 ], [ 121.839731142692926, 13.448504006092724 ], [ 121.839740868308269, 13.448582039326707 ], [ 121.839845332213727, 13.448571233632496 ], [ 121.839838317160897, 13.448489422522442 ] ] ] } },
{ "type": "Feature", "properties": { "Id": 0, "CLN": "231", "PSGC": "174001049", "Barangay": "San Miguel", "Land_Class": null, "PIN": "030-01-001-04-009", "ALN": "009", "Section": "04", "Brgy_Code": "01" }, "geometry": { "type": "Polygon", "coordinates": [ [ [ 121.839695013146397, 13.448849011929042 ], [ 121.839687339847401, 13.448774178615144 ], [ 121.839470530290981, 13.448799114632683 ], [ 121.839474153976028, 13.448824562298707 ], [ 121.839695013146397, 13.448849011929042 ] ] ] } },
{ "type": "Feature", "properties": { "Id": 0, "CLN": "232  RW", "PSGC": "174001049", "Barangay": "San Miguel", "Land_Class": null, "PIN": "030-01-001-04-", "ALN": null, "Section": "04", "Brgy_Code": "01" }, "geometry": { "type": "Polygon", "coordinates": [ [ [ 121.839470530290981, 13.448799114632683 ], [ 121.839687339847401, 13.448774178615144 ], [ 121.839681822677377, 13.448720079913173 ], [ 121.839465254840576, 13.448760536262466 ], [ 121.839470530290981, 13.448799114632683 ] ] ] } },
{ "type": "Feature", "properties": { "Id": 0, "CLN": "193  RW", "PSGC": "174001049", "Barangay": "San Miguel", "Land_Class": null, "PIN": "030-01-001-04-", "ALN": null, "Section": "04", "Brgy_Code": "01" }, "geometry": { "type": "Polygon", "coordinates": [ [ [ 121.839468245440386, 13.448619006441806 ], [ 121.839477751716331, 13.448676774962255 ], [ 121.839581729242312, 13.448664645323941 ], [ 121.8395728083904, 13.448605125174534 ], [ 121.839468245440386, 13.448619006441806 ] ] ] } },
{ "type": "Feature", "properties": { "Id": 0, "CLN": "188", "PSGC": "174001049", "Barangay": "San Miguel", "Land_Class": null, "PIN": "030-01-001-04-020", "ALN": "020", "Section": "04", "Brgy_Code": "01" }, "geometry": { "type": "Polygon", "coordinates": [ [ [ 121.839581729242312, 13.448664645323941 ], [ 121.839673852878619, 13.448654255770847 ], [ 121.839667689813041, 13.448595649536687 ], [ 121.8395728083904, 13.448605125174534 ], [ 121.839581729242312, 13.448664645323941 ] ] ] } },
{ "type": "Feature", "properties": { "Id": 0, "CLN": "235 RW", "PSGC": "174001049", "Barangay": "San Miguel", "Land_Class": null, "PIN": "030-01-001-04-", "ALN": null, "Section": "04", "Brgy_Code": "01" }, "geometry": { "type": "Polygon", "coordinates": [ [ [ 121.839245480278606, 13.448823761166377 ], [ 121.839299494155327, 13.448818048970958 ], [ 121.839290258028399, 13.44877234587355 ], [ 121.839290258028328, 13.448772345873209 ], [ 121.839221501726598, 13.44877776919839 ], [ 121.839225846272612, 13.448818723177387 ], [ 121.839245480278606, 13.448823761166377 ] ] ] } },
{ "type": "Feature", "properties": { "Id": 0, "CLN": "237 RW", "PSGC": "174001049", "Barangay": "San Miguel", "Land_Class": null, "PIN": "030-01-001-04-005", "ALN": "005", "Section": "04", "Brgy_Code": "01" }, "geometry": { "type": "Polygon", "coordinates": [ [ [ 121.839175007949933, 13.448805158520933 ], [ 121.839225846272612, 13.448818723177387 ], [ 121.839221501726598, 13.44877776919839 ], [ 121.839158543547157, 13.44878255264217 ], [ 121.839175007949933, 13.448805158520933 ] ] ] } },
{ "type": "Feature", "properties": { "Id": 0, "CLN": "204 RW", "PSGC": "174001049", "Barangay": "San Miguel", "Land_Class": null, "PIN": "030-01-001-04-", "ALN": null, "Section": "04", "Brgy_Code": "01" }, "geometry": { "type": "Polygon", "coordinates": [ [ [ 121.839140962429752, 13.448609441711204 ], [ 121.839147341031918, 13.448653399587577 ], [ 121.839178607431251, 13.448649974115153 ], [ 121.839176674956349, 13.448611281716927 ], [ 121.839140962429752, 13.448609441711204 ] ] ] } },
{ "type": "Feature", "properties": { "Id": 0, "CLN": "128 RW", "PSGC": "174001049", "Barangay": "San Miguel", "Land_Class": null, "PIN": "030-01-001-05-", "ALN": null, "Section": "05", "Brgy_Code": "01" }, "geometry": { "type": "Polygon", "coordinates": [ [ [ 121.839785034116758, 13.447941369541612 ], [ 121.839905910253435, 13.44793479438942 ], [ 121.839901060782125, 13.447898507713944 ], [ 121.83978065489481, 13.447911237329178 ], [ 121.839785034116758, 13.447941369541612 ] ] ] } },
{ "type": "Feature", "properties": { "Id": 0, "CLN": "126 RW", "PSGC": "174001049", "Barangay": "San Miguel", "Land_Class": null, "PIN": "030-01-001-05-", "ALN": null, "Section": "05", "Brgy_Code": "01" }, "geometry": { "type": "Polygon", "coordinates": [ [ [ 121.839785034116758, 13.447941369541651 ], [ 121.83978065489481, 13.447911237329196 ], [ 121.839684709159911, 13.447917880135821 ], [ 121.839672929361996, 13.447921368411087 ], [ 121.839675200884358, 13.44794498845345 ], [ 121.839785034116758, 13.447941369541651 ] ] ] } },
{ "type": "Feature", "properties": { "Id": 0, "CLN": "125", "PSGC": "174001049", "Barangay": "San Miguel", "Land_Class": null, "PIN": "030-01-001-05-014", "ALN": "014", "Section": "05", "Brgy_Code": "01" }, "geometry": { "type": "Polygon", "coordinates": [ [ [ 121.839785034116758, 13.447941369541651 ], [ 121.839675200884358, 13.44794498845345 ], [ 121.839687364612999, 13.448070456167374 ], [ 121.839703084827221, 13.448068620017827 ], [ 121.839799785385054, 13.448072513412505 ], [ 121.839796404753884, 13.448022901554726 ], [ 121.839785034116758, 13.447941369541651 ] ] ] } },
{ "type": "Feature", "properties": { "Id": 0, "CLN": "127", "PSGC": "174001049", "Barangay": "San Miguel", "Land_Class": null, "PIN": "030-01-001-05-015", "ALN": "015", "Section": "05", "Brgy_Code": "01" }, "geometry": { "type": "Polygon", "coordinates": [ [ [ 121.839796404753869, 13.448022901554726 ], [ 121.839915035136244, 13.448003078569311 ], [ 121.839905910253435, 13.44793479438942 ], [ 121.839785034116758, 13.447941369541612 ], [ 121.839796404753869, 13.448022901554726 ] ] ] } },
{ "type": "Feature", "properties": { "Id": 0, "CLN": "129", "PSGC": "174001049", "Barangay": "San Miguel", "Land_Class": null, "PIN": "030-01-001-05-016", "ALN": "016", "Section": "05", "Brgy_Code": "01" }, "geometry": { "type": "Polygon", "coordinates": [ [ [ 121.839799785385054, 13.448072513412505 ], [ 121.839921309287234, 13.448059850689265 ], [ 121.839915035136244, 13.448003078569311 ], [ 121.839796404753869, 13.448022901554726 ], [ 121.839799785385054, 13.448072513412505 ] ] ] } },
{ "type": "Feature", "properties": { "Id": 0, "CLN": "130", "PSGC": "174001049", "Barangay": "San Miguel", "Land_Class": null, "PIN": "030-01-001-05-017", "ALN": "017", "Section": "05", "Brgy_Code": "01" }, "geometry": { "type": "Polygon", "coordinates": [ [ [ 121.839806781064894, 13.448123027584879 ], [ 121.839927178535319, 13.448112069222008 ], [ 121.839921309287234, 13.448059850689265 ], [ 121.839799785385054, 13.448072513412505 ], [ 121.839806781064894, 13.448123027584879 ] ] ] } },
{ "type": "Feature", "properties": { "Id": 0, "CLN": "131", "PSGC": "174001049", "Barangay": "San Miguel", "Land_Class": null, "PIN": "030-01-001-05-013", "ALN": "013", "Section": "05", "Brgy_Code": "01" }, "geometry": { "type": "Polygon", "coordinates": [ [ [ 121.839806781064894, 13.448123027584879 ], [ 121.839799785385054, 13.448072513412505 ], [ 121.839703084827221, 13.448068620017827 ], [ 121.839687364612999, 13.448070456167374 ], [ 121.839694492936317, 13.448141108462087 ], [ 121.839807241282784, 13.448134492827561 ], [ 121.839806781064894, 13.448123027584879 ] ] ] } },
{ "type": "Feature", "properties": { "Id": 0, "CLN": "132", "PSGC": "174001049", "Barangay": "San Miguel", "Land_Class": null, "PIN": "030-01-001-05-012", "ALN": "012", "Section": "05", "Brgy_Code": "01" }, "geometry": { "type": "Polygon", "coordinates": [ [ [ 121.839807241282784, 13.448134492827561 ], [ 121.839694492936317, 13.448141108462087 ], [ 121.839699606476245, 13.448206669967597 ], [ 121.839836299414586, 13.448194015492719 ], [ 121.839832001162563, 13.448147056347761 ], [ 121.839807558029449, 13.448149600598102 ], [ 121.839807241282784, 13.448134492827561 ] ] ] } },
{ "type": "Feature", "properties": { "Id": 0, "CLN": "136", "PSGC": "174001049", "Barangay": "San Miguel", "Land_Class": null, "PIN": "030-01-001-05-019", "ALN": "019", "Section": "05", "Brgy_Code": "01" }, "geometry": { "type": "Polygon", "coordinates": [ [ [ 121.839836299414586, 13.448194015492719 ], [ 121.839841305144688, 13.448287149093318 ], [ 121.839945405651491, 13.448284912246374 ], [ 121.839940427066054, 13.448179439525141 ], [ 121.839836299414586, 13.448194015492719 ] ] ] } },
{ "type": "Feature", "properties": { "Id": 0, "CLN": "134", "PSGC": "174001049", "Barangay": "San Miguel", "Land_Class": null, "PIN": "030-01-001-05-011", "ALN": "011", "Section": "05", "Brgy_Code": "01" }, "geometry": { "type": "Polygon", "coordinates": [ [ [ 121.839710063735879, 13.448289969065536 ], [ 121.839841305144688, 13.448287149093318 ], [ 121.839836299414586, 13.448194015492719 ], [ 121.839699606476245, 13.448206669967597 ], [ 121.839710063735879, 13.448289969065536 ] ] ] } },
{ "type": "Feature", "properties": { "Id": 0, "CLN": "123", "PSGC": "174001049", "Barangay": "San Miguel", "Land_Class": null, "PIN": "030-01-001-05-025", "ALN": "025", "Section": "05", "Brgy_Code": "01" }, "geometry": { "type": "Polygon", "coordinates": [ [ [ 121.839529447689046, 13.448216513095916 ], [ 121.839540112528709, 13.448295898587356 ], [ 121.839648505582517, 13.448295884753822 ], [ 121.83964017459455, 13.448208296866481 ], [ 121.839529447689046, 13.448216513095916 ] ] ] } },
{ "type": "Feature", "properties": { "Id": 0, "CLN": "120", "PSGC": "174001049", "Barangay": "San Miguel", "Land_Class": null, "PIN": "030-01-001-05-009", "ALN": "009", "Section": "05", "Brgy_Code": "01" }, "geometry": { "type": "Polygon", "coordinates": [ [ [ 121.839529447689046, 13.448216513095916 ], [ 121.83964017459455, 13.448208296866481 ], [ 121.839634727425434, 13.448150575006292 ], [ 121.839522473382715, 13.448161570780863 ], [ 121.839529447689046, 13.448216513095916 ] ] ] } },
{ "type": "Feature", "properties": { "Id": 0, "CLN": "121", "PSGC": "174001049", "Barangay": "San Miguel", "Land_Class": null, "PIN": "030-01-001-05-003", "ALN": "003", "Section": "05", "Brgy_Code": "01" }, "geometry": { "type": "Polygon", "coordinates": [ [ [ 121.839419735164626, 13.448295913895645 ], [ 121.839540112528709, 13.448295898587356 ], [ 121.839529447689046, 13.448216513095916 ], [ 121.839522473382715, 13.448161570780863 ], [ 121.839408015996597, 13.448182910778467 ], [ 121.839419735164626, 13.448295913895645 ] ] ] } },
{ "type": "Feature", "properties": { "Id": 0, "CLN": "119", "PSGC": "174001049", "Barangay": "San Miguel", "Land_Class": null, "PIN": "030-01-001-05-004", "ALN": "004", "Section": "05", "Brgy_Code": "01" }, "geometry": { "type": "Polygon", "coordinates": [ [ [ 121.839408015996597, 13.448182910778467 ], [ 121.839522473382715, 13.448161570780863 ], [ 121.839506749227453, 13.448044592781191 ], [ 121.839394512287839, 13.448052045990593 ], [ 121.839408015996597, 13.448182910778467 ] ] ] } },
{ "type": "Feature", "properties": { "Id": 0, "CLN": "118", "PSGC": "174001049", "Barangay": "San Miguel", "Land_Class": null, "PIN": "030-01-001-05-008", "ALN": "008", "Section": "05", "Brgy_Code": "01" }, "geometry": { "type": "Polygon", "coordinates": [ [ [ 121.839522473382715, 13.448161570780863 ], [ 121.839634727425434, 13.448150575006292 ], [ 121.839622673676985, 13.448022986162297 ], [ 121.839523962259392, 13.448040243922359 ], [ 121.839506749227453, 13.448044592781191 ], [ 121.839522473382715, 13.448161570780863 ] ] ] } },
{ "type": "Feature", "properties": { "Id": 0, "CLN": "116 pt", "PSGC": "174001049", "Barangay": "San Miguel", "Land_Class": null, "PIN": "030-01-001-05-007", "ALN": "007", "Section": "05", "Brgy_Code": "01" }, "geometry": { "type": "Polygon", "coordinates": [ [ [ 121.839616736258421, 13.447972660230821 ], [ 121.839520883491218, 13.447988019894328 ], [ 121.839523962259392, 13.448040243922373 ], [ 121.839622673676985, 13.448022986162297 ], [ 121.839616736258421, 13.447972660230821 ] ] ] } },
{ "type": "Feature", "properties": { "Id": 0, "CLN": "115 RW", "PSGC": "174001049", "Barangay": "San Miguel", "Land_Class": null, "PIN": "030-01-001-05-", "ALN": null, "Section": "05", "Brgy_Code": "01" }, "geometry": { "type": "Polygon", "coordinates": [ [ [ 121.839519173844749, 13.447955975268066 ], [ 121.839518122990754, 13.447937481869152 ], [ 121.839518122990739, 13.447937481869046 ], [ 121.839381460042176, 13.447943936786226 ], [ 121.839382262542458, 13.447965196029731 ], [ 121.839519173844749, 13.447955975268066 ] ] ] } },
{ "type": "Feature", "properties": { "Id": 0, "CLN": "117 RW", "PSGC": "174001049", "Barangay": "San Miguel", "Land_Class": null, "PIN": "030-01-001-05-", "ALN": null, "Section": "05", "Brgy_Code": "01" }, "geometry": { "type": "Polygon", "coordinates": [ [ [ 121.839519173844749, 13.447955975268066 ], [ 121.839613978807122, 13.447949590258057 ], [ 121.839611371303391, 13.447927284098032 ], [ 121.839518122990739, 13.447937481869046 ], [ 121.839519173844749, 13.447955975268066 ] ] ] } },
{ "type": "Feature", "properties": { "Id": 0, "CLN": "109", "PSGC": "174001049", "Barangay": "San Miguel", "Land_Class": null, "PIN": "030-01-001-05-001", "ALN": "001", "Section": "05", "Brgy_Code": "01" }, "geometry": { "type": "Polygon", "coordinates": [ [ [ 121.839208707168297, 13.448116726894272 ], [ 121.839196776004684, 13.447978749401683 ], [ 121.839126102739883, 13.447983498713416 ], [ 121.839137212420013, 13.448123695685355 ], [ 121.839208707168297, 13.448116726894272 ] ] ] } },
{ "type": "Feature", "properties": { "Id": 0, "CLN": "110 RW", "PSGC": "174001049", "Barangay": "San Miguel", "Land_Class": null, "PIN": "030-01-001-05-", "ALN": null, "Section": "05", "Brgy_Code": "01" }, "geometry": { "type": "Polygon", "coordinates": [ [ [ 121.839196776004684, 13.447978749401683 ], [ 121.83919499324395, 13.447958132725166 ], [ 121.83919499324395, 13.447958132724887 ], [ 121.839096367130026, 13.447957677760106 ], [ 121.839093524709781, 13.447984234072754 ], [ 121.83910460084897, 13.448126874418509 ], [ 121.839137212420013, 13.448123695685355 ], [ 121.839126102739883, 13.447983498713416 ], [ 121.839196776004684, 13.447978749401683 ] ] ] } },
{ "type": "Feature", "properties": { "Id": 0, "CLN": "158 RW", "PSGC": "174001049", "Barangay": "San Miguel", "Land_Class": null, "PIN": "030-01-001-06-", "ALN": null, "Section": "06", "Brgy_Code": "01" }, "geometry": { "type": "Polygon", "coordinates": [ [ [ 121.840351548637685, 13.448300896893244 ], [ 121.84054541406725, 13.448291174901676 ], [ 121.84054418764434, 13.448268216034849 ], [ 121.840350775874114, 13.448273438248881 ], [ 121.840351548637685, 13.448300896893244 ] ] ] } },
{ "type": "Feature", "properties": { "Id": 0, "CLN": "157", "PSGC": "174001049", "Barangay": "San Miguel", "Land_Class": null, "PIN": "030-01-001-06-006", "ALN": "006", "Section": "06", "Brgy_Code": "01" }, "geometry": { "type": "Polygon", "coordinates": [ [ [ 121.840350775874114, 13.44827343824887 ], [ 121.840350775874114, 13.448273438248881 ], [ 121.840350775874185, 13.448273438248878 ], [ 121.84054418764434, 13.448268216034849 ], [ 121.840540569348647, 13.448200480854407 ], [ 121.840540190535378, 13.448183989346564 ], [ 121.840342119526653, 13.448191918755574 ], [ 121.840350775874114, 13.44827343824887 ] ] ] } },
{ "type": "Feature", "properties": { "Id": 0, "CLN": "152", "PSGC": "174001049", "Barangay": "San Miguel", "Land_Class": null, "PIN": "030-01-001-06-009", "ALN": "009", "Section": "06", "Brgy_Code": "01" }, "geometry": { "type": "Polygon", "coordinates": [ [ [ 121.840342119526653, 13.448191918755574 ], [ 121.840540190535378, 13.448183989346564 ], [ 121.840535286618319, 13.448101587127478 ], [ 121.84047647707682, 13.448100430504974 ], [ 121.840337983061048, 13.448111305738875 ], [ 121.840342119526653, 13.448191918755574 ] ] ] } },
{ "type": "Feature", "properties": { "Id": 0, "CLN": "155", "PSGC": "174001049", "Barangay": "San Miguel", "Land_Class": null, "PIN": "030-01-001-06-007", "ALN": "007", "Section": "06", "Brgy_Code": "01" }, "geometry": { "type": "Polygon", "coordinates": [ [ [ 121.840540569348647, 13.448200480854407 ], [ 121.84054418764434, 13.448268216034849 ], [ 121.840637606920112, 13.448265693614461 ], [ 121.840629321418177, 13.448191471062151 ], [ 121.840540569348647, 13.448200480854407 ] ] ] } },
{ "type": "Feature", "properties": { "Id": 0, "CLN": "154 RW", "PSGC": "174001049", "Barangay": "San Miguel", "Land_Class": null, "PIN": "030-01-001-06-", "ALN": null, "Section": "06", "Brgy_Code": "01" }, "geometry": { "type": "Polygon", "coordinates": [ [ [ 121.840618633436421, 13.448095726755129 ], [ 121.840629321418177, 13.448191471062151 ], [ 121.840684205752453, 13.448191730013633 ], [ 121.840675577507511, 13.448093377005815 ], [ 121.840618633436421, 13.448095726755129 ] ] ] } },
{ "type": "Feature", "properties": { "Id": 0, "CLN": "151 RW", "PSGC": "174001049", "Barangay": "San Miguel", "Land_Class": null, "PIN": "030-01-001-06-", "ALN": null, "Section": "06", "Brgy_Code": "01" }, "geometry": { "type": "Polygon", "coordinates": [ [ [ 121.840607367039155, 13.447994800876133 ], [ 121.840618633436421, 13.448095726755129 ], [ 121.840675577507511, 13.448093377005815 ], [ 121.840662536089312, 13.447995088529298 ], [ 121.840607367039155, 13.447994800876133 ] ] ] } },
{ "type": "Feature", "properties": { "Id": 0, "CLN": "153", "PSGC": "174001049", "Barangay": "San Miguel", "Land_Class": null, "PIN": "030-01-001-06-008", "ALN": "008", "Section": "06", "Brgy_Code": "01" }, "geometry": { "type": "Polygon", "coordinates": [ [ [ 121.840535286618319, 13.448101587127478 ], [ 121.840540190535378, 13.448183989346564 ], [ 121.840540569348647, 13.448200480854407 ], [ 121.840629321418177, 13.448191471062151 ], [ 121.840618633436421, 13.448095726755129 ], [ 121.840535286618319, 13.448101587127478 ] ] ] } },
{ "type": "Feature", "properties": { "Id": 0, "CLN": "146", "PSGC": "174001049", "Barangay": "San Miguel", "Land_Class": null, "PIN": "030-01-001-06-010", "ALN": "010", "Section": "06", "Brgy_Code": "01" }, "geometry": { "type": "Polygon", "coordinates": [ [ [ 121.840337983061048, 13.448111305738875 ], [ 121.84047647707682, 13.448100430504974 ], [ 121.840473351882821, 13.447997680948902 ], [ 121.840473746692652, 13.447907021578255 ], [ 121.840322641920366, 13.447914621217443 ], [ 121.840337983061048, 13.448111305738875 ] ] ] } },
{ "type": "Feature", "properties": { "Id": 0, "CLN": "149 RW", "PSGC": "174001049", "Barangay": "San Miguel", "Land_Class": null, "PIN": "030-01-001-06-", "ALN": null, "Section": "06", "Brgy_Code": "01" }, "geometry": { "type": "Polygon", "coordinates": [ [ [ 121.840473746692652, 13.447907021578255 ], [ 121.840596876905252, 13.447900828819323 ], [ 121.840607367039155, 13.447994800876133 ], [ 121.840662536089312, 13.447995088529298 ], [ 121.840647632395658, 13.447883349697799 ], [ 121.840473005062194, 13.447881659475646 ], [ 121.840473746692652, 13.447907021578255 ] ] ] } },
{ "type": "Feature", "properties": { "Id": 0, "CLN": "147 RW", "PSGC": "174001049", "Barangay": "San Miguel", "Land_Class": null, "PIN": "030-01-001-06-", "ALN": null, "Section": "06", "Brgy_Code": "01" }, "geometry": { "type": "Polygon", "coordinates": [ [ [ 121.840322641920366, 13.447914621217443 ], [ 121.840473746692652, 13.447907021578255 ], [ 121.840473005062194, 13.447881659475646 ], [ 121.840322731383139, 13.447896023024612 ], [ 121.840322641920366, 13.447914621217443 ] ] ] } },
{ "type": "Feature", "properties": { "Id": 0, "CLN": "144", "PSGC": "174001049", "Barangay": "San Miguel", "Land_Class": null, "PIN": "030-01-001-06-005", "ALN": "005", "Section": "06", "Brgy_Code": "01" }, "geometry": { "type": "Polygon", "coordinates": [ [ [ 121.840172511380061, 13.448279712636458 ], [ 121.840274753255841, 13.448276630490968 ], [ 121.840258510311131, 13.44817356698732 ], [ 121.840170525457395, 13.448182547580773 ], [ 121.840176667052177, 13.448227285597298 ], [ 121.840164581508645, 13.448230954687579 ], [ 121.840172511380061, 13.448279712636458 ] ] ] } },
{ "type": "Feature", "properties": { "Id": 0, "CLN": "142", "PSGC": "174001049", "Barangay": "San Miguel", "Land_Class": null, "PIN": "030-01-001-06-001", "ALN": "001", "Section": "06", "Brgy_Code": "01" }, "geometry": { "type": "Polygon", "coordinates": [ [ [ 121.840020077928941, 13.448284307760938 ], [ 121.840172511380061, 13.448279712636458 ], [ 121.840164581508645, 13.448230954687579 ], [ 121.840013389995065, 13.448247970746158 ], [ 121.840020077928941, 13.448284307760938 ] ] ] } },
{ "type": "Feature", "properties": { "Id": 0, "CLN": "140", "PSGC": "174001049", "Barangay": "San Miguel", "Land_Class": null, "PIN": "030-01-001-06-002", "ALN": "002", "Section": "06", "Brgy_Code": "01" }, "geometry": { "type": "Polygon", "coordinates": [ [ [ 121.840013389995065, 13.448247970746158 ], [ 121.840164581508645, 13.448230954687579 ], [ 121.840176667052177, 13.448227285597298 ], [ 121.840170525457395, 13.448182547580773 ], [ 121.840157764414016, 13.448088046874179 ], [ 121.840105073431616, 13.448095813777597 ], [ 121.839998664175184, 13.448111513110591 ], [ 121.840013389995065, 13.448247970746158 ] ] ] } },
{ "type": "Feature", "properties": { "Id": 0, "CLN": "141", "PSGC": "174001049", "Barangay": "San Miguel", "Land_Class": null, "PIN": "030-01-001-06-004", "ALN": "004", "Section": "06", "Brgy_Code": "01" }, "geometry": { "type": "Polygon", "coordinates": [ [ [ 121.840170525457395, 13.448182547580773 ], [ 121.840258510311131, 13.44817356698732 ], [ 121.840243091738841, 13.448075530386729 ], [ 121.840157764414016, 13.448088046874179 ], [ 121.840170525457395, 13.448182547580773 ] ] ] } },
{ "type": "Feature", "properties": { "Id": 0, "CLN": "138", "PSGC": "174001049", "Barangay": "San Miguel", "Land_Class": null, "PIN": "030-01-001-06-003", "ALN": "003", "Section": "06", "Brgy_Code": "01" }, "geometry": { "type": "Polygon", "coordinates": [ [ [ 121.839998664177543, 13.448111513110259 ], [ 121.840105073431616, 13.448095813777597 ], [ 121.840157764414016, 13.448088046874179 ], [ 121.840243146574508, 13.448075442769637 ], [ 121.840235737034178, 13.448007556400306 ], [ 121.840226211295345, 13.447920491229899 ], [ 121.840146146521917, 13.447923952964171 ], [ 121.839982330099787, 13.447931035760909 ], [ 121.839989098387903, 13.448005558561112 ], [ 121.839998664175184, 13.448111513110591 ], [ 121.839998664177543, 13.448111513110259 ] ] ] } },
{ "type": "Feature", "properties": { "Id": 0, "CLN": "174 RW", "PSGC": "174001049", "Barangay": "San Miguel", "Land_Class": null, "PIN": "030-01-001-07-", "ALN": null, "Section": "07", "Brgy_Code": "01" }, "geometry": { "type": "Polygon", "coordinates": [ [ [ 121.840223938245614, 13.448533974859732 ], [ 121.840228870787868, 13.448588134756282 ], [ 121.840318870039908, 13.448580386026126 ], [ 121.840309707529428, 13.448523018964931 ], [ 121.840223938245614, 13.448533974859732 ] ] ] } },
{ "type": "Feature", "properties": { "Id": 0, "CLN": "175", "PSGC": "174001049", "Barangay": "San Miguel", "Land_Class": null, "PIN": "030-01-001-07-029", "ALN": "029", "Section": "07", "Brgy_Code": "01" }, "geometry": { "type": "Polygon", "coordinates": [ [ [ 121.840140493776858, 13.448543166515426 ], [ 121.840223938245614, 13.44853397485973 ], [ 121.840220320263668, 13.448494248982323 ], [ 121.840196794707381, 13.44849414055372 ], [ 121.840196026813572, 13.448478480761164 ], [ 121.840136200986535, 13.448487661734518 ], [ 121.840140493776858, 13.448543166515426 ] ] ] } },
{ "type": "Feature", "properties": { "Id": 0, "CLN": "173", "PSGC": "174001049", "Barangay": "San Miguel", "Land_Class": null, "PIN": "030-01-001-07-028", "ALN": "028", "Section": "07", "Brgy_Code": "01" }, "geometry": { "type": "Polygon", "coordinates": [ [ [ 121.840220320263668, 13.448494248982323 ], [ 121.840223938245614, 13.44853397485973 ], [ 121.840309707529428, 13.448523018964931 ], [ 121.840300371828718, 13.448464586191974 ], [ 121.840196026813572, 13.448478480761164 ], [ 121.840196794707381, 13.44849414055372 ], [ 121.840220320263668, 13.448494248982323 ] ] ] } },
{ "type": "Feature", "properties": { "Id": 0, "CLN": "177", "PSGC": "174001049", "Barangay": "San Miguel", "Land_Class": null, "PIN": "030-01-001-07-030", "ALN": "030", "Section": "07", "Brgy_Code": "01" }, "geometry": { "type": "Polygon", "coordinates": [ [ [ 121.840037250757902, 13.448554514856433 ], [ 121.840140493776858, 13.448543166515426 ], [ 121.840136200986535, 13.448487661734518 ], [ 121.8400328305529, 13.448495853580527 ], [ 121.840037250757902, 13.448554514856433 ] ] ] } },
{ "type": "Feature", "properties": { "Id": 0, "CLN": "172 RW", "PSGC": "174001049", "Barangay": "San Miguel", "Land_Class": null, "PIN": "030-01-001-07-", "ALN": null, "Section": "07", "Brgy_Code": "01" }, "geometry": { "type": "Polygon", "coordinates": [ [ [ 121.840026993181567, 13.448418296136246 ], [ 121.840196739259824, 13.448414970698519 ], [ 121.84019711360915, 13.448381599769379 ], [ 121.840028111563768, 13.448385314008874 ], [ 121.840026993181567, 13.448418296136246 ] ] ] } },
{ "type": "Feature", "properties": { "Id": 0, "CLN": "167 pt", "PSGC": "174001049", "Barangay": "San Miguel", "Land_Class": null, "PIN": "030-01-001-07-020", "ALN": "020", "Section": "07", "Brgy_Code": "01" }, "geometry": { "type": "Polygon", "coordinates": [ [ [ 121.84040701212983, 13.448512898954798 ], [ 121.840452948521687, 13.448507878330311 ], [ 121.84045079244413, 13.448476217365757 ], [ 121.840423643595258, 13.448479701946955 ], [ 121.840404053797883, 13.448482196950382 ], [ 121.84040701212983, 13.448512898954798 ] ] ] } },
{ "type": "Feature", "properties": { "Id": 0, "CLN": "160", "PSGC": "174001049", "Barangay": "San Miguel", "Land_Class": null, "PIN": "030-01-001-07-023", "ALN": "023", "Section": "07", "Brgy_Code": "01" }, "geometry": { "type": "Polygon", "coordinates": [ [ [ 121.840527918193473, 13.448499684490725 ], [ 121.840656499030686, 13.448485631144035 ], [ 121.840651466152053, 13.44840324270012 ], [ 121.840590641974785, 13.448404244932728 ], [ 121.840594197855594, 13.448457889018231 ], [ 121.840526021275281, 13.448466508167431 ], [ 121.840527918193473, 13.448499684490725 ] ] ] } },
{ "type": "Feature", "properties": { "Id": 0, "CLN": "161 RW", "PSGC": "174001049", "Barangay": "San Miguel", "Land_Class": null, "PIN": "030-01-001-07-", "ALN": null, "Section": "07", "Brgy_Code": "01" }, "geometry": { "type": "Polygon", "coordinates": [ [ [ 121.840590641974785, 13.448404244932728 ], [ 121.840651466152053, 13.44840324270012 ], [ 121.840656499030686, 13.448485631144035 ], [ 121.840527918193473, 13.44849968449072 ], [ 121.840532226485053, 13.448549710861714 ], [ 121.84071869800799, 13.448534628335034 ], [ 121.840707778487499, 13.448359219738023 ], [ 121.84058821281296, 13.448367598547032 ], [ 121.840590641974785, 13.448404244932728 ] ] ] } },
{ "type": "Feature", "properties": { "Id": 0, "CLN": "165 pt", "PSGC": "174001049", "Barangay": "San Miguel", "Land_Class": null, "PIN": "030-01-001-07-026", "ALN": "026", "Section": "07", "Brgy_Code": "01" }, "geometry": { "type": "Polygon", "coordinates": [ [ [ 121.840366940922777, 13.448486953872436 ], [ 121.840404053797883, 13.448482196950382 ], [ 121.840423643595258, 13.448479701946955 ], [ 121.840419628575091, 13.448407062733327 ], [ 121.840357719140243, 13.44840808279101 ], [ 121.84036694092201, 13.448486953872521 ], [ 121.840366940922777, 13.448486953872436 ] ] ] } },
{ "type": "Feature", "properties": { "Id": 0, "CLN": "211", "PSGC": "174001049", "Barangay": "San Miguel", "Land_Class": null, "PIN": "030-01-001-07-004", "ALN": "004", "Section": "07", "Brgy_Code": "01" }, "geometry": { "type": "Polygon", "coordinates": [ [ [ 121.841024166178798, 13.448957191494417 ], [ 121.840994401429782, 13.44894949875607 ], [ 121.840977186024489, 13.448935127500269 ], [ 121.840907588486232, 13.448856402738567 ], [ 121.840840657810574, 13.448797516590233 ], [ 121.840763217931936, 13.44881788738892 ], [ 121.840772569682713, 13.448861086228945 ], [ 121.840780043617215, 13.448895610803307 ], [ 121.840787152626746, 13.448928449660919 ], [ 121.840800226297318, 13.448972162645131 ], [ 121.841024166178798, 13.448957191494417 ] ] ] } },
{ "type": "Feature", "properties": { "Id": 0, "CLN": "212 pt", "PSGC": "174001049", "Barangay": "San Miguel", "Land_Class": null, "PIN": "030-01-001-07-040", "ALN": "040", "Section": "07", "Brgy_Code": "01" }, "geometry": { "type": "Polygon", "coordinates": [ [ [ 121.840733390298894, 13.44893531107104 ], [ 121.840737463232088, 13.448970983116391 ], [ 121.840800226297318, 13.448972162645147 ], [ 121.840787152626746, 13.448928449660919 ], [ 121.840733390298894, 13.44893531107104 ] ] ] } },
{ "type": "Feature", "properties": { "Id": 0, "CLN": "214 pt", "PSGC": "174001049", "Barangay": "San Miguel", "Land_Class": null, "PIN": "030-01-001-07-033", "ALN": "033", "Section": "07", "Brgy_Code": "01" }, "geometry": { "type": "Polygon", "coordinates": [ [ [ 121.840772569682713, 13.448861086228945 ], [ 121.840763217931979, 13.448817887389108 ], [ 121.840763217931951, 13.448817887388939 ], [ 121.84070460854366, 13.448829557096984 ], [ 121.840710320373219, 13.448878258524227 ], [ 121.840772569682713, 13.448861086228945 ] ] ] } },
{ "type": "Feature", "properties": { "Id": 0, "CLN": "215", "PSGC": "174001049", "Barangay": "San Miguel", "Land_Class": null, "PIN": "030-01-001-07-008", "ALN": "008", "Section": "07", "Brgy_Code": "01" }, "geometry": { "type": "Polygon", "coordinates": [ [ [ 121.840673175965989, 13.4489697749265 ], [ 121.840652623567323, 13.448839907806578 ], [ 121.84057993218326, 13.448852702183046 ], [ 121.840607200975697, 13.448962771196735 ], [ 121.840673175965989, 13.4489697749265 ] ] ] } },
{ "type": "Feature", "properties": { "Id": 0, "CLN": "216", "PSGC": "174001049", "Barangay": "San Miguel", "Land_Class": null, "PIN": "030-01-001-07-009", "ALN": "009", "Section": "07", "Brgy_Code": "01" }, "geometry": { "type": "Polygon", "coordinates": [ [ [ 121.840542418114126, 13.448955798142952 ], [ 121.840607200975697, 13.448962771196735 ], [ 121.84057993218326, 13.448852702183046 ], [ 121.840532826351861, 13.448860984571921 ], [ 121.840542418114126, 13.448955798142952 ] ] ] } },
{ "type": "Feature", "properties": { "Id": 0, "CLN": "217", "PSGC": "174001049", "Barangay": "San Miguel", "Land_Class": null, "PIN": "030-01-001-07-010", "ALN": "010", "Section": "07", "Brgy_Code": "01" }, "geometry": { "type": "Polygon", "coordinates": [ [ [ 121.840418293327374, 13.448936157378595 ], [ 121.840542418114126, 13.448955798142952 ], [ 121.840532826351861, 13.448860984571921 ], [ 121.840408429870408, 13.448881138886447 ], [ 121.840418293327374, 13.448936157378595 ] ] ] } },
{ "type": "Feature", "properties": { "Id": 0, "CLN": "206 RW", "PSGC": "174001049", "Barangay": "San Miguel", "Land_Class": null, "PIN": "030-01-001-07-", "ALN": null, "Section": "07", "Brgy_Code": "01" }, "geometry": { "type": "Polygon", "coordinates": [ [ [ 121.840596092579375, 13.448663421736004 ], [ 121.840748513125433, 13.448645688183793 ], [ 121.840731172879472, 13.448588835605479 ], [ 121.840579181075313, 13.448603455701182 ], [ 121.840596092579375, 13.448663421736004 ] ] ] } },
{ "type": "Feature", "properties": { "Id": 0, "CLN": "209pt.", "PSGC": "174001049", "Barangay": "San Miguel", "Land_Class": null, "PIN": "030-01-001-07-038", "ALN": "016", "Section": "07", "Brgy_Code": "01" }, "geometry": { "type": "Polygon", "coordinates": [ [ [ 121.840465885756217, 13.448827888720166 ], [ 121.840447774710626, 13.448681160307991 ], [ 121.840447682981619, 13.448681171127394 ], [ 121.840388181066729, 13.448688189339489 ], [ 121.840402188594624, 13.448838753849211 ], [ 121.840465885756217, 13.448827888720166 ] ] ] } },
{ "type": "Feature", "properties": { "Id": 0, "CLN": "210 pt.RW", "PSGC": "174001049", "Barangay": "San Miguel", "Land_Class": null, "PIN": "030-01-001-07-038", "ALN": null, "Section": "07", "Brgy_Code": "01" }, "geometry": { "type": "Polygon", "coordinates": [ [ [ 121.840447905182344, 13.448681144918902 ], [ 121.840442673759696, 13.448622139362284 ], [ 121.84038201349081, 13.448630484286218 ], [ 121.840388181066729, 13.448688189339489 ], [ 121.840447905182344, 13.448681144918902 ] ] ] } },
{ "type": "Feature", "properties": { "Id": 0, "CLN": "218", "PSGC": "174001049", "Barangay": "San Miguel", "Land_Class": null, "PIN": "030-01-001-07-011", "ALN": "011", "Section": "07", "Brgy_Code": "01" }, "geometry": { "type": "Polygon", "coordinates": [ [ [ 121.840359415117192, 13.448925972873901 ], [ 121.840350502736953, 13.448864650382211 ], [ 121.840194713170263, 13.448901871878231 ], [ 121.840359415117192, 13.448925972873901 ] ] ] } },
{ "type": "Feature", "properties": { "Id": 0, "CLN": "224", "PSGC": "174001049", "Barangay": "San Miguel", "Land_Class": null, "PIN": "030-01-001-07-012", "ALN": "012", "Section": "07", "Brgy_Code": "01" }, "geometry": { "type": "Polygon", "coordinates": [ [ [ 121.840079707928894, 13.448885031006405 ], [ 121.840194713170263, 13.448901871878231 ], [ 121.840184091459051, 13.448814317565807 ], [ 121.84007344104559, 13.448827203752177 ], [ 121.840079707928894, 13.448885031006405 ] ] ] } },
{ "type": "Feature", "properties": { "Id": 0, "CLN": "223 RW", "PSGC": "174001049", "Barangay": "San Miguel", "Land_Class": null, "PIN": "030-01-001-07-038", "ALN": "038", "Section": "07", "Brgy_Code": "01" }, "geometry": { "type": "Polygon", "coordinates": [ [ [ 121.840062955799652, 13.448730849053881 ], [ 121.840212028508276, 13.448711213293437 ], [ 121.840198045089679, 13.44865660912537 ], [ 121.840052171713396, 13.448675826310023 ], [ 121.840062955799652, 13.448730849053881 ] ] ] } },
{ "type": "Feature", "properties": { "Id": 0, "CLN": "219", "PSGC": "174001049", "Barangay": "San Miguel", "Land_Class": null, "PIN": "030-01-001-07-015", "ALN": "015", "Section": "07", "Brgy_Code": "01" }, "geometry": { "type": "Polygon", "coordinates": [ [ [ 121.840232729717314, 13.448792049874459 ], [ 121.84022511137465, 13.448762300855451 ], [ 121.840178796954888, 13.448766529705987 ], [ 121.840184091459079, 13.448814317565805 ], [ 121.840194713170263, 13.448901871878231 ], [ 121.840350502736953, 13.448864650382232 ], [ 121.840337728072242, 13.448771657234078 ], [ 121.840232729717314, 13.448792049874459 ] ] ] } },
{ "type": "Feature", "properties": { "Id": 0, "CLN": "167 pt", "PSGC": "174001049", "Barangay": "San Miguel", "Land_Class": null, "PIN": "030-01-001-07-019", "ALN": "019", "Section": "07", "Brgy_Code": "01" }, "geometry": { "type": "Polygon", "coordinates": [ [ [ 121.840370078218527, 13.4485169356456 ], [ 121.84040701212983, 13.448512898954798 ], [ 121.840404053797883, 13.448482196950382 ], [ 121.84036694092201, 13.448486953872521 ], [ 121.840370078218527, 13.4485169356456 ] ] ] } },
{ "type": "Feature", "properties": { "Id": 0, "CLN": "167 pt", "PSGC": "174001049", "Barangay": "San Miguel", "Land_Class": null, "PIN": "030-01-001-07-021", "ALN": "021", "Section": "07", "Brgy_Code": "01" }, "geometry": { "type": "Polygon", "coordinates": [ [ [ 121.840452948521687, 13.448507878330311 ], [ 121.840494677420565, 13.448503317556844 ], [ 121.840492269071689, 13.448470901331838 ], [ 121.840485371947736, 13.448471807252504 ], [ 121.84045079244413, 13.448476217365757 ], [ 121.840452948521687, 13.448507878330311 ] ] ] } },
{ "type": "Feature", "properties": { "Id": 0, "CLN": "167 pt", "PSGC": "174001049", "Barangay": "San Miguel", "Land_Class": null, "PIN": "030-01-001-07-022", "ALN": "022", "Section": "07", "Brgy_Code": "01" }, "geometry": { "type": "Polygon", "coordinates": [ [ [ 121.840494677420565, 13.448503317556844 ], [ 121.840527918193473, 13.44849968449072 ], [ 121.840526021275281, 13.448466508167431 ], [ 121.840492269071689, 13.448470901331838 ], [ 121.840494677420565, 13.448503317556844 ] ] ] } },
{ "type": "Feature", "properties": { "Id": 0, "CLN": "165 pt", "PSGC": "174001049", "Barangay": "San Miguel", "Land_Class": null, "PIN": "030-01-001-07-025", "ALN": "025", "Section": "07", "Brgy_Code": "01" }, "geometry": { "type": "Polygon", "coordinates": [ [ [ 121.840423643595258, 13.448479701946955 ], [ 121.84045079244413, 13.448476217365757 ], [ 121.840485371947722, 13.44847180725251 ], [ 121.840480853908986, 13.448406053932301 ], [ 121.840419628575091, 13.448407062733327 ], [ 121.840423643595258, 13.448479701946955 ] ] ] } },
{ "type": "Feature", "properties": { "Id": 0, "CLN": "111 pt", "PSGC": "174001049", "Barangay": "San Miguel", "Land_Class": null, "PIN": "030-01-001-05-021", "ALN": "021", "Section": "05", "Brgy_Code": "01" }, "geometry": { "type": "Polygon", "coordinates": [ [ [ 121.839334348178539, 13.448042804718105 ], [ 121.839325449131167, 13.447970090128111 ], [ 121.83925924705045, 13.447974551270224 ], [ 121.839265629703306, 13.448048397641292 ], [ 121.839334348178539, 13.448042804718105 ] ] ] } },
{ "type": "Feature", "properties": { "Id": 0, "CLN": "113 RW", "PSGC": "174001049", "Barangay": "San Miguel", "Land_Class": null, "PIN": "030-01-001-05-", "ALN": null, "Section": "05", "Brgy_Code": "01" }, "geometry": { "type": "Polygon", "coordinates": [ [ [ 121.839325449131167, 13.447970090128111 ], [ 121.839322633512211, 13.447946322409253 ], [ 121.839194993243922, 13.447958132724912 ], [ 121.839196776004684, 13.447978749401683 ], [ 121.839325449131167, 13.447970090128111 ] ] ] } },
{ "type": "Feature", "properties": { "Id": 0, "CLN": "156 RW", "PSGC": "174001049", "Barangay": "San Miguel", "Land_Class": null, "PIN": "030-01-001-06-", "ALN": null, "Section": "06", "Brgy_Code": "01" }, "geometry": { "type": "Polygon", "coordinates": [ [ [ 121.84054418764434, 13.448268216034849 ], [ 121.84054541406725, 13.448291174901676 ], [ 121.840692526740895, 13.44828391613512 ], [ 121.840690548997188, 13.448264264106291 ], [ 121.840684205752453, 13.448191730013633 ], [ 121.840629321418177, 13.448191471062151 ], [ 121.840637606920112, 13.448265693614461 ], [ 121.84054418764434, 13.448268216034849 ] ] ] } },
{ "type": "Feature", "properties": { "Id": 0, "CLN": "234", "PSGC": "174001049", "Barangay": "San Miguel", "Land_Class": null, "PIN": "030-01-001-04-007", "ALN": "007", "Section": "04", "Brgy_Code": "01" }, "geometry": { "type": "Polygon", "coordinates": [ [ [ 121.839435031986369, 13.448803690467793 ], [ 121.839299494155327, 13.448818048970958 ], [ 121.839303747681811, 13.448839096677748 ], [ 121.839436447988973, 13.448815376425298 ], [ 121.839435031986369, 13.448803690467793 ] ] ] } },
{ "type": "Feature", "properties": { "Id": 0, "CLN": "236", "PSGC": "174001049", "Barangay": "San Miguel", "Land_Class": null, "PIN": "030-01-001-04-006", "ALN": "006", "Section": "04", "Brgy_Code": "01" }, "geometry": { "type": "Polygon", "coordinates": [ [ [ 121.839303747681811, 13.448839096677704 ], [ 121.839299494155327, 13.448818048970958 ], [ 121.839245458342532, 13.448823783395126 ], [ 121.839303747681811, 13.448839096677748 ], [ 121.839303747681811, 13.448839096677704 ] ] ] } },
{ "type": "Feature", "properties": { "Id": 0, "CLN": "233  RW", "PSGC": "174001049", "Barangay": "San Miguel", "Land_Class": null, "PIN": "030-01-001-04-", "ALN": null, "Section": "04", "Brgy_Code": "01" }, "geometry": { "type": "Polygon", "coordinates": [ [ [ 121.839299494155327, 13.448818048970958 ], [ 121.839435031986369, 13.448803690467793 ], [ 121.839430250272414, 13.448763979606976 ], [ 121.839290258028328, 13.448772345873209 ], [ 121.839290258028399, 13.44877234587355 ], [ 121.839299494155327, 13.448818048970958 ] ] ] } },
{ "type": "Feature", "properties": { "Id": 0, "CLN": "192", "PSGC": "174001049", "Barangay": "San Miguel", "Land_Class": null, "PIN": "030-01-001-04-021", "ALN": "021", "Section": "04", "Brgy_Code": "01" }, "geometry": { "type": "Polygon", "coordinates": [ [ [ 121.839567856042422, 13.44856948059342 ], [ 121.839462856532293, 13.448586157911008 ], [ 121.839468245440386, 13.448619006441806 ], [ 121.8395728083904, 13.448605125174534 ], [ 121.839567856042422, 13.44856948059342 ] ] ] } },
{ "type": "Feature", "properties": { "Id": 0, "CLN": "190", "PSGC": "174001049", "Barangay": "San Miguel", "Land_Class": null, "PIN": "030-01-001-04-033", "ALN": "033", "Section": "04", "Brgy_Code": "01" }, "geometry": { "type": "Polygon", "coordinates": [ [ [ 121.839553873485158, 13.448430312878395 ], [ 121.839437666520155, 13.448432092756525 ], [ 121.839462856532293, 13.448586157911008 ], [ 121.839567856042422, 13.44856948059342 ], [ 121.839553873485158, 13.448430312878395 ] ] ] } },
{ "type": "Feature", "properties": { "Id": 0, "CLN": "187", "PSGC": "174001049", "Barangay": "San Miguel", "Land_Class": null, "PIN": "030-01-001-04-030", "ALN": "030", "Section": "04", "Brgy_Code": "01" }, "geometry": { "type": "Polygon", "coordinates": [ [ [ 121.839655104797757, 13.44842876233027 ], [ 121.839553873485158, 13.448430312878395 ], [ 121.839567856042422, 13.44856948059342 ], [ 121.8395728083904, 13.448605125174534 ], [ 121.839667689813055, 13.448595649536703 ], [ 121.839655104797757, 13.44842876233027 ] ] ] } },
{ "type": "Feature", "properties": { "Id": 0, "CLN": "20347", "PSGC": "174001049", "Barangay": "San Miguel", "Land_Class": null, "PIN": "030-01-001-04-", "ALN": null, "Section": "04", "Brgy_Code": "01" }, "geometry": { "type": "Polygon", "coordinates": [ [ [ 121.839551258292886, 13.448416108606802 ], [ 121.839653376132858, 13.448411927053963 ], [ 121.839635935720594, 13.448397760891913 ], [ 121.839548389782095, 13.448400066937724 ], [ 121.839551258292886, 13.448416108606802 ] ] ] } },
{ "type": "Feature", "properties": { "Id": 0, "CLN": "203 RW", "PSGC": "174001049", "Barangay": "San Miguel", "Land_Class": null, "PIN": "030-01-001-04-", "ALN": null, "Section": "04", "Brgy_Code": "01" }, "geometry": { "type": "Polygon", "coordinates": [ [ [ 121.839178607431251, 13.448649974115153 ], [ 121.839147343909062, 13.448653419088213 ], [ 121.83915522520681, 13.448706836785563 ], [ 121.839276640857008, 13.448696158090613 ], [ 121.839269946099662, 13.448640432412967 ], [ 121.839178607431251, 13.448649974115153 ] ] ] } },
{ "type": "Feature", "properties": { "Id": 0, "CLN": "195  RW", "PSGC": "174001049", "Barangay": "San Miguel", "Land_Class": null, "PIN": "030-01-001-04-", "ALN": null, "Section": "04", "Brgy_Code": "01" }, "geometry": { "type": "Polygon", "coordinates": [ [ [ 121.839269946099662, 13.448640432412967 ], [ 121.839276640857008, 13.448696158090613 ], [ 121.839412217746542, 13.448684591094729 ], [ 121.839404459342077, 13.448625151186301 ], [ 121.839269946099662, 13.448640432412967 ] ] ] } },
{ "type": "Feature", "properties": { "Id": 0, "CLN": "194", "PSGC": "174001049", "Barangay": "San Miguel", "Land_Class": null, "PIN": "030-01-001-04-024", "ALN": "024", "Section": "04", "Brgy_Code": "01" }, "geometry": { "type": "Polygon", "coordinates": [ [ [ 121.839266184077019, 13.448609118161954 ], [ 121.839269946099662, 13.448640432412995 ], [ 121.839404459342077, 13.448625151186301 ], [ 121.839397161872029, 13.448567947135862 ], [ 121.839259482759701, 13.448567490418112 ], [ 121.839266184077019, 13.448609118161935 ], [ 121.839266184077019, 13.448609118161954 ] ] ] } },
{ "type": "Feature", "properties": { "Id": 0, "CLN": "200", "PSGC": "174001049", "Barangay": "San Miguel", "Land_Class": null, "PIN": "030-01-001-04-026", "ALN": "026", "Section": "04", "Brgy_Code": "01" }, "geometry": { "type": "Polygon", "coordinates": [ [ [ 121.839266184077019, 13.448609118161908 ], [ 121.839259482759701, 13.448567490418112 ], [ 121.839252904626562, 13.448521671688638 ], [ 121.839252904626562, 13.448521671688638 ], [ 121.839252904626562, 13.448521671688615 ], [ 121.83917235779893, 13.448524842721065 ], [ 121.839176674956349, 13.448611281716927 ], [ 121.839266184077019, 13.448609118161908 ] ] ] } },
{ "type": "Feature", "properties": { "Id": 0, "CLN": "202", "PSGC": "174001049", "Barangay": "San Miguel", "Land_Class": null, "PIN": "030-01-001-04-025", "ALN": "025", "Section": "04", "Brgy_Code": "01" }, "geometry": { "type": "Polygon", "coordinates": [ [ [ 121.839176674956349, 13.448611281716927 ], [ 121.839178607431251, 13.448649974115153 ], [ 121.839269946099662, 13.448640432412967 ], [ 121.839266184077019, 13.448609118161897 ], [ 121.839176674956349, 13.448611281716927 ] ] ] } },
{ "type": "Feature", "properties": { "Id": 0, "CLN": "112 RW", "PSGC": "174001049", "Barangay": "San Miguel", "Land_Class": null, "PIN": "030-01-001-05-", "ALN": null, "Section": "05", "Brgy_Code": "01" }, "geometry": { "type": "Polygon", "coordinates": [ [ [ 121.839137212420013, 13.448123695685355 ], [ 121.83910460084897, 13.448126874418529 ], [ 121.839124628480306, 13.448335069511488 ], [ 121.839370895107024, 13.448328720662335 ], [ 121.83936569000825, 13.448298008921881 ], [ 121.839151540441662, 13.448304505930004 ], [ 121.839137212420013, 13.448123695685355 ] ] ] } },
{ "type": "Feature", "properties": { "Id": 0, "CLN": "111 pt", "PSGC": "174001049", "Barangay": "San Miguel", "Land_Class": null, "PIN": "030-01-001-05-002", "ALN": "002", "Section": "05", "Brgy_Code": "01" }, "geometry": { "type": "Polygon", "coordinates": [ [ [ 121.839265629703306, 13.448048397641292 ], [ 121.83925924705045, 13.447974551270224 ], [ 121.839196776004684, 13.447978749401683 ], [ 121.839208707168297, 13.448116726894307 ], [ 121.839137212420013, 13.448123695685355 ], [ 121.839151540441662, 13.448304505930004 ], [ 121.83936569000825, 13.448298008921881 ], [ 121.839334348178539, 13.448042804718105 ], [ 121.839265629703306, 13.448048397641292 ] ] ] } },
{ "type": "Feature", "properties": { "Id": 0, "CLN": "122 RW", "PSGC": "174001049", "Barangay": "San Miguel", "Land_Class": null, "PIN": "030-01-001-05-", "ALN": null, "Section": "05", "Brgy_Code": "01" }, "geometry": { "type": "Polygon", "coordinates": [ [ [ 121.839540112528709, 13.448295898587356 ], [ 121.839419735164626, 13.448295913895645 ], [ 121.839423916346874, 13.448334703183775 ], [ 121.839545011190367, 13.448332362570468 ], [ 121.839540112528709, 13.448295898587356 ] ] ] } },
{ "type": "Feature", "properties": { "Id": 0, "CLN": "124 RW", "PSGC": "174001049", "Barangay": "San Miguel", "Land_Class": null, "PIN": "030-01-001-05-026", "ALN": "026", "Section": "05", "Brgy_Code": "01" }, "geometry": { "type": "Polygon", "coordinates": [ [ [ 121.839540112528709, 13.448295898587356 ], [ 121.839545011190367, 13.448332362570468 ], [ 121.839648339335497, 13.448330424245416 ], [ 121.839648505582517, 13.448295884753822 ], [ 121.839540112528709, 13.448295898587356 ] ] ] } },
{ "type": "Feature", "properties": { "Id": 0, "CLN": "114", "PSGC": "174001049", "Barangay": "San Miguel", "Land_Class": null, "PIN": "030-01-001-05-005", "ALN": "005", "Section": "05", "Brgy_Code": "01" }, "geometry": { "type": "Polygon", "coordinates": [ [ [ 121.839523962259364, 13.448040243922103 ], [ 121.839520883491218, 13.447988019894328 ], [ 121.839519173844749, 13.447955975268066 ], [ 121.839382262542472, 13.447965196029767 ], [ 121.839394512287839, 13.448052045990593 ], [ 121.839506749227453, 13.448044592781191 ], [ 121.839523962259392, 13.448040243922359 ], [ 121.839523962259364, 13.448040243922103 ] ] ] } },
{ "type": "Feature", "properties": { "Id": 0, "CLN": "116 pt", "PSGC": "174001049", "Barangay": "San Miguel", "Land_Class": null, "PIN": "030-01-001-05-006", "ALN": "006", "Section": "05", "Brgy_Code": "01" }, "geometry": { "type": "Polygon", "coordinates": [ [ [ 121.839613978807122, 13.447949590258057 ], [ 121.839519173844749, 13.447955975268066 ], [ 121.839520883491218, 13.447988019894328 ], [ 121.839616736258421, 13.447972660230821 ], [ 121.839613978807122, 13.447949590258057 ] ] ] } },
{ "type": "Feature", "properties": { "Id": 0, "CLN": "137 RW", "PSGC": "174001049", "Barangay": "San Miguel", "Land_Class": null, "PIN": "030-01-001-05-", "ALN": null, "Section": "05", "Brgy_Code": "01" }, "geometry": { "type": "Polygon", "coordinates": [ [ [ 121.839945405651491, 13.448284912246374 ], [ 121.839841305144688, 13.448287149093318 ], [ 121.83983985636273, 13.448313430198295 ], [ 121.839946996613619, 13.448318516504452 ], [ 121.839945405651491, 13.448284912246374 ] ] ] } },
{ "type": "Feature", "properties": { "Id": 0, "CLN": "135 RW", "PSGC": "174001049", "Barangay": "San Miguel", "Land_Class": null, "PIN": "030-01-001-05-", "ALN": null, "Section": "05", "Brgy_Code": "01" }, "geometry": { "type": "Polygon", "coordinates": [ [ [ 121.83983985636273, 13.448313430198295 ], [ 121.839841305144688, 13.448287149093318 ], [ 121.839710063735907, 13.448289969065536 ], [ 121.839710063735879, 13.448289969065536 ], [ 121.839714413114251, 13.448326300674232 ], [ 121.83983985636273, 13.448313430198295 ] ] ] } },
{ "type": "Feature", "properties": { "Id": 0, "CLN": "133", "PSGC": "174001049", "Barangay": "San Miguel", "Land_Class": null, "PIN": "030-01-001-05-018", "ALN": "018", "Section": "05", "Brgy_Code": "01" }, "geometry": { "type": "Polygon", "coordinates": [ [ [ 121.839806781064894, 13.448123027584879 ], [ 121.839807241282784, 13.448134492827561 ], [ 121.839807558029449, 13.448149600598102 ], [ 121.839832001162563, 13.448147056347761 ], [ 121.839836299414586, 13.448194015492719 ], [ 121.839940427066054, 13.448179439525141 ], [ 121.839927178535319, 13.448112069222008 ], [ 121.839806781064894, 13.448123027584879 ] ] ] } },
{ "type": "Feature", "properties": { "Id": 0, "CLN": "143 RW", "PSGC": "174001049", "Barangay": "San Miguel", "Land_Class": null, "PIN": "030-01-001-06-", "ALN": null, "Section": "06", "Brgy_Code": "01" }, "geometry": { "type": "Polygon", "coordinates": [ [ [ 121.840172511380061, 13.448279712636458 ], [ 121.840020077928941, 13.448284307760938 ], [ 121.840027500769366, 13.448324201498613 ], [ 121.840173212230908, 13.448317787950968 ], [ 121.840172511380061, 13.448279712636458 ] ] ] } },
{ "type": "Feature", "properties": { "Id": 0, "CLN": "145 RW", "PSGC": "174001049", "Barangay": "San Miguel", "Land_Class": null, "PIN": "030-01-001-06-", "ALN": null, "Section": "06", "Brgy_Code": "01" }, "geometry": { "type": "Polygon", "coordinates": [ [ [ 121.840274753255841, 13.448276630491 ], [ 121.840274753255841, 13.448276630491 ], [ 121.840172511380061, 13.448279712636458 ], [ 121.840173212230908, 13.448317787950968 ], [ 121.840278219193763, 13.44830852978586 ], [ 121.840274753255841, 13.448276630491 ] ] ] } },
{ "type": "Feature", "properties": { "Id": 0, "CLN": "139 RW", "PSGC": "174001049", "Barangay": "San Miguel", "Land_Class": null, "PIN": "030-01-001-06-", "ALN": null, "Section": "06", "Brgy_Code": "01" }, "geometry": { "type": "Polygon", "coordinates": [ [ [ 121.840146146521917, 13.447923952964171 ], [ 121.840226211295345, 13.447920491229899 ], [ 121.840223217470211, 13.447892021820927 ], [ 121.840141452276626, 13.447894917031517 ], [ 121.839979772188059, 13.44790064185711 ], [ 121.839982330099787, 13.447931035760909 ], [ 121.840146146521917, 13.447923952964171 ] ] ] } },
{ "type": "Feature", "properties": { "Id": 0, "CLN": "150", "PSGC": "174001049", "Barangay": "San Miguel", "Land_Class": null, "PIN": "030-01-001-06-011", "ALN": "011", "Section": "06", "Brgy_Code": "01" }, "geometry": { "type": "Polygon", "coordinates": [ [ [ 121.840607367039155, 13.447994800876133 ], [ 121.840473351882821, 13.447997680948902 ], [ 121.84047647707682, 13.448100430504974 ], [ 121.840535286618319, 13.448101587127478 ], [ 121.840618633436421, 13.448095726755129 ], [ 121.840607367039155, 13.447994800876133 ] ] ] } },
{ "type": "Feature", "properties": { "Id": 0, "CLN": "148", "PSGC": "174001049", "Barangay": "San Miguel", "Land_Class": null, "PIN": "030-01-001-06-012", "ALN": "012", "Section": "06", "Brgy_Code": "01" }, "geometry": { "type": "Polygon", "coordinates": [ [ [ 121.840607367039155, 13.447994800876133 ], [ 121.840596876905252, 13.447900828819323 ], [ 121.840473746692652, 13.447907021578255 ], [ 121.840473351882821, 13.447997680948902 ], [ 121.840607367039155, 13.447994800876133 ] ] ] } },
{ "type": "Feature", "properties": { "Id": 0, "CLN": "213 pt", "PSGC": "174001049", "Barangay": "San Miguel", "Land_Class": null, "PIN": "030-01-001-07-036", "ALN": "036", "Section": "07", "Brgy_Code": "01" }, "geometry": { "type": "Polygon", "coordinates": [ [ [ 121.840780043617215, 13.448895610803307 ], [ 121.840772569679004, 13.448861086211801 ], [ 121.840660852127158, 13.448891902692509 ], [ 121.840665057580907, 13.448918476241152 ], [ 121.840780043617215, 13.448895610803307 ] ] ] } },
{ "type": "Feature", "properties": { "Id": 0, "CLN": "212 pt", "PSGC": "174001049", "Barangay": "San Miguel", "Land_Class": null, "PIN": "030-01-001-07-039", "ALN": "039", "Section": "07", "Brgy_Code": "01" }, "geometry": { "type": "Polygon", "coordinates": [ [ [ 121.840669029947321, 13.448943576946329 ], [ 121.840673175966018, 13.448969774926514 ], [ 121.840737463232088, 13.448970983116391 ], [ 121.840733390298894, 13.44893531107104 ], [ 121.840669029947321, 13.448943576946329 ] ] ] } },
{ "type": "Feature", "properties": { "Id": 0, "CLN": "213 pt", "PSGC": "174001049", "Barangay": "San Miguel", "Land_Class": null, "PIN": "030-01-001-07-035", "ALN": "035", "Section": "07", "Brgy_Code": "01" }, "geometry": { "type": "Polygon", "coordinates": [ [ [ 121.840787152626746, 13.448928449660919 ], [ 121.840780043617215, 13.448895610803307 ], [ 121.840665057580907, 13.448918476241152 ], [ 121.840669029947321, 13.448943576946329 ], [ 121.840733390298894, 13.44893531107104 ], [ 121.840787152626746, 13.448928449660919 ] ] ] } },
{ "type": "Feature", "properties": { "Id": 0, "CLN": "214 pt", "PSGC": "174001049", "Barangay": "San Miguel", "Land_Class": null, "PIN": "030-01-001-07-032", "ALN": "032", "Section": "07", "Brgy_Code": "01" }, "geometry": { "type": "Polygon", "coordinates": [ [ [ 121.840652623567323, 13.448839907806613 ], [ 121.840660852131435, 13.448891902719593 ], [ 121.840710320373219, 13.448878258524227 ], [ 121.84070460854366, 13.448829557096984 ], [ 121.840652623567323, 13.448839907806613 ] ] ] } },
{ "type": "Feature", "properties": { "Id": 0, "CLN": "221 RW", "PSGC": "174001049", "Barangay": "San Miguel", "Land_Class": null, "PIN": "030-01-001-07-", "ALN": null, "Section": "07", "Brgy_Code": "01" }, "geometry": { "type": "Polygon", "coordinates": [ [ [ 121.840198045089679, 13.44865660912537 ], [ 121.840212028508276, 13.448711213293437 ], [ 121.84032737478239, 13.448696019893532 ], [ 121.840323960698711, 13.448640129924266 ], [ 121.840198045089679, 13.44865660912537 ] ] ] } },
{ "type": "Feature", "properties": { "Id": 0, "CLN": "222", "PSGC": "174001049", "Barangay": "San Miguel", "Land_Class": null, "PIN": "030-01-001-07-037", "ALN": "037", "Section": "07", "Brgy_Code": "01" }, "geometry": { "type": "Polygon", "coordinates": [ [ [ 121.840212028508276, 13.448711213293437 ], [ 121.84006295580069, 13.448730849053728 ], [ 121.840062955799652, 13.448730849053881 ], [ 121.84007344104559, 13.448827203752177 ], [ 121.840184091459051, 13.448814317565807 ], [ 121.840178796954888, 13.448766529705987 ], [ 121.84022511137465, 13.448762300855435 ], [ 121.840212028508276, 13.448711213293437 ] ] ] } },
{ "type": "Feature", "properties": { "Id": 0, "CLN": "220", "PSGC": "174001049", "Barangay": "San Miguel", "Land_Class": null, "PIN": "030-01-001-07-014", "ALN": "014", "Section": "07", "Brgy_Code": "01" }, "geometry": { "type": "Polygon", "coordinates": [ [ [ 121.84032737478239, 13.44869601989355 ], [ 121.84032737478239, 13.448696019893546 ], [ 121.840212028508276, 13.448711213293437 ], [ 121.840232729717314, 13.448792049874459 ], [ 121.840337728072242, 13.448771657234078 ], [ 121.84032737478239, 13.44869601989355 ] ] ] } },
{ "type": "Feature", "properties": { "Id": 0, "CLN": "208 RW", "PSGC": "174001049", "Barangay": "San Miguel", "Land_Class": null, "PIN": "030-01-001-07-", "ALN": null, "Section": "07", "Brgy_Code": "01" }, "geometry": { "type": "Polygon", "coordinates": [ [ [ 121.840494728994145, 13.448675622070457 ], [ 121.840596092579375, 13.448663421736004 ], [ 121.84057918107537, 13.448603455701347 ], [ 121.840579181075313, 13.448603455701182 ], [ 121.840483897801136, 13.448616468236372 ], [ 121.840494728994145, 13.448675622070457 ] ] ] } },
{ "type": "Feature", "properties": { "Id": 0, "CLN": "207 A", "PSGC": "174001049", "Barangay": "San Miguel", "Land_Class": null, "PIN": "030-01-001-07-034", "ALN": "034", "Section": "07", "Brgy_Code": "01" }, "geometry": { "type": "Polygon", "coordinates": [ [ [ 121.840508370244436, 13.44875012281118 ], [ 121.840520891387598, 13.44881850613292 ], [ 121.840634404263426, 13.448799269979899 ], [ 121.84063440426327, 13.44879926997932 ], [ 121.840618695834408, 13.448743569951985 ], [ 121.840608550256206, 13.448744143680113 ], [ 121.840608486668927, 13.448757365067221 ], [ 121.840573215651048, 13.448757202554797 ], [ 121.840572525260342, 13.448744712231576 ], [ 121.840508370244436, 13.44875012281118 ] ] ] } },
{ "type": "Feature", "properties": { "Id": 0, "CLN": "205", "PSGC": "174001049", "Barangay": "San Miguel", "Land_Class": null, "PIN": "030-01-001-07-018", "ALN": "018", "Section": "07", "Brgy_Code": "01" }, "geometry": { "type": "Polygon", "coordinates": [ [ [ 121.840748513125433, 13.448645688183793 ], [ 121.840596092579375, 13.448663421736004 ], [ 121.840618695834408, 13.448743569951985 ], [ 121.840634404263426, 13.448799269979885 ], [ 121.840787373243529, 13.448772938794754 ], [ 121.840748513125433, 13.448645688183793 ] ] ] } },
{ "type": "Feature", "properties": { "Id": 0, "CLN": "207 B", "PSGC": "174001049", "Barangay": "San Miguel", "Land_Class": null, "PIN": "030-01-001-07-017", "ALN": "017", "Section": "07", "Brgy_Code": "01" }, "geometry": { "type": "Polygon", "coordinates": [ [ [ 121.840596092579375, 13.448663421736004 ], [ 121.840494728994145, 13.448675622070457 ], [ 121.840508370244436, 13.44875012281118 ], [ 121.840572525260342, 13.448744712231576 ], [ 121.840573215651048, 13.448757202554797 ], [ 121.840608486668927, 13.448757365067221 ], [ 121.840608550256206, 13.448744143680113 ], [ 121.840618695834408, 13.448743569951985 ], [ 121.840596092579375, 13.448663421736004 ] ] ] } },
{ "type": "Feature", "properties": { "Id": 0, "CLN": "164 RW", "PSGC": "174001049", "Barangay": "San Miguel", "Land_Class": null, "PIN": "030-01-001-07-", "ALN": null, "Section": "07", "Brgy_Code": "01" }, "geometry": { "type": "Polygon", "coordinates": [ [ [ 121.840590641974785, 13.448404244932728 ], [ 121.84058821281296, 13.448367598547032 ], [ 121.840478737728887, 13.44837525607972 ], [ 121.840480853908986, 13.448406053932301 ], [ 121.840590641974785, 13.448404244932728 ] ] ] } },
{ "type": "Feature", "properties": { "Id": 0, "CLN": "163", "PSGC": "174001049", "Barangay": "San Miguel", "Land_Class": null, "PIN": "030-01-001-07-024", "ALN": "024", "Section": "07", "Brgy_Code": "01" }, "geometry": { "type": "Polygon", "coordinates": [ [ [ 121.840485371947736, 13.448471807252504 ], [ 121.840492269071689, 13.448470901331838 ], [ 121.840526021275281, 13.448466508167431 ], [ 121.840594197855594, 13.448457889018231 ], [ 121.840590641974785, 13.448404244932728 ], [ 121.840480853908986, 13.448406053932301 ], [ 121.840485371947736, 13.448471807252504 ] ] ] } },
{ "type": "Feature", "properties": { "Id": 0, "CLN": "168 RW", "PSGC": "174001049", "Barangay": "San Miguel", "Land_Class": null, "PIN": "030-01-001-07-", "ALN": null, "Section": "07", "Brgy_Code": "01" }, "geometry": { "type": "Polygon", "coordinates": [ [ [ 121.840498203106648, 13.448553978769363 ], [ 121.840532226485081, 13.448549710861748 ], [ 121.840527918193473, 13.44849968449072 ], [ 121.840494677420565, 13.448503317556844 ], [ 121.840452948521687, 13.448507878330311 ], [ 121.84040701212983, 13.448512898954798 ], [ 121.840370078218527, 13.4485169356456 ], [ 121.8403755930199, 13.448569358992888 ], [ 121.84041202655952, 13.448564788771968 ], [ 121.840456520679041, 13.448559207424957 ], [ 121.840498203106648, 13.448553978769363 ] ] ] } },
{ "type": "Feature", "properties": { "Id": 0, "CLN": "166 RW", "PSGC": "174001049", "Barangay": "San Miguel", "Land_Class": null, "PIN": "030-01-001-07-", "ALN": null, "Section": "07", "Brgy_Code": "01" }, "geometry": { "type": "Polygon", "coordinates": [ [ [ 121.840419628575091, 13.448407062733327 ], [ 121.840480853908986, 13.448406053932301 ], [ 121.840478737728887, 13.44837525607972 ], [ 121.84041443720038, 13.448379683256942 ], [ 121.840354776016852, 13.448382391367559 ], [ 121.840357719140243, 13.44840808279101 ], [ 121.840419628575091, 13.448407062733327 ] ] ] } },
{ "type": "Feature", "properties": { "Id": 0, "CLN": "178 RW", "PSGC": "174001049", "Barangay": "San Miguel", "Land_Class": null, "PIN": "030-01-001-07-", "ALN": null, "Section": "07", "Brgy_Code": "01" }, "geometry": { "type": "Polygon", "coordinates": [ [ [ 121.840140493776858, 13.448543166515426 ], [ 121.840037250757902, 13.448554514856454 ], [ 121.840037250757902, 13.448554514856454 ], [ 121.840040549303382, 13.448603676953445 ], [ 121.840139197513452, 13.448595410811862 ], [ 121.840140493776858, 13.448543166515426 ] ] ] } },
{ "type": "Feature", "properties": { "Id": 0, "CLN": "176 RW", "PSGC": "174001049", "Barangay": "San Miguel", "Land_Class": null, "PIN": "030-01-001-07-", "ALN": null, "Section": "07", "Brgy_Code": "01" }, "geometry": { "type": "Polygon", "coordinates": [ [ [ 121.840139197513452, 13.448595410811862 ], [ 121.840228870787868, 13.448588134756282 ], [ 121.840223938245614, 13.44853397485973 ], [ 121.840140493776858, 13.448543166515426 ], [ 121.840139197513452, 13.448595410811862 ] ] ] } },
{ "type": "Feature", "properties": { "Id": 0, "CLN": "171", "PSGC": "174001049", "Barangay": "San Miguel", "Land_Class": null, "PIN": "030-01-001-07-031", "ALN": "031", "Section": "07", "Brgy_Code": "01" }, "geometry": { "type": "Polygon", "coordinates": [ [ [ 121.840196739259824, 13.448414970698519 ], [ 121.840026993181567, 13.448418296136246 ], [ 121.8400328305529, 13.448495853580527 ], [ 121.840136200986535, 13.448487661734518 ], [ 121.840196026813572, 13.448478480761164 ], [ 121.840196739259824, 13.448414970698519 ] ] ] } },
{ "type": "Feature", "properties": { "Id": 0, "CLN": "170 RW", "PSGC": "174001049", "Barangay": "San Miguel", "Land_Class": null, "PIN": "030-01-001-07-", "ALN": null, "Section": "07", "Brgy_Code": "01" }, "geometry": { "type": "Polygon", "coordinates": [ [ [ 121.84019711360915, 13.448381599769379 ], [ 121.840196739259824, 13.448414970698519 ], [ 121.840292193722021, 13.448413100632155 ], [ 121.840286021816667, 13.448379417571006 ], [ 121.84019711360915, 13.448381599769379 ] ] ] } },
{ "type": "Feature", "properties": { "Id": 0, "CLN": "169", "PSGC": "174001049", "Barangay": "San Miguel", "Land_Class": null, "PIN": "030-01-001-07-027", "ALN": "027", "Section": "07", "Brgy_Code": "01" }, "geometry": { "type": "Polygon", "coordinates": [ [ [ 121.840196739259824, 13.448414970698519 ], [ 121.840196026813572, 13.448478480761164 ], [ 121.840300371828718, 13.448464586191974 ], [ 121.840292193722021, 13.448413100632155 ], [ 121.840196739259824, 13.448414970698519 ] ] ] } },
{ "type": "Feature", "properties": { "Id": 0, "CLN": "209pt.", "PSGC": "174001049", "Barangay": "San Miguel", "Land_Class": null, "PIN": "030-01-001-07-039", "ALN": "016", "Section": "07", "Brgy_Code": "01" }, "geometry": { "type": "Polygon", "coordinates": [ [ [ 121.840447774710626, 13.448681160307991 ], [ 121.840465885756217, 13.448827888720166 ], [ 121.840520891387598, 13.448818506132946 ], [ 121.840494728994145, 13.448675622070466 ], [ 121.840447774710626, 13.448681160307991 ] ] ] } },
{ "type": "Feature", "properties": { "Id": 0, "CLN": "210 pt. RW", "PSGC": "174001049", "Barangay": "San Miguel", "Land_Class": null, "PIN": "030-01-001-07-039", "ALN": null, "Section": "07", "Brgy_Code": "01" }, "geometry": { "type": "Polygon", "coordinates": [ [ [ 121.840442673759696, 13.448622139362284 ], [ 121.840447905182344, 13.448681144918902 ], [ 121.840494728994145, 13.448675622070466 ], [ 121.840483897801136, 13.448616468236372 ], [ 121.840442673759696, 13.448622139362284 ] ] ] } }
]
}
