{
"type": "FeatureCollection",
"name": "Tumapon",
"crs": { "type": "name", "properties": { "name": "urn:ogc:def:crs:OGC:1.3:CRS84" } },
"features": [
{ "type": "Feature", "properties": { "Id": 0, "CLN": "11090", "PSGC": "174001060", "Barangay": "Tumapon", "Land_Class": null, "PIN": "030-01-055-01-036", "ALN": "036", "Section": "01", "Brgy_Code": "055" }, "geometry": { "type": "Polygon", "coordinates": [ [ [ 121.856289414599203, 13.431587586780649 ], [ 121.856030145391529, 13.431226875040313 ], [ 121.855801421426506, 13.431865753985145 ], [ 121.855800111501935, 13.43199400880771 ], [ 121.855827257859232, 13.432210615700349 ], [ 121.855782868981237, 13.432455475983319 ], [ 121.856164241299396, 13.432560445594627 ], [ 121.856237887778462, 13.43236854427864 ], [ 121.856505390675849, 13.431905525329235 ], [ 121.856524946138578, 13.431858306902923 ], [ 121.856289414599203, 13.431587586780649 ] ] ] } },
{ "type": "Feature", "properties": { "Id": 0, "CLN": "11091", "PSGC": "174001060", "Barangay": "Tumapon", "Land_Class": null, "PIN": "030-01-055-01-037", "ALN": "037", "Section": "01", "Brgy_Code": "055" }, "geometry": { "type": "Polygon", "coordinates": [ [ [ 121.856544299908236, 13.431853664028425 ], [ 121.856771913899678, 13.431755351925073 ], [ 121.856922247135145, 13.431647227530171 ], [ 121.857106701253514, 13.431477758469073 ], [ 121.857218259543586, 13.431393111567163 ], [ 121.857499794783152, 13.431066482164656 ], [ 121.857442328362723, 13.430997742614256 ], [ 121.857249137675439, 13.430995871139354 ], [ 121.856750908769968, 13.431088225184199 ], [ 121.856606416974245, 13.430983493648537 ], [ 121.856435184014558, 13.431422673339302 ], [ 121.856289414599203, 13.431587586780649 ], [ 121.856524946138578, 13.431858306902923 ], [ 121.856544299908236, 13.431853664028425 ] ] ] } },
{ "type": "Feature", "properties": { "Id": 0, "CLN": "11092", "PSGC": "174001060", "Barangay": "Tumapon", "Land_Class": null, "PIN": "030-01-055-01-056", "ALN": "056", "Section": "01", "Brgy_Code": "055" }, "geometry": { "type": "Polygon", "coordinates": [ [ [ 121.856030145391529, 13.431226875040313 ], [ 121.856289414599203, 13.431587586780649 ], [ 121.856435184014558, 13.431422673339302 ], [ 121.856606416974245, 13.430983493648537 ], [ 121.856159856037593, 13.430371203907075 ], [ 121.855846283940835, 13.430251512167606 ], [ 121.855804308329212, 13.431044768112869 ], [ 121.855801421426506, 13.431865753985145 ], [ 121.856030145391529, 13.431226875040313 ] ] ] } },
{ "type": "Feature", "properties": { "Id": 0, "CLN": "11102", "PSGC": "174001060", "Barangay": "Tumapon", "Land_Class": null, "PIN": "030-01-055-01-055", "ALN": "055", "Section": "01", "Brgy_Code": "055" }, "geometry": { "type": "Polygon", "coordinates": [ [ [ 121.855846283940835, 13.430251512167606 ], [ 121.855842749849586, 13.430147420314361 ], [ 121.856230808641229, 13.429846416206081 ], [ 121.856269995967651, 13.428828963800683 ], [ 121.856106556213589, 13.428870272735979 ], [ 121.856182478863289, 13.428962547213006 ], [ 121.855681706594083, 13.430006902601715 ], [ 121.855664232532064, 13.42999207389053 ], [ 121.855539050518928, 13.430124115155264 ], [ 121.855846283940835, 13.430251512167606 ] ] ] } },
{ "type": "Feature", "properties": { "Id": 0, "CLN": "11096", "PSGC": "174001060", "Barangay": "Tumapon", "Land_Class": null, "PIN": "030-01-055-01-054", "ALN": "054", "Section": "01", "Brgy_Code": "055" }, "geometry": { "type": "Polygon", "coordinates": [ [ [ 121.856269995967651, 13.428828963800683 ], [ 121.856185554044359, 13.42851740429419 ], [ 121.856255840506407, 13.428189726766707 ], [ 121.856188223348383, 13.427953935142487 ], [ 121.856242049897688, 13.427840187262127 ], [ 121.856266782456728, 13.427693576484174 ], [ 121.856198966198221, 13.427499834803463 ], [ 121.856028449838647, 13.427221525243835 ], [ 121.855879380168773, 13.427223950392969 ], [ 121.855780129715626, 13.427204050706385 ], [ 121.855660992330201, 13.427187950491728 ], [ 121.855589428795582, 13.427195405146374 ], [ 121.855726470318842, 13.427489279607425 ], [ 121.855595006090326, 13.428035343481126 ], [ 121.855608592785998, 13.428183615057627 ], [ 121.855738178021269, 13.4281251352041 ], [ 121.856106556213589, 13.428870272735979 ], [ 121.856269995967651, 13.428828963800683 ] ] ] } },
{ "type": "Feature", "properties": { "Id": 0, "CLN": "11048", "PSGC": "174001060", "Barangay": "Tumapon", "Land_Class": null, "PIN": "030-01-055-01-040", "ALN": "040", "Section": "01", "Brgy_Code": "055" }, "geometry": { "type": "Polygon", "coordinates": [ [ [ 121.853171446513485, 13.431457510156001 ], [ 121.852569839781196, 13.430590627243305 ], [ 121.85223460956216, 13.430707467782852 ], [ 121.85274621679325, 13.431763894353677 ], [ 121.852817404842398, 13.431793382276783 ], [ 121.852895100473418, 13.431844859372637 ], [ 121.853171446513485, 13.431457510156001 ] ] ] } },
{ "type": "Feature", "properties": { "Id": 0, "CLN": "11050 RW", "PSGC": "174001060", "Barangay": "Tumapon", "Land_Class": null, "PIN": "030-01-055-01-", "ALN": null, "Section": "01", "Brgy_Code": "055" }, "geometry": { "type": "Polygon", "coordinates": [ [ [ 121.851633257335266, 13.431996340232526 ], [ 121.851633257335266, 13.431996340232528 ], [ 121.85166116414976, 13.432029921719954 ], [ 121.85166116414976, 13.432029921719954 ], [ 121.851983219131498, 13.431948530626345 ], [ 121.851993315348125, 13.431878427133075 ], [ 121.851981046110438, 13.431815170675822 ], [ 121.851978113323455, 13.431669687914091 ], [ 121.852034211643812, 13.431627996997426 ], [ 121.852134364537918, 13.431638351603768 ], [ 121.852227039238002, 13.43167476752066 ], [ 121.852229936805955, 13.431619372545091 ], [ 121.852138018458859, 13.431581715679062 ], [ 121.852011257991904, 13.431559849890469 ], [ 121.851934752863642, 13.431641106048318 ], [ 121.851919562510091, 13.431786506219149 ], [ 121.851943068619903, 13.431929750532724 ], [ 121.851736655087265, 13.431948857595248 ], [ 121.851633257335266, 13.431996340232523 ], [ 121.851633257335266, 13.431996340232526 ] ] ] } },
{ "type": "Feature", "properties": { "Id": 0, "CLN": "11066", "PSGC": "174001060", "Barangay": "Tumapon", "Land_Class": null, "PIN": "030-01-055-01-022", "ALN": "022", "Section": "01", "Brgy_Code": "055" }, "geometry": { "type": "Polygon", "coordinates": [ [ [ 121.852140900730845, 13.431737842319784 ], [ 121.852086514519414, 13.431741142549141 ], [ 121.852075914787847, 13.431825636484014 ], [ 121.852076203064414, 13.431970394076785 ], [ 121.851931883779002, 13.432046408423229 ], [ 121.851982914374133, 13.432192201974674 ], [ 121.852409147045833, 13.432295403817143 ], [ 121.852827638402658, 13.43198550006449 ], [ 121.852650598309538, 13.431884053100573 ], [ 121.852166104376252, 13.431773437496286 ], [ 121.852140900730845, 13.431737842319784 ] ] ] } },
{ "type": "Feature", "properties": { "Id": 0, "CLN": "11034", "PSGC": "174001060", "Barangay": "Tumapon", "Land_Class": null, "PIN": "030-01-055-01-050", "ALN": "050", "Section": "01", "Brgy_Code": "055" }, "geometry": { "type": "Polygon", "coordinates": [ [ [ 121.85236707779309, 13.426929182567529 ], [ 121.852183750560158, 13.426860177064498 ], [ 121.851499314630246, 13.427643513583671 ], [ 121.851708202640353, 13.428170884477412 ], [ 121.852201958729239, 13.427926436019678 ], [ 121.852397660129, 13.427725483530354 ], [ 121.852318005251391, 13.427612985324565 ], [ 121.85236707779309, 13.426929182567529 ] ] ] } },
{ "type": "Feature", "properties": { "Id": 0, "CLN": "11036", "PSGC": "174001060", "Barangay": "Tumapon", "Land_Class": null, "PIN": "030-01-055-01-051", "ALN": "051", "Section": "01", "Brgy_Code": "055" }, "geometry": { "type": "Polygon", "coordinates": [ [ [ 121.853807633809865, 13.427530056717854 ], [ 121.854288545133542, 13.428407601445539 ], [ 121.854856367670493, 13.428246184321734 ], [ 121.854996821587207, 13.42786219325505 ], [ 121.854878032017737, 13.42775428812684 ], [ 121.854853274391758, 13.427539716414261 ], [ 121.85451412674972, 13.427371795088805 ], [ 121.854248976358434, 13.427240511371739 ], [ 121.854188837570831, 13.427264431914045 ], [ 121.853958442959566, 13.427359035114288 ], [ 121.853807633809865, 13.427530056717854 ] ] ] } },
{ "type": "Feature", "properties": { "Id": 0, "CLN": "11037", "PSGC": "174001060", "Barangay": "Tumapon", "Land_Class": null, "PIN": "030-01-055-01-052", "ALN": "052", "Section": "01", "Brgy_Code": "055" }, "geometry": { "type": "Polygon", "coordinates": [ [ [ 121.855022407972811, 13.428562320009627 ], [ 121.855493754539211, 13.428362617306979 ], [ 121.855457053347934, 13.428015986704812 ], [ 121.855259308005515, 13.427816708034285 ], [ 121.854996821587207, 13.42786219325505 ], [ 121.854856367670493, 13.428246184321734 ], [ 121.855022407972811, 13.428562320009627 ] ] ] } },
{ "type": "Feature", "properties": { "Id": 0, "CLN": "11040", "PSGC": "174001060", "Barangay": "Tumapon", "Land_Class": null, "PIN": "030-01-055-01-053", "ALN": "053", "Section": "01", "Brgy_Code": "055" }, "geometry": { "type": "Polygon", "coordinates": [ [ [ 121.855670979154397, 13.42903833804737 ], [ 121.855691117444948, 13.428868123633084 ], [ 121.855647506283816, 13.428552544336235 ], [ 121.855493754539211, 13.428362617306979 ], [ 121.855022407972811, 13.428562320009627 ], [ 121.855181137641893, 13.429061343489153 ], [ 121.855381072048047, 13.429024406041641 ], [ 121.8555802589553, 13.429145155649277 ], [ 121.855670979154397, 13.42903833804737 ] ] ] } },
{ "type": "Feature", "properties": { "Id": 0, "CLN": "11089", "PSGC": "174001060", "Barangay": "Tumapon", "Land_Class": null, "PIN": "030-01-055-01-035", "ALN": "035", "Section": "01", "Brgy_Code": "055" }, "geometry": { "type": "Polygon", "coordinates": [ [ [ 121.855801421426506, 13.431865753985145 ], [ 121.85528891459407, 13.43187562157385 ], [ 121.855287495073398, 13.432002064819345 ], [ 121.855462146812897, 13.432068405037516 ], [ 121.855800111501935, 13.43199400880771 ], [ 121.855801421426506, 13.431865753985145 ] ] ] } },
{ "type": "Feature", "properties": { "Id": 0, "CLN": "11086", "PSGC": "174001060", "Barangay": "Tumapon", "Land_Class": null, "PIN": "030-01-055-01-032", "ALN": "032", "Section": "01", "Brgy_Code": "055" }, "geometry": { "type": "Polygon", "coordinates": [ [ [ 121.855800111501935, 13.43199400880771 ], [ 121.855462146812897, 13.432068405037516 ], [ 121.855461867500807, 13.432237992791277 ], [ 121.855376357194402, 13.432520125038906 ], [ 121.855030728327634, 13.4325470337268 ], [ 121.854945818194267, 13.432435136454334 ], [ 121.854851466007929, 13.432641941166375 ], [ 121.854871963092691, 13.432647550056434 ], [ 121.854882213010626, 13.432844339584339 ], [ 121.855698071279122, 13.432721733199685 ], [ 121.855782868981237, 13.432455475983319 ], [ 121.855827257859232, 13.432210615700349 ], [ 121.855800111501935, 13.43199400880771 ] ] ] } },
{ "type": "Feature", "properties": { "Id": 0, "CLN": "11087", "PSGC": "174001060", "Barangay": "Tumapon", "Land_Class": null, "PIN": "030-01-055-01-069", "ALN": "069", "Section": "01", "Brgy_Code": "055" }, "geometry": { "type": "Polygon", "coordinates": [ [ [ 121.855461867500807, 13.432237992791277 ], [ 121.855239016321136, 13.432236492300978 ], [ 121.855188926636856, 13.43237766766805 ], [ 121.854962548394298, 13.432395625052081 ], [ 121.854945818194267, 13.432435136454334 ], [ 121.855030728327634, 13.4325470337268 ], [ 121.855376357194402, 13.432520125038906 ], [ 121.855461867500807, 13.432237992791277 ] ] ] } },
{ "type": "Feature", "properties": { "Id": 0, "CLN": "11088", "PSGC": "174001060", "Barangay": "Tumapon", "Land_Class": null, "PIN": "030-01-055-01-034", "ALN": "034", "Section": "01", "Brgy_Code": "055" }, "geometry": { "type": "Polygon", "coordinates": [ [ [ 121.855461867500807, 13.432237992791277 ], [ 121.855462146812897, 13.432068405037516 ], [ 121.855287495073398, 13.432002064819345 ], [ 121.855286861937273, 13.432027694208255 ], [ 121.855239016321136, 13.432236492300978 ], [ 121.855461867500807, 13.432237992791277 ] ] ] } },
{ "type": "Feature", "properties": { "Id": 0, "CLN": "11082", "PSGC": "174001060", "Barangay": "Tumapon", "Land_Class": null, "PIN": "030-01-055-01-007", "ALN": "007", "Section": "01", "Brgy_Code": "055" }, "geometry": { "type": "Polygon", "coordinates": [ [ [ 121.85587821581035, 13.43396807447211 ], [ 121.855881547557658, 13.433570618579317 ], [ 121.85569369059813, 13.433645710211376 ], [ 121.855695460912955, 13.433272322249188 ], [ 121.855075052596135, 13.433212544485409 ], [ 121.854726972127239, 13.432989456143252 ], [ 121.854675038773905, 13.433033521235952 ], [ 121.854655011927775, 13.433166333803438 ], [ 121.85458359222703, 13.433229296503537 ], [ 121.854615288519909, 13.433362344245452 ], [ 121.854563264957491, 13.433425395126916 ], [ 121.854394954199094, 13.433468930931982 ], [ 121.854566726808571, 13.434058285214956 ], [ 121.854637816398863, 13.434064937219555 ], [ 121.85489490180727, 13.434388872018733 ], [ 121.854944463255862, 13.434844766882197 ], [ 121.85587821581035, 13.43396807447211 ] ] ] } },
{ "type": "Feature", "properties": { "Id": 0, "CLN": "11077", "PSGC": "174001060", "Barangay": "Tumapon", "Land_Class": null, "PIN": "030-01-055-01-006", "ALN": "006", "Section": "01", "Brgy_Code": "055" }, "geometry": { "type": "Polygon", "coordinates": [ [ [ 121.854944463255862, 13.434844766882197 ], [ 121.85489490180727, 13.434388872018733 ], [ 121.854637816398863, 13.434064937219555 ], [ 121.854566726808571, 13.434058285214956 ], [ 121.853840886651497, 13.434415721781937 ], [ 121.853994073462786, 13.434834115758012 ], [ 121.854944463255862, 13.434844766882197 ] ] ] } },
{ "type": "Feature", "properties": { "Id": 0, "CLN": "11081", "PSGC": "174001060", "Barangay": "Tumapon", "Land_Class": null, "PIN": "030-01-055-01-009", "ALN": "009", "Section": "01", "Brgy_Code": "055" }, "geometry": { "type": "Polygon", "coordinates": [ [ [ 121.85458359222703, 13.433229296503537 ], [ 121.854298783303008, 13.433388907935983 ], [ 121.854394954199094, 13.433468930931982 ], [ 121.854563264957491, 13.433425395126916 ], [ 121.854615288519909, 13.433362344245452 ], [ 121.85458359222703, 13.433229296503537 ] ] ] } },
{ "type": "Feature", "properties": { "Id": 0, "CLN": "11076", "PSGC": "174001060", "Barangay": "Tumapon", "Land_Class": null, "PIN": "030-01-055-01-004", "ALN": "004", "Section": "01", "Brgy_Code": "055" }, "geometry": { "type": "Polygon", "coordinates": [ [ [ 121.853994073462786, 13.434834115758012 ], [ 121.853840886651497, 13.434415721781937 ], [ 121.853180721355329, 13.434558277947486 ], [ 121.853263298427578, 13.43486876219067 ], [ 121.853261133178066, 13.435324421628868 ], [ 121.853674850978138, 13.435341275830787 ], [ 121.853994073462786, 13.434834115758012 ] ] ] } },
{ "type": "Feature", "properties": { "Id": 0, "CLN": "11075", "PSGC": "174001060", "Barangay": "Tumapon", "Land_Class": null, "PIN": "030-01-055-01-003", "ALN": "003", "Section": "01", "Brgy_Code": "055" }, "geometry": { "type": "Polygon", "coordinates": [ [ [ 121.853261133178066, 13.435324421628868 ], [ 121.853263298427578, 13.43486876219067 ], [ 121.853180721355329, 13.434558277947486 ], [ 121.852415728778467, 13.433630797847812 ], [ 121.852559441962342, 13.433321344292551 ], [ 121.852521461962922, 13.433150295315883 ], [ 121.852320703813135, 13.433218996871425 ], [ 121.852145265371249, 13.433401730933927 ], [ 121.85204127719723, 13.433515174355005 ], [ 121.851879280933744, 13.433590380906342 ], [ 121.851593869759483, 13.433785270733454 ], [ 121.851944680350272, 13.43479313920991 ], [ 121.85254437094126, 13.435131295057891 ], [ 121.852822595659973, 13.435088261249707 ], [ 121.853261133178066, 13.435324421628868 ] ] ] } },
{ "type": "Feature", "properties": { "Id": 0, "CLN": "11074", "PSGC": "174001060", "Barangay": "Tumapon", "Land_Class": null, "PIN": "030-01-055-01-002", "ALN": "002", "Section": "01", "Brgy_Code": "055" }, "geometry": { "type": "Polygon", "coordinates": [ [ [ 121.851380580726982, 13.434703993291421 ], [ 121.851671297651308, 13.434743285175067 ], [ 121.851944680350272, 13.43479313920991 ], [ 121.851593869759483, 13.433785270733454 ], [ 121.851540041010409, 13.4337933761499 ], [ 121.851391125835121, 13.433836998314762 ], [ 121.851380580726982, 13.434703993291421 ] ] ] } },
{ "type": "Feature", "properties": { "Id": 0, "CLN": "11078", "PSGC": "174001060", "Barangay": "Tumapon", "Land_Class": null, "PIN": "030-01-055-01-005", "ALN": "005", "Section": "01", "Brgy_Code": "055" }, "geometry": { "type": "Polygon", "coordinates": [ [ [ 121.854298783303008, 13.433388907935983 ], [ 121.854189022701149, 13.433265474524518 ], [ 121.854273403342503, 13.433196242152237 ], [ 121.854228476040703, 13.433126421632835 ], [ 121.854131585259822, 13.43310699468468 ], [ 121.854002097091822, 13.433144378090429 ], [ 121.853095979667742, 13.433342773935696 ], [ 121.852966701790692, 13.43333585656068 ], [ 121.852805247346112, 13.433297148884369 ], [ 121.852521461962922, 13.433150295315883 ], [ 121.852559441962342, 13.433321344292551 ], [ 121.852415728778467, 13.433630797847812 ], [ 121.853180721355329, 13.434558277947486 ], [ 121.853840886651497, 13.434415721781937 ], [ 121.854566726808571, 13.434058285214956 ], [ 121.854394954199094, 13.433468930931982 ], [ 121.854298783303008, 13.433388907935983 ] ] ] } },
{ "type": "Feature", "properties": { "Id": 0, "CLN": "11060", "PSGC": "174001060", "Barangay": "Tumapon", "Land_Class": null, "PIN": "030-01-055-01-016", "ALN": "016", "Section": "01", "Brgy_Code": "055" }, "geometry": { "type": "Polygon", "coordinates": [ [ [ 121.851906105892525, 13.433387983544835 ], [ 121.852263147265447, 13.433085831112708 ], [ 121.852211574632179, 13.43305395243558 ], [ 121.852081043836449, 13.4330758117767 ], [ 121.851997825515426, 13.433135252017948 ], [ 121.851830267290268, 13.433020571060695 ], [ 121.851800546128459, 13.433124774927311 ], [ 121.851906105892525, 13.433387983544835 ] ] ] } },
{ "type": "Feature", "properties": { "Id": 0, "CLN": "11064", "PSGC": "174001060", "Barangay": "Tumapon", "Land_Class": null, "PIN": "030-01-055-01-015", "ALN": "015", "Section": "01", "Brgy_Code": "055" }, "geometry": { "type": "Polygon", "coordinates": [ [ [ 121.851830267290268, 13.433020571060695 ], [ 121.851997825515426, 13.433135252017948 ], [ 121.852081043836449, 13.4330758117767 ], [ 121.852211574632179, 13.43305395243558 ], [ 121.851966642444907, 13.432894617837118 ], [ 121.851884328064742, 13.432956593775357 ], [ 121.851830267290268, 13.433020571060695 ] ] ] } },
{ "type": "Feature", "properties": { "Id": 0, "CLN": "11058", "PSGC": "174001060", "Barangay": "Tumapon", "Land_Class": null, "PIN": "030-01-055-01-017", "ALN": "017", "Section": "01", "Brgy_Code": "055" }, "geometry": { "type": "Polygon", "coordinates": [ [ [ 121.851631369330093, 13.432945502109483 ], [ 121.851830267290268, 13.433020571060695 ], [ 121.851884328064742, 13.432956593775357 ], [ 121.851966642444907, 13.432894617837118 ], [ 121.851968110001138, 13.432864700931193 ], [ 121.851701498521578, 13.432789689272777 ], [ 121.851631369330093, 13.432945502109483 ] ] ] } },
{ "type": "Feature", "properties": { "Id": 0, "CLN": "11057", "PSGC": "174001060", "Barangay": "Tumapon", "Land_Class": null, "PIN": "030-01-055-01-019", "ALN": "019", "Section": "01", "Brgy_Code": "055" }, "geometry": { "type": "Polygon", "coordinates": [ [ [ 121.85135362200549, 13.432408505159726 ], [ 121.851264276093843, 13.432371350126397 ], [ 121.851150314392811, 13.432384169613567 ], [ 121.851097362507787, 13.432515205743242 ], [ 121.851426252544783, 13.432875713587032 ], [ 121.8515526809677, 13.432723320612695 ], [ 121.85135362200549, 13.432408505159726 ] ] ] } },
{ "type": "Feature", "properties": { "Id": 0, "CLN": "11080", "PSGC": "174001060", "Barangay": "Tumapon", "Land_Class": null, "PIN": "030-01-055-01-010", "ALN": "010", "Section": "01", "Brgy_Code": "055" }, "geometry": { "type": "Polygon", "coordinates": [ [ [ 121.854726972127239, 13.432989456143252 ], [ 121.85455291712573, 13.432881076113366 ], [ 121.853983812728615, 13.432910131430111 ], [ 121.854002097091822, 13.433144378090429 ], [ 121.854131585259822, 13.43310699468468 ], [ 121.854228476040703, 13.433126421632835 ], [ 121.854273403342503, 13.433196242152237 ], [ 121.854189022701149, 13.433265474524518 ], [ 121.854298783303008, 13.433388907935983 ], [ 121.85458359222703, 13.433229296503537 ], [ 121.854655011927775, 13.433166333803438 ], [ 121.854675038773905, 13.433033521235952 ], [ 121.854726972127239, 13.432989456143252 ] ] ] } },
{ "type": "Feature", "properties": { "Id": 0, "CLN": "11061", "PSGC": "174001060", "Barangay": "Tumapon", "Land_Class": null, "PIN": "030-01-055-01-014", "ALN": "014", "Section": "01", "Brgy_Code": "055" }, "geometry": { "type": "Polygon", "coordinates": [ [ [ 121.851966642444907, 13.432894617837118 ], [ 121.852211574632179, 13.43305395243558 ], [ 121.852263147265447, 13.433085831112708 ], [ 121.852496172076073, 13.433029934060125 ], [ 121.85238167190019, 13.432750268283794 ], [ 121.852265404304461, 13.432611185947099 ], [ 121.852142381577309, 13.432648597852964 ], [ 121.851968110001138, 13.432864700931193 ], [ 121.851966642444907, 13.432894617837118 ] ] ] } },
{ "type": "Feature", "properties": { "Id": 0, "CLN": "11062", "PSGC": "174001060", "Barangay": "Tumapon", "Land_Class": null, "PIN": "030-01-055-01-021", "ALN": "021", "Section": "01", "Brgy_Code": "055" }, "geometry": { "type": "Polygon", "coordinates": [ [ [ 121.852265404304461, 13.432611185947094 ], [ 121.852269820927873, 13.432557813253204 ], [ 121.852511509831217, 13.432523704739802 ], [ 121.852409147045833, 13.43229540381715 ], [ 121.851982914374133, 13.432192201974676 ], [ 121.851931883779002, 13.432046408423231 ], [ 121.851776233453862, 13.432146958863411 ], [ 121.851672185493285, 13.43227305937496 ], [ 121.851606695813629, 13.432422574490316 ], [ 121.85155736008879, 13.432458859202432 ], [ 121.85135362200549, 13.432408505159719 ], [ 121.8515526809677, 13.432723320612695 ], [ 121.851701498521578, 13.432789689272781 ], [ 121.851968110001138, 13.432864700931193 ], [ 121.852142381577309, 13.432648597852971 ], [ 121.852265404304461, 13.432611185947094 ] ] ] } },
{ "type": "Feature", "properties": { "Id": 0, "CLN": "11072", "PSGC": "174001060", "Barangay": "Tumapon", "Land_Class": null, "PIN": "030-01-055-01-013", "ALN": "013", "Section": "01", "Brgy_Code": "055" }, "geometry": { "type": "Polygon", "coordinates": [ [ [ 121.852528499016714, 13.433030081316215 ], [ 121.852644755668948, 13.433055925815719 ], [ 121.852773702481883, 13.433132457978727 ], [ 121.852850896150741, 13.433215083147175 ], [ 121.852871555629022, 13.432949370130704 ], [ 121.852833154336622, 13.432866921631968 ], [ 121.852511509831217, 13.432523704739783 ], [ 121.852269820927873, 13.432557813253204 ], [ 121.852265404304461, 13.432611185947083 ], [ 121.85238167190019, 13.432750268283794 ], [ 121.852496172076044, 13.433029934060109 ], [ 121.852528499016714, 13.433030081316215 ] ] ] } },
{ "type": "Feature", "properties": { "Id": 0, "CLN": "11079", "PSGC": "174001060", "Barangay": "Tumapon", "Land_Class": null, "PIN": "030-01-055-01-011", "ALN": "011", "Section": "01", "Brgy_Code": "055" }, "geometry": { "type": "Polygon", "coordinates": [ [ [ 121.853095979667742, 13.433342773935696 ], [ 121.854002097091822, 13.433144378090429 ], [ 121.853983812728615, 13.432910131430111 ], [ 121.853634471378001, 13.432952843111913 ], [ 121.853297369174399, 13.433141171062463 ], [ 121.853095979667742, 13.433342773935696 ] ] ] } },
{ "type": "Feature", "properties": { "Id": 0, "CLN": "11085", "PSGC": "174001060", "Barangay": "Tumapon", "Land_Class": null, "PIN": "030-01-055-01-031", "ALN": "031", "Section": "01", "Brgy_Code": "055" }, "geometry": { "type": "Polygon", "coordinates": [ [ [ 121.855782868981237, 13.432455475983319 ], [ 121.856041186962358, 13.432724982562117 ], [ 121.856105660632849, 13.432666625607965 ], [ 121.856164241299396, 13.432560445594627 ], [ 121.855782868981237, 13.432455475983319 ] ] ] } },
{ "type": "Feature", "properties": { "Id": 0, "CLN": "16195", "PSGC": "174001060", "Barangay": "Tumapon", "Land_Class": null, "PIN": "030-01-055-01-008", "ALN": "008", "Section": "01", "Brgy_Code": "055" }, "geometry": { "type": "Polygon", "coordinates": [ [ [ 121.855952003550854, 13.433059094213828 ], [ 121.855695460912955, 13.433272322249188 ], [ 121.85569369059813, 13.433645710211376 ], [ 121.855881547557658, 13.433570618579317 ], [ 121.85589576837917, 13.433298547081383 ], [ 121.855952003550854, 13.433059094213828 ] ] ] } },
{ "type": "Feature", "properties": { "Id": 0, "CLN": "11083", "PSGC": "174001060", "Barangay": "Tumapon", "Land_Class": null, "PIN": "030-01-055-01-028", "ALN": "028", "Section": "01", "Brgy_Code": "055" }, "geometry": { "type": "Polygon", "coordinates": [ [ [ 121.854605180820272, 13.432767396362696 ], [ 121.855107679791402, 13.43314940532885 ], [ 121.855476177447983, 13.433157408606547 ], [ 121.85561847622705, 13.433145397606882 ], [ 121.855715727238902, 13.433088880676886 ], [ 121.855698071279122, 13.432721733199685 ], [ 121.854882213010626, 13.432844339584339 ], [ 121.854871963092691, 13.432647550056434 ], [ 121.854851466007929, 13.432641941166375 ], [ 121.854592310113844, 13.432754680353586 ], [ 121.854605180820272, 13.432767396362696 ] ] ] } },
{ "type": "Feature", "properties": { "Id": 0, "CLN": "11084", "PSGC": "174001060", "Barangay": "Tumapon", "Land_Class": null, "PIN": "030-01-055-01-030", "ALN": "030", "Section": "01", "Brgy_Code": "055" }, "geometry": { "type": "Polygon", "coordinates": [ [ [ 121.856008259901003, 13.432754785764237 ], [ 121.856041186962358, 13.432724982562117 ], [ 121.855782868981237, 13.432455475983319 ], [ 121.855698071279122, 13.432721733199685 ], [ 121.856008259901003, 13.432754785764237 ] ] ] } },
{ "type": "Feature", "properties": { "Id": 0, "CLN": "11056", "PSGC": "174001060", "Barangay": "Tumapon", "Land_Class": null, "PIN": "030-01-055-01-066", "ALN": "066", "Section": "01", "Brgy_Code": "055" }, "geometry": { "type": "Polygon", "coordinates": [ [ [ 121.851426252544783, 13.432875713587032 ], [ 121.851097362507787, 13.432515205743242 ], [ 121.851068449513392, 13.432582478461541 ], [ 121.850642550460122, 13.43358420157255 ], [ 121.850456944480825, 13.434110279162638 ], [ 121.850259771167046, 13.434758177421411 ], [ 121.849492443039139, 13.435692356254867 ], [ 121.849636198732213, 13.435617420547212 ], [ 121.849946571656531, 13.435487719780467 ], [ 121.850237451779705, 13.435362763201841 ], [ 121.850457043879118, 13.435306937456268 ], [ 121.850489688019806, 13.435225001434508 ], [ 121.850645405224157, 13.43503628511111 ], [ 121.850775319714302, 13.434847450941881 ], [ 121.850847028157872, 13.434689922301555 ], [ 121.851047868915188, 13.434507725769762 ], [ 121.851093564238411, 13.434394278007636 ], [ 121.851243701392036, 13.434022422998874 ], [ 121.85128348687428, 13.433795292023229 ], [ 121.851441960885239, 13.43367323163298 ], [ 121.851555649497229, 13.433664850468332 ], [ 121.851614079026405, 13.433614486952948 ], [ 121.851906105892525, 13.433387983544835 ], [ 121.851800546128459, 13.433124774927311 ], [ 121.851830267290268, 13.433020571060695 ], [ 121.851631369330093, 13.432945502109483 ], [ 121.851426252544783, 13.432875713587032 ] ] ] } },
{ "type": "Feature", "properties": { "Id": 0, "CLN": "11052", "PSGC": "174001060", "Barangay": "Tumapon", "Land_Class": null, "PIN": "030-01-055-01-020", "ALN": "020", "Section": "01", "Brgy_Code": "055" }, "geometry": { "type": "Polygon", "coordinates": [ [ [ 121.851175468356999, 13.432221127876117 ], [ 121.851279441360916, 13.432218775258233 ], [ 121.851452545882893, 13.432253485425633 ], [ 121.851556441238174, 13.432139628247352 ], [ 121.851633257335266, 13.431996340232528 ], [ 121.851456811004354, 13.431958115098086 ], [ 121.851048661924807, 13.43155907433851 ], [ 121.851059078572717, 13.431614889182805 ], [ 121.850896657599918, 13.431900365325081 ], [ 121.850884629492242, 13.431914842331777 ], [ 121.850668500322044, 13.432174974553549 ], [ 121.850695586511378, 13.43223635368615 ], [ 121.85061714530255, 13.432281937479637 ], [ 121.850929014546651, 13.432497754662718 ], [ 121.851016237607993, 13.432305203917897 ], [ 121.851082992596872, 13.432234839849734 ], [ 121.851175468356999, 13.432221127876117 ] ] ] } },
{ "type": "Feature", "properties": { "Id": 0, "CLN": "11042 pt", "PSGC": "174001060", "Barangay": "Tumapon", "Land_Class": null, "PIN": "030-01-055-01-058", "ALN": "058", "Section": "01", "Brgy_Code": "055" }, "geometry": { "type": "Polygon", "coordinates": [ [ [ 121.852201958729239, 13.427926436019675 ], [ 121.852201958729239, 13.427926436019678 ], [ 121.852305911635938, 13.428171183760048 ], [ 121.854288545133542, 13.428407601445539 ], [ 121.853807633809865, 13.427530056717854 ], [ 121.853566431451029, 13.427663522117337 ], [ 121.85339598473395, 13.427371194380902 ], [ 121.852996377539625, 13.427089037198655 ], [ 121.85276801578118, 13.426931008070612 ], [ 121.852504808669309, 13.426873742010542 ], [ 121.85236707779309, 13.426929182567536 ], [ 121.852318005251391, 13.427612985324574 ], [ 121.852397660129, 13.427725483530365 ], [ 121.852201958729239, 13.42792643601967 ], [ 121.852201958729239, 13.427926436019675 ] ] ] } },
{ "type": "Feature", "properties": { "Id": 0, "CLN": "11098", "PSGC": "174001060", "Barangay": "Tumapon", "Land_Class": null, "PIN": "030-01-055-01-044", "ALN": "044", "Section": "01", "Brgy_Code": "055" }, "geometry": { "type": "Polygon", "coordinates": [ [ [ 121.85104758366559, 13.428669288278082 ], [ 121.850522091416735, 13.428250031724987 ], [ 121.850422023793087, 13.427922719147539 ], [ 121.850118213127814, 13.427698691921366 ], [ 121.850002861558082, 13.427532368990398 ], [ 121.84947395590801, 13.42751841894742 ], [ 121.84920133283029, 13.427778080486238 ], [ 121.849132560847423, 13.427972260239073 ], [ 121.849160190261102, 13.428275986534414 ], [ 121.849329913587027, 13.428533512414212 ], [ 121.849573717110374, 13.428780275351452 ], [ 121.849614678092252, 13.428961775261566 ], [ 121.849810125116605, 13.429325293310772 ], [ 121.849988789934429, 13.429448933693058 ], [ 121.850642273851804, 13.429434841123671 ], [ 121.850740231434841, 13.42918896161034 ], [ 121.850726660743689, 13.428989943830045 ], [ 121.85104758366559, 13.428669288278082 ] ] ] } },
{ "type": "Feature", "properties": { "Id": 0, "CLN": "11099 pt", "PSGC": "174001060", "Barangay": "Tumapon", "Land_Class": null, "PIN": "030-01-055-01-045", "ALN": "045", "Section": "01", "Brgy_Code": "055" }, "geometry": { "type": "Polygon", "coordinates": [ [ [ 121.851421619764253, 13.428190459045192 ], [ 121.851162041580778, 13.42800662373479 ], [ 121.85071739667525, 13.427886170076496 ], [ 121.850678705455749, 13.42788125656832 ], [ 121.850422023793087, 13.427922719147539 ], [ 121.850522091416735, 13.428250031724987 ], [ 121.85104758366559, 13.428669288278082 ], [ 121.851115138581889, 13.428639325907145 ], [ 121.851421619764253, 13.428190459045192 ] ] ] } },
{ "type": "Feature", "properties": { "Id": 0, "CLN": "11097 pt", "PSGC": "174001060", "Barangay": "Tumapon", "Land_Class": null, "PIN": "030-01-055-01-047", "ALN": "047", "Section": "01", "Brgy_Code": "055" }, "geometry": { "type": "Polygon", "coordinates": [ [ [ 121.851184350880118, 13.427386172412724 ], [ 121.851020200867339, 13.427304894265855 ], [ 121.85071739667525, 13.427886170076496 ], [ 121.851162041580778, 13.42800662373479 ], [ 121.851421619764253, 13.428190459045192 ], [ 121.851614265011605, 13.428219731876647 ], [ 121.851708202640353, 13.428170884477419 ], [ 121.851499314630246, 13.427643513583678 ], [ 121.851445566445079, 13.427640621554612 ], [ 121.851184350880118, 13.427386172412724 ] ] ] } },
{ "type": "Feature", "properties": { "Id": 0, "CLN": "11097 pt", "PSGC": "174001060", "Barangay": "Tumapon", "Land_Class": null, "PIN": "030-01-055-01-049", "ALN": "049", "Section": "01", "Brgy_Code": "055" }, "geometry": { "type": "Polygon", "coordinates": [ [ [ 121.852113211866651, 13.426733926301592 ], [ 121.851809766257844, 13.426627140747797 ], [ 121.851184350880118, 13.427386172412724 ], [ 121.851445566445079, 13.427640621554612 ], [ 121.851499314630246, 13.427643513583678 ], [ 121.852183750560158, 13.426860177064496 ], [ 121.852113211866651, 13.426733926301592 ] ] ] } },
{ "type": "Feature", "properties": { "Id": 0, "CLN": "11097 pt", "PSGC": "174001060", "Barangay": "Tumapon", "Land_Class": null, "PIN": "030-01-055-01-048", "ALN": "048", "Section": "01", "Brgy_Code": "055" }, "geometry": { "type": "Polygon", "coordinates": [ [ [ 121.851809766257844, 13.426627140747797 ], [ 121.851571504246039, 13.426503648826955 ], [ 121.851422158063016, 13.426592676564985 ], [ 121.850977812620627, 13.426973972337327 ], [ 121.850880768640124, 13.427077874763309 ], [ 121.851020200867339, 13.427304894265855 ], [ 121.851184350880118, 13.427386172412724 ], [ 121.851809766257844, 13.426627140747797 ] ] ] } },
{ "type": "Feature", "properties": { "Id": 0, "CLN": "11099 pt", "PSGC": "174001060", "Barangay": "Tumapon", "Land_Class": null, "PIN": "030-01-055-01-046", "ALN": "046", "Section": "01", "Brgy_Code": "055" }, "geometry": { "type": "Polygon", "coordinates": [ [ [ 121.850880768640124, 13.427077874763309 ], [ 121.850561054792038, 13.426379955147882 ], [ 121.8502420395439, 13.426394510567965 ], [ 121.849691726624513, 13.426035763352051 ], [ 121.849333600217903, 13.426972326291983 ], [ 121.84947395590801, 13.42751841894742 ], [ 121.850002861558082, 13.427532368990398 ], [ 121.850118213127814, 13.427698691921366 ], [ 121.850422023793087, 13.427922719147539 ], [ 121.850678705455749, 13.42788125656832 ], [ 121.85071739667525, 13.427886170076496 ], [ 121.851020200867339, 13.427304894265855 ], [ 121.850880768640124, 13.427077874763309 ] ] ] } },
{ "type": "Feature", "properties": { "Id": 0, "CLN": "11053 RW", "PSGC": "174001060", "Barangay": "Tumapon", "Land_Class": null, "PIN": "030-01-055-01-", "ALN": null, "Section": "01", "Brgy_Code": "055" }, "geometry": { "type": "Polygon", "coordinates": [ [ [ 121.850947003232008, 13.432515146229363 ], [ 121.851045074903652, 13.432313815663761 ], [ 121.85109149443791, 13.432268799515045 ], [ 121.851230187915263, 13.432252471558037 ], [ 121.851282140793515, 13.432258361943216 ], [ 121.85145336578131, 13.432292300351866 ], [ 121.851541727128378, 13.432224924249374 ], [ 121.851661164149775, 13.432029921719961 ], [ 121.851633257335266, 13.431996340232528 ], [ 121.851556441238174, 13.432139628247352 ], [ 121.851452545882893, 13.432253485425633 ], [ 121.851279441360916, 13.432218775258233 ], [ 121.851175468356999, 13.432221127876117 ], [ 121.851082992596872, 13.432234839849734 ], [ 121.851016237607993, 13.432305203917897 ], [ 121.850929014546651, 13.432497754662718 ], [ 121.850947003232008, 13.432515146229363 ] ] ] } },
{ "type": "Feature", "properties": { "Id": 0, "CLN": "11054 RW", "PSGC": "174001060", "Barangay": "Tumapon", "Land_Class": null, "PIN": "030-01-055-01-", "ALN": null, "Section": "01", "Brgy_Code": "055" }, "geometry": { "type": "Polygon", "coordinates": [ [ [ 121.851004511941397, 13.432550357621764 ], [ 121.851031949846487, 13.432557220339129 ], [ 121.851075334594768, 13.432521842467466 ], [ 121.851131181933624, 13.432396567026961 ], [ 121.851150314392811, 13.432384169613567 ], [ 121.851264276093843, 13.432371350126397 ], [ 121.85135362200549, 13.432408505159726 ], [ 121.851304839356217, 13.432343267678709 ], [ 121.851247097472552, 13.432340177640048 ], [ 121.851169047048458, 13.432356782162508 ], [ 121.851126152269359, 13.432374900121733 ], [ 121.851055463645892, 13.432504821485711 ], [ 121.851004511941397, 13.432550357621764 ] ] ] } },
{ "type": "Feature", "properties": { "Id": 0, "CLN": "11063 RW", "PSGC": "174001060", "Barangay": "Tumapon", "Land_Class": null, "PIN": "030-01-055-01-", "ALN": null, "Section": "01", "Brgy_Code": "055" }, "geometry": { "type": "Polygon", "coordinates": [ [ [ 121.85155736008879, 13.432458859202432 ], [ 121.851606695813629, 13.432422574490316 ], [ 121.851672185493285, 13.43227305937496 ], [ 121.851776233453862, 13.432146958863411 ], [ 121.851931883779002, 13.432046408423231 ], [ 121.851922557173069, 13.432030550602285 ], [ 121.85175758169737, 13.432116506960268 ], [ 121.851633734383554, 13.43225221547846 ], [ 121.851544342520427, 13.432396522695624 ], [ 121.851444373964497, 13.432393173105654 ], [ 121.851304839356217, 13.432343267678705 ], [ 121.85135362200549, 13.432408505159719 ], [ 121.85155736008879, 13.432458859202432 ] ] ] } },
{ "type": "Feature", "properties": { "Id": 0, "CLN": "11055 RW", "PSGC": "174001060", "Barangay": "Tumapon", "Land_Class": null, "PIN": "030-01-055-01-", "ALN": null, "Section": "01", "Brgy_Code": "055" }, "geometry": { "type": "Polygon", "coordinates": [ [ [ 121.851031949846487, 13.432557220339129 ], [ 121.851068449513392, 13.432582478461541 ], [ 121.851097362507787, 13.432515205743242 ], [ 121.851150314392811, 13.432384169613567 ], [ 121.851131181933624, 13.432396567026961 ], [ 121.851075334594768, 13.432521842467466 ], [ 121.851031949846487, 13.432557220339129 ] ] ] } },
{ "type": "Feature", "properties": { "Id": 0, "CLN": "11043", "PSGC": "174001060", "Barangay": "Tumapon", "Land_Class": null, "PIN": "030-01-055-01-057", "ALN": "057", "Section": "01", "Brgy_Code": "055" }, "geometry": { "type": "Polygon", "coordinates": [ [ [ 121.853459852136794, 13.430431381718888 ], [ 121.853796927885227, 13.430582644167458 ], [ 121.853846985753805, 13.430325913577507 ], [ 121.85371250580954, 13.430148688415338 ], [ 121.853459852136794, 13.430431381718888 ] ] ] } },
{ "type": "Feature", "properties": { "Id": 0, "CLN": "11049 RW", "PSGC": "174001060", "Barangay": "Tumapon", "Land_Class": null, "PIN": "030-01-055-01-", "ALN": null, "Section": "01", "Brgy_Code": "055" }, "geometry": { "type": "Polygon", "coordinates": [ [ [ 121.852768436663396, 13.431815454697684 ], [ 121.852881254249567, 13.431884121950228 ], [ 121.852895100473418, 13.431844859372637 ], [ 121.852817404842398, 13.431793382276783 ], [ 121.85274621679325, 13.431763894353677 ], [ 121.852768436663396, 13.431815454697684 ] ] ] } },
{ "type": "Feature", "properties": { "Id": 0, "CLN": "11046 RW", "PSGC": "174001060", "Barangay": "Tumapon", "Land_Class": null, "PIN": "030-01-055-01-", "ALN": null, "Section": "01", "Brgy_Code": "055" }, "geometry": { "type": "Polygon", "coordinates": [ [ [ 121.852895100473418, 13.431844859372637 ], [ 121.852881254249567, 13.431884121950228 ], [ 121.852938988322506, 13.43191003580572 ], [ 121.853515533242742, 13.432026384152907 ], [ 121.853549912944061, 13.432006033020826 ], [ 121.852895100473418, 13.431844859372637 ] ] ] } },
{ "type": "Feature", "properties": { "Id": 0, "CLN": "11068", "PSGC": "174001060", "Barangay": "Tumapon", "Land_Class": null, "PIN": "030-01-055-01-041", "ALN": "041", "Section": "01", "Brgy_Code": "055" }, "geometry": { "type": "Polygon", "coordinates": [ [ [ 121.85274621679325, 13.431763894353677 ], [ 121.85223460956216, 13.430707467782852 ], [ 121.852229936805955, 13.431619372545093 ], [ 121.852652058298276, 13.431733642988805 ], [ 121.85274621679325, 13.431763894353677 ] ] ] } },
{ "type": "Feature", "properties": { "Id": 0, "CLN": "11047", "PSGC": "174001060", "Barangay": "Tumapon", "Land_Class": null, "PIN": "030-01-055-01-039", "ALN": "039", "Section": "01", "Brgy_Code": "055" }, "geometry": { "type": "Polygon", "coordinates": [ [ [ 121.853576683206299, 13.431983782929407 ], [ 121.853580837806589, 13.431432161019027 ], [ 121.853487041393265, 13.43149048467501 ], [ 121.853478549292518, 13.431467622874488 ], [ 121.853171446513485, 13.431457510156001 ], [ 121.852895100473418, 13.431844859372637 ], [ 121.853549912944061, 13.432006033020826 ], [ 121.853845006560377, 13.432031611995454 ], [ 121.853883151123256, 13.432020599576678 ], [ 121.8538413213479, 13.432005494659146 ], [ 121.853576683206299, 13.431983782929407 ] ] ] } },
{ "type": "Feature", "properties": { "Id": 0, "CLN": "16191 RW", "PSGC": "174001060", "Barangay": "Tumapon", "Land_Class": null, "PIN": "030-01-055-01-", "ALN": null, "Section": "01", "Brgy_Code": "055" }, "geometry": { "type": "Polygon", "coordinates": [ [ [ 121.852652058298276, 13.431733642988805 ], [ 121.852229936805955, 13.431619372545093 ], [ 121.852227039238002, 13.431674767520651 ], [ 121.852651910670815, 13.431778478267969 ], [ 121.852768436663396, 13.431815454697684 ], [ 121.85274621679325, 13.431763894353677 ], [ 121.852652058298276, 13.431733642988805 ] ] ] } },
{ "type": "Feature", "properties": { "Id": 0, "CLN": "11041 RW", "PSGC": "174001060", "Barangay": "Tumapon", "Land_Class": null, "PIN": "030-01-055-01-", "ALN": null, "Section": "01", "Brgy_Code": "055" }, "geometry": { "type": "Polygon", "coordinates": [ [ [ 121.854469165314839, 13.431215051576595 ], [ 121.854509674510226, 13.4312308785164 ], [ 121.854626586995948, 13.430913024431597 ], [ 121.854776460804445, 13.43063592099098 ], [ 121.854976233034819, 13.430278878127055 ], [ 121.855152964305674, 13.429960881236111 ], [ 121.855218541388112, 13.429787796733651 ], [ 121.855429819049903, 13.429414026707736 ], [ 121.85559484600951, 13.429154143256211 ], [ 121.8555802589553, 13.429145155649277 ], [ 121.855397939535877, 13.429393128249846 ], [ 121.855183472354341, 13.429776918950372 ], [ 121.854598209959676, 13.430897015794123 ], [ 121.854469165314839, 13.431215051576595 ] ] ] } },
{ "type": "Feature", "properties": { "Id": 0, "CLN": "11039 RW", "PSGC": "174001060", "Barangay": "Tumapon", "Land_Class": null, "PIN": "030-01-055-01-", "ALN": null, "Section": "01", "Brgy_Code": "055" }, "geometry": { "type": "Polygon", "coordinates": [ [ [ 121.8555802589553, 13.429145155649277 ], [ 121.85559484600951, 13.429154143256211 ], [ 121.855694865468564, 13.429053896173254 ], [ 121.855721143044946, 13.428867582711181 ], [ 121.855674449595881, 13.428539248941576 ], [ 121.855537619696463, 13.428327060830288 ], [ 121.855493754539211, 13.428362617306979 ], [ 121.855647506283816, 13.428552544336235 ], [ 121.855691117444948, 13.428868123633084 ], [ 121.855670979154397, 13.42903833804737 ], [ 121.8555802589553, 13.429145155649277 ] ] ] } },
{ "type": "Feature", "properties": { "Id": 0, "CLN": "11038 RW", "PSGC": "174001060", "Barangay": "Tumapon", "Land_Class": null, "PIN": "030-01-055-01-", "ALN": null, "Section": "01", "Brgy_Code": "055" }, "geometry": { "type": "Polygon", "coordinates": [ [ [ 121.855493754539211, 13.428362617306979 ], [ 121.855537619696463, 13.428327060830288 ], [ 121.855496697615465, 13.428001515219753 ], [ 121.855457053347934, 13.428015986704812 ], [ 121.855493754539211, 13.428362617306979 ] ] ] } },
{ "type": "Feature", "properties": { "Id": 0, "CLN": "11095 RW", "PSGC": "174001060", "Barangay": "Tumapon", "Land_Class": null, "PIN": "030-01-055-01-", "ALN": null, "Section": "01", "Brgy_Code": "055" }, "geometry": { "type": "Polygon", "coordinates": [ [ [ 121.855608592785998, 13.428183615057627 ], [ 121.855595006090326, 13.428035343481126 ], [ 121.855726470318842, 13.427489279607425 ], [ 121.855589428795582, 13.427195405146374 ], [ 121.855553356364993, 13.427205184044144 ], [ 121.85568094927676, 13.42749525473978 ], [ 121.85560733561627, 13.427786584227277 ], [ 121.855561080866934, 13.42802058900512 ], [ 121.855568045364976, 13.428214096450281 ], [ 121.855608592785998, 13.428183615057627 ] ] ] } },
{ "type": "Feature", "properties": { "Id": 0, "CLN": "16193 RW", "PSGC": "174001060", "Barangay": "Tumapon", "Land_Class": null, "PIN": "030-01-055-01-", "ALN": null, "Section": "01", "Brgy_Code": "055" }, "geometry": { "type": "Polygon", "coordinates": [ [ [ 121.853933395727168, 13.432138746806705 ], [ 121.854023320180616, 13.432140029786259 ], [ 121.854010565129002, 13.432118735919863 ], [ 121.853954818277401, 13.432108328583961 ], [ 121.853933395727168, 13.432138746806705 ] ] ] } },
{ "type": "Feature", "properties": { "Id": 0, "CLN": "11070", "PSGC": "174001060", "Barangay": "Tumapon", "Land_Class": null, "PIN": "030-01-055-01-024", "ALN": "024", "Section": "01", "Brgy_Code": "055" }, "geometry": { "type": "Polygon", "coordinates": [ [ [ 121.852827638402658, 13.43198550006449 ], [ 121.852918533956597, 13.43220637048837 ], [ 121.85370641479652, 13.432108350962306 ], [ 121.852827638402658, 13.43198550006449 ] ] ] } },
{ "type": "Feature", "properties": { "Id": 0, "CLN": "11071 RW", "PSGC": "174001060", "Barangay": "Tumapon", "Land_Class": null, "PIN": "030-01-055-01-", "ALN": null, "Section": "01", "Brgy_Code": "055" }, "geometry": { "type": "Polygon", "coordinates": [ [ [ 121.85370641479652, 13.432108350962306 ], [ 121.853829365990123, 13.432086538465816 ], [ 121.852814968609721, 13.431946291528025 ], [ 121.852827638402658, 13.43198550006449 ], [ 121.85370641479652, 13.432108350962306 ] ] ] } },
{ "type": "Feature", "properties": { "Id": 0, "CLN": "16189 RW", "PSGC": "174001060", "Barangay": "Tumapon", "Land_Class": null, "PIN": "030-01-055-01-", "ALN": null, "Section": "01", "Brgy_Code": "055" }, "geometry": { "type": "Polygon", "coordinates": [ [ [ 121.853549912944061, 13.432006033020826 ], [ 121.853515533242742, 13.432026384152907 ], [ 121.853854387787123, 13.432061483899119 ], [ 121.853915422634259, 13.43204311831002 ], [ 121.853883151123256, 13.432020599576678 ], [ 121.853845006560377, 13.432031611995454 ], [ 121.853549912944061, 13.432006033020826 ] ] ] } },
{ "type": "Feature", "properties": { "Id": 0, "CLN": "11044", "PSGC": "174001060", "Barangay": "Tumapon", "Land_Class": null, "PIN": "030-01-055-01-038", "ALN": "038", "Section": "01", "Brgy_Code": "055" }, "geometry": { "type": "Polygon", "coordinates": [ [ [ 121.854021646119861, 13.431891614498872 ], [ 121.854469165314839, 13.431215051576595 ], [ 121.854333980965393, 13.431186052579248 ], [ 121.854267100701307, 13.431166302778436 ], [ 121.85428520368427, 13.431280445078805 ], [ 121.854196888014783, 13.431559155652018 ], [ 121.854104480366217, 13.431681733957145 ], [ 121.854054183044894, 13.431474142158038 ], [ 121.853920061727678, 13.431221227250813 ], [ 121.853580837806589, 13.431432161019027 ], [ 121.853576683206299, 13.431983782929407 ], [ 121.8538413213479, 13.432005494659146 ], [ 121.853883151123256, 13.432020599576678 ], [ 121.853907945972693, 13.432013255072636 ], [ 121.854021646119861, 13.431891614498872 ] ] ] } },
{ "type": "Feature", "properties": { "Id": 0, "CLN": "11045 RW", "PSGC": "174001060", "Barangay": "Tumapon", "Land_Class": null, "PIN": "030-01-055-01-", "ALN": null, "Section": "01", "Brgy_Code": "055" }, "geometry": { "type": "Polygon", "coordinates": [ [ [ 121.854509674510226, 13.4312308785164 ], [ 121.854469165314839, 13.431215051576595 ], [ 121.854021646119861, 13.431891614498872 ], [ 121.853907945972693, 13.432013255072636 ], [ 121.853883151123256, 13.432020599576678 ], [ 121.853915422634259, 13.43204311831002 ], [ 121.854073133079936, 13.431891764997745 ], [ 121.854509674510226, 13.4312308785164 ] ] ] } },
{ "type": "Feature", "properties": { "Id": 0, "CLN": "11067 RW", "PSGC": "174001060", "Barangay": "Tumapon", "Land_Class": null, "PIN": "030-01-055-01-", "ALN": null, "Section": "01", "Brgy_Code": "055" }, "geometry": { "type": "Polygon", "coordinates": [ [ [ 121.852086514519414, 13.431741142549141 ], [ 121.852140900730845, 13.431737842319784 ], [ 121.852166104376252, 13.431773437496286 ], [ 121.852650598309538, 13.431884053100573 ], [ 121.852827638402658, 13.43198550006449 ], [ 121.852814968609721, 13.431946291528025 ], [ 121.852726176796793, 13.431884202286968 ], [ 121.8526519622298, 13.431858730709807 ], [ 121.85260438025027, 13.431839298610528 ], [ 121.852513882697167, 13.431814050182959 ], [ 121.852408903538318, 13.431785187723014 ], [ 121.85230335384216, 13.431759557002728 ], [ 121.852195320683478, 13.43172744616364 ], [ 121.85213022932443, 13.431695217286594 ], [ 121.852064986129633, 13.431694920009814 ], [ 121.852046728036171, 13.431723221088149 ], [ 121.85203192582793, 13.431787018253594 ], [ 121.85206282848182, 13.431880678028358 ], [ 121.852053184188591, 13.431958788492828 ], [ 121.851922557173069, 13.43203055060229 ], [ 121.851931883779002, 13.432046408423229 ], [ 121.852076203064414, 13.431970394076785 ], [ 121.852075914787847, 13.431825636484014 ], [ 121.852086514519414, 13.431741142549141 ] ] ] } },
{ "type": "Feature", "properties": { "Id": 0, "CLN": "11069", "PSGC": "174001060", "Barangay": "Tumapon", "Land_Class": null, "PIN": "030-01-055-01-023", "ALN": "023", "Section": "01", "Brgy_Code": "055" }, "geometry": { "type": "Polygon", "coordinates": [ [ [ 121.853962799475596, 13.432161474474283 ], [ 121.853933395727168, 13.432138746806705 ], [ 121.85370641479652, 13.432108350962306 ], [ 121.852918533956597, 13.43220637048837 ], [ 121.852827638402658, 13.43198550006449 ], [ 121.852409147045833, 13.432295403817143 ], [ 121.852511509831217, 13.432523704739799 ], [ 121.852833154336622, 13.432866921631968 ], [ 121.853629145845503, 13.432593358884185 ], [ 121.853648123812533, 13.43247385188414 ], [ 121.853962799475596, 13.432161474474283 ] ] ] } },
{ "type": "Feature", "properties": { "Id": 0, "CLN": "11094", "PSGC": "174001060", "Barangay": "Tumapon", "Land_Class": null, "PIN": "030-01-055-01-025", "ALN": "025", "Section": "01", "Brgy_Code": "055" }, "geometry": { "type": "Polygon", "coordinates": [ [ [ 121.853695262073543, 13.43268242702946 ], [ 121.853954550782831, 13.432264466540341 ], [ 121.854013476609694, 13.432161638383953 ], [ 121.854023320180616, 13.432140029786259 ], [ 121.853933395727168, 13.432138746806705 ], [ 121.853962799475596, 13.432161474474283 ], [ 121.853648123812533, 13.43247385188414 ], [ 121.853629145845503, 13.432593358884185 ], [ 121.853695262073543, 13.43268242702946 ] ] ] } },
{ "type": "Feature", "properties": { "Id": 0, "CLN": "11073", "PSGC": "174001060", "Barangay": "Tumapon", "Land_Class": null, "PIN": "030-01-055-01-012", "ALN": "012", "Section": "01", "Brgy_Code": "055" }, "geometry": { "type": "Polygon", "coordinates": [ [ [ 121.853629145845503, 13.432593358884185 ], [ 121.852833154336622, 13.432866921631968 ], [ 121.852871555629022, 13.432949370130704 ], [ 121.852850896150741, 13.433215083147191 ], [ 121.85308362026646, 13.433222471589072 ], [ 121.853216671510665, 13.433083408591989 ], [ 121.853293153271409, 13.43301261028105 ], [ 121.853506745525834, 13.432864513719142 ], [ 121.853695262073543, 13.43268242702946 ], [ 121.853629145845503, 13.432593358884185 ] ] ] } },
{ "type": "Feature", "properties": { "Id": 0, "CLN": "16194", "PSGC": "174001060", "Barangay": "Tumapon", "Land_Class": null, "PIN": "030-01-055-01-026", "ALN": "026", "Section": "01", "Brgy_Code": "055" }, "geometry": { "type": "Polygon", "coordinates": [ [ [ 121.85371269976595, 13.43270458963563 ], [ 121.853574200637496, 13.432866514621793 ], [ 121.854592310113844, 13.432754680353586 ], [ 121.854851466007929, 13.432641941166375 ], [ 121.853771272034322, 13.432769914364993 ], [ 121.85371269976595, 13.43270458963563 ] ] ] } },
{ "type": "Feature", "properties": { "Id": 0, "CLN": "11093", "PSGC": "174001060", "Barangay": "Tumapon", "Land_Class": null, "PIN": "030-01-055-01-027", "ALN": "027", "Section": "01", "Brgy_Code": "055" }, "geometry": { "type": "Polygon", "coordinates": [ [ [ 121.855239016321136, 13.432236492300978 ], [ 121.855286861937273, 13.432027694208255 ], [ 121.855287495073398, 13.432002064819345 ], [ 121.85528891459407, 13.43187562157385 ], [ 121.855801421426506, 13.431865753985145 ], [ 121.855804308329212, 13.431044768112869 ], [ 121.855846283940835, 13.430251512167606 ], [ 121.855539050518928, 13.430124115155264 ], [ 121.855664232532064, 13.42999207389053 ], [ 121.855681706594083, 13.430006902601715 ], [ 121.856182478863289, 13.428962547213006 ], [ 121.856106556213589, 13.428870272735979 ], [ 121.855738178021269, 13.4281251352041 ], [ 121.855608592785998, 13.428183615057627 ], [ 121.855753779173483, 13.428471177626816 ], [ 121.855837863490521, 13.428918790986103 ], [ 121.855660965325711, 13.429240226424007 ], [ 121.855338277814084, 13.429798854834686 ], [ 121.855259658825887, 13.430016839418016 ], [ 121.855030000640028, 13.430386027538731 ], [ 121.85466757211897, 13.431143829672674 ], [ 121.854092446625444, 13.432134838639067 ], [ 121.854072451191826, 13.43212500221831 ], [ 121.854056658703144, 13.432161834814746 ], [ 121.85371269976595, 13.43270458963563 ], [ 121.853771272034322, 13.432769914364993 ], [ 121.854851466007929, 13.432641941166375 ], [ 121.854945818194267, 13.432435136454334 ], [ 121.854962548394298, 13.432395625052081 ], [ 121.855188926636856, 13.43237766766805 ], [ 121.855239016321136, 13.432236492300978 ] ] ] } },
{ "type": "Feature", "properties": { "Id": 0, "CLN": "16197", "PSGC": "174001060", "Barangay": "Tumapon", "Land_Class": null, "PIN": "030-01-055-01-029", "ALN": "029", "Section": "01", "Brgy_Code": "055" }, "geometry": { "type": "Polygon", "coordinates": [ [ [ 121.855698071279122, 13.432721733199685 ], [ 121.855715727238902, 13.433088880676886 ], [ 121.855845485187984, 13.432994538875427 ], [ 121.856008259901003, 13.432754785764237 ], [ 121.855698071279122, 13.432721733199685 ] ] ] } },
{ "type": "Feature", "properties": { "Id": 0, "CLN": "11065", "PSGC": "174001060", "Barangay": "Tumapon", "Land_Class": null, "PIN": "030-01-055-01-018", "ALN": "018", "Section": "01", "Brgy_Code": "055" }, "geometry": { "type": "Polygon", "coordinates": [ [ [ 121.851631369330093, 13.432945502109483 ], [ 121.851701498521578, 13.432789689272777 ], [ 121.8515526809677, 13.432723320612695 ], [ 121.851426252544783, 13.432875713587032 ], [ 121.851631369330093, 13.432945502109483 ] ] ] } },
{ "type": "Feature", "properties": { "Id": 0, "CLN": "11051", "PSGC": "174001060", "Barangay": "Tumapon", "Land_Class": null, "PIN": "030-01-055-01-042", "ALN": "042", "Section": "01", "Brgy_Code": "055" }, "geometry": { "type": "Polygon", "coordinates": [ [ [ 121.851048661924807, 13.43155907433851 ], [ 121.851456811004354, 13.431958115098086 ], [ 121.851633257335266, 13.431996340232528 ], [ 121.851736655087265, 13.431948857595248 ], [ 121.851943068619903, 13.431929750532724 ], [ 121.851919562510091, 13.431786506219147 ], [ 121.851934752863642, 13.431641106048321 ], [ 121.852011257991933, 13.431559849890482 ], [ 121.852138018458859, 13.431581715679068 ], [ 121.852229936805955, 13.431619372545093 ], [ 121.85223460956216, 13.430707467782852 ], [ 121.851770515641661, 13.430650061840275 ], [ 121.851462368522434, 13.430903538689147 ], [ 121.851462364386663, 13.430904433068978 ], [ 121.851023765517027, 13.431425673459193 ], [ 121.851048661924807, 13.43155907433851 ] ] ] } },
{ "type": "Feature", "properties": { "Id": 0, "CLN": "16192 RW", "PSGC": "174001060", "Barangay": "Tumapon", "Land_Class": null, "PIN": "030-01-055-01-", "ALN": null, "Section": "01", "Brgy_Code": "055" }, "geometry": { "type": "Polygon", "coordinates": [ [ [ 121.853954818277401, 13.432108328583961 ], [ 121.853829365990123, 13.432086538465816 ], [ 121.85370641479652, 13.432108350962306 ], [ 121.853933395727168, 13.432138746806705 ], [ 121.853954818277401, 13.432108328583961 ] ] ] } },
{ "type": "Feature", "properties": { "Id": 0, "CLN": "16190 RW", "PSGC": "174001060", "Barangay": "Tumapon", "Land_Class": null, "PIN": "030-01-055-01-", "ALN": null, "Section": "01", "Brgy_Code": "055" }, "geometry": { "type": "Polygon", "coordinates": [ [ [ 121.854072451191826, 13.43212500221831 ], [ 121.854092446625444, 13.432134838639067 ], [ 121.85466757211897, 13.431143829672674 ], [ 121.855030000640028, 13.430386027538731 ], [ 121.855259658825887, 13.430016839418016 ], [ 121.855338277814084, 13.429798854834686 ], [ 121.855660965325711, 13.429240226424007 ], [ 121.855837863490521, 13.428918790986103 ], [ 121.855753779173483, 13.428471177626816 ], [ 121.855608592785998, 13.428183615057627 ], [ 121.855568045364976, 13.428214096450281 ], [ 121.85570211826338, 13.428501949931913 ], [ 121.85579041833617, 13.428922169952349 ], [ 121.855621957991488, 13.429221906967962 ], [ 121.855271597239749, 13.429799223750303 ], [ 121.855198338399617, 13.430015429095789 ], [ 121.854981729212753, 13.430376814814405 ], [ 121.854603418278288, 13.431135188311695 ], [ 121.85409040991523, 13.432083117326798 ], [ 121.854072451191826, 13.43212500221831 ] ] ] } },
{ "type": "Feature", "properties": { "Id": 0, "CLN": "11042 pt", "PSGC": "174001060", "Barangay": "Tumapon", "Land_Class": null, "PIN": "030-01-055-01-043", "ALN": "043", "Section": "01", "Brgy_Code": "055" }, "geometry": { "type": "Polygon", "coordinates": [ [ [ 121.854288545133542, 13.428407601445539 ], [ 121.852305911635938, 13.428171183760048 ], [ 121.852201958729239, 13.427926436019678 ], [ 121.852201958729239, 13.427926436019675 ], [ 121.851708202640353, 13.428170884477419 ], [ 121.851614265011605, 13.428219731876647 ], [ 121.851421619764253, 13.428190459045192 ], [ 121.851115138581889, 13.428639325907145 ], [ 121.85104758366559, 13.428669288278082 ], [ 121.850726660743689, 13.428989943830045 ], [ 121.850740231434841, 13.42918896161034 ], [ 121.850642273851804, 13.429434841123671 ], [ 121.849988789934429, 13.429448933693058 ], [ 121.849926468852985, 13.429488012622286 ], [ 121.849965290717137, 13.429709378437108 ], [ 121.849892871998534, 13.430029988224652 ], [ 121.849927821095775, 13.430134236510952 ], [ 121.849998111905549, 13.430260331265291 ], [ 121.850161321987471, 13.43041287226947 ], [ 121.850211339507894, 13.430925698576038 ], [ 121.850469964314357, 13.431115933375178 ], [ 121.850729011445296, 13.431217550491176 ], [ 121.850849130331909, 13.431342165537488 ], [ 121.851023765517027, 13.431425673459193 ], [ 121.851462364267135, 13.430904433068433 ], [ 121.851770515641661, 13.430650061840275 ], [ 121.85223460956216, 13.430707467782852 ], [ 121.852569839781196, 13.430590627243305 ], [ 121.853171446513485, 13.431457510156001 ], [ 121.853478549292518, 13.431467622874488 ], [ 121.853487041393265, 13.43149048467501 ], [ 121.853580837806589, 13.431432161019027 ], [ 121.853920061727678, 13.431221227250813 ], [ 121.854054183044894, 13.431474142158038 ], [ 121.854104480366217, 13.431681733957145 ], [ 121.854196888014783, 13.431559155652018 ], [ 121.85428520368427, 13.431280445078805 ], [ 121.854267100701307, 13.431166302778436 ], [ 121.854333980965393, 13.431186052579248 ], [ 121.854469165314839, 13.431215051576595 ], [ 121.854598209959676, 13.430897015794123 ], [ 121.855183472354341, 13.429776918950372 ], [ 121.855397939535877, 13.429393128249846 ], [ 121.8555802589553, 13.429145155649277 ], [ 121.855381072048047, 13.429024406041641 ], [ 121.855181137641893, 13.429061343489153 ], [ 121.855022407972811, 13.428562320009627 ], [ 121.854856367670493, 13.428246184321734 ], [ 121.854288545133542, 13.428407601445539 ] ], [ [ 121.853459852136794, 13.430431381718888 ], [ 121.85371250580954, 13.430148688415338 ], [ 121.853846985753805, 13.430325913577507 ], [ 121.853796927885227, 13.430582644167458 ], [ 121.853459852136794, 13.430431381718888 ] ] ] } }
]
}
