{"type":"FeatureCollection","name":"Apitong","crs":{"type":"name","properties":{"name":"urn:ogc:def:crs:OGC:1.3:CRS84"}},"features":[{"type":"Feature","properties":{"Id":0,"CLN":"9497","PSGC":"174001004","Barangay":"Apitong","Land_Class":"AGRICULTURAL","PIN":"030-01-005-01-002","Owner":"ALIÑO, NAPOLEON","TaxDecNo":"04138"},"geometry":null},{"type":"Feature","properties":{"Id":0,"CLN":"9496","PSGC":"174001004","Barangay":"Apitong","Land_Class":"AGRICULTURAL","PIN":"030-01-005-01-003","Owner":"DR. DAVEY, YOLANDA NALING","TaxDecNo":"04139"},"geometry":null},{"type":"Feature","properties":{"Id":0,"CLN":"9498","PSGC":"174001004","Barangay":"Apitong","Land_Class":"AGRICULTURAL","PIN":"030-01-005-01-004","Owner":"MAGTURO, TERESITA L.","TaxDecNo":"04140"},"geometry":null},{"type":"Feature","properties":{"Id":0,"CLN":"9495","PSGC":"174001004","Barangay":"Apitong","Land_Class":"AGRICULTURAL","PIN":"030-01-005-01-006","Owner":"DELA SANTA, JOSE","TaxDecNo":"04142"},"geometry":null},{"type":"Feature","properties":{"Id":0,"CLN":"9494","PSGC":"174001004","Barangay":"Apitong","Land_Class":"AGRICULTURAL","PIN":"030-01-005-01-014","Owner":"BUÑAG, VENANCIO","TaxDecNo":"04149"},"geometry":null},{"type":"Feature","properties":{"Id":0,"CLN":"9489","PSGC":"174001004","Barangay":"Apitong","Land_Class":"AGRICULTURAL","PIN":"030-01-005-01-016","Owner":"NIEVA, FLORA","TaxDecNo":"04151"},"geometry":null},{"type":"Feature","properties":{"Id":0,"CLN":"9488","PSGC":"174001004","Barangay":"Apitong","Land_Class":"AGRICULTURAL","PIN":"030-01-005-01-020","Owner":"TAN, AVEN JINANG","TaxDecNo":"04155"},"geometry":null},{"type":"Feature","properties":{"Id":0,"CLN":"9481","PSGC":"174001004","Barangay":"Apitong","Land_Class":"AGRICULTURAL","PIN":"030-01-005-01-031","Owner":"LICOP, RENATO","TaxDecNo":"04166"},"geometry":null},{"type":"Feature","properties":{"Id":0,"CLN":"9487","PSGC":"174001004","Barangay":"Apitong","Land_Class":"AGRICULTURAL","PIN":"030-01-005-01-019","Owner":"CALACHAN, ILUMINADA","TaxDecNo":"04154"},"geometry":null},{"type":"Feature","properties":{"Id":0,"CLN":"9490","PSGC":"174001004","Barangay":"Apitong","Land_Class":"AGRICULTURAL","PIN":"030-01-005-01-018","Owner":"PATRICIO, FRANCISCO","TaxDecNo":"04153"},"geometry":null},{"type":"Feature","properties":{"Id":0,"CLN":"9480","PSGC":"174001004","Barangay":"Apitong","Land_Class":"AGRICULTURAL","PIN":"030-01-005-01-021","Owner":"HERNANDEZ, GERMAN L.","TaxDecNo":"04156"},"geometry":null},{"type":"Feature","properties":{"Id":0,"CLN":"9482","PSGC":"174001004","Barangay":"Apitong","Land_Class":"AGRICULTURAL","PIN":"030-01-005-01-022","Owner":"MARQUEZ, LINA","TaxDecNo":"04157"},"geometry":null},{"type":"Feature","properties":{"Id":0,"CLN":"9483","PSGC":"174001004","Barangay":"Apitong","Land_Class":"AGRICULTURAL","PIN":"030-01-005-01-033","Owner":"LICOP, RENATO","TaxDecNo":"04168"},"geometry":null},{"type":"Feature","properties":{"Id":0,"CLN":"9484","PSGC":"174001004","Barangay":"Apitong","Land_Class":"AGRICULTURAL","PIN":"030-01-005-01-023","Owner":"BELEN, TERESITA N.","TaxDecNo":"04158"},"geometry":null},{"type":"Feature","properties":{"Id":0,"CLN":"9481","PSGC":"174001004","Barangay":"Apitong","Land_Class":"AGRICULTURAL","PIN":"030-01-005-01-031","Owner":"LICOP, RENATO","TaxDecNo":"04166"},"geometry":null},{"type":"Feature","properties":{"Id":0,"CLN":"9611","PSGC":"174001004","Barangay":"Apitong","Land_Class":"AGRICULTURAL","PIN":"030-01-005-03-023","Owner":"NALING, CHARLIE M.","TaxDecNo":"04291"},"geometry":null},{"type":"Feature","properties":{"Id":0,"CLN":"9608","PSGC":"174001004","Barangay":"Apitong","Land_Class":"AGRICULTURAL","PIN":"030-01-005-03-027","Owner":"NALING, JUANITO L.","TaxDecNo":"04295"},"geometry":null},{"type":"Feature","properties":{"Id":0,"CLN":"9626","PSGC":"174001004","Barangay":"Apitong","Land_Class":"AGRICULTURAL","PIN":"030-01-005-02-057","Owner":"MAGTURO, CANUTO","TaxDecNo":"04231"},"geometry":null},{"type":"Feature","properties":{"Id":0,"CLN":"9630","PSGC":"174001004","Barangay":"Apitong","Land_Class":"AGRICULTURAL","PIN":"030-01-005-02-055","Owner":"MONTALAN, CIRILO","TaxDecNo":"04229"},"geometry":null},{"type":"Feature","properties":{"Id":0,"CLN":"9627","PSGC":"174001004","Barangay":"Apitong","Land_Class":"AGRICULTURAL","PIN":"030-01-005-02-056","Owner":"GETOLIO L. & CARMEN HARMI SANTOS","TaxDecNo":"04230"},"geometry":null},{"type":"Feature","properties":{"Id":0,"CLN":"9632","PSGC":"174001004","Barangay":"Apitong","Land_Class":"AGRICULTURAL","PIN":"030-01-005-03-043","Owner":"MALAPAD, MARISA LOPE","TaxDecNo":"04311"},"geometry":null},{"type":"Feature","properties":{"Id":0,"CLN":"9655","PSGC":"174001004","Barangay":"Apitong","Land_Class":"AGRICULTURAL","PIN":"030-01-005-02-016","Owner":"LEYNES, MARK ANGELO M.","TaxDecNo":"04194"},"geometry":null},{"type":"Feature","properties":{"Id":0,"CLN":"9654","PSGC":"174001004","Barangay":"Apitong","Land_Class":"AGRICULTURAL","PIN":"030-01-005-02-015","Owner":"MUHI, ANTONINO","TaxDecNo":"04193"},"geometry":null},{"type":"Feature","properties":{"Id":0,"CLN":"9601","PSGC":"174001004","Barangay":"Apitong","Land_Class":"AGRICULTURAL","PIN":"030-01-005-03-057","Owner":"MALAPAD, IMELDA","TaxDecNo":"04325"},"geometry":null},{"type":"Feature","properties":{"Id":0,"CLN":"9523","PSGC":"174001004","Barangay":"Apitong","Land_Class":"AGRICULTURAL","PIN":"030-01-005-03-014","Owner":"MALUBAG, EMERITA","TaxDecNo":"04282"},"geometry":null},{"type":"Feature","properties":{"Id":0,"CLN":"9576","PSGC":"174001004","Barangay":"Apitong","Land_Class":"AGRICULTURAL","PIN":"030-01-005-03-030","Owner":"MAGYAYA, ISABELO & MAGYAYA, JUANA & MAGYAYA, TRANQUILINO","TaxDecNo":"04298"},"geometry":null},{"type":"Feature","properties":{"Id":0,"CLN":"9577","PSGC":"174001004","Barangay":"Apitong","Land_Class":"AGRICULTURAL","PIN":"030-01-005-03-029","Owner":"MUHI, NATIVIDAD","TaxDecNo":"04297"},"geometry":null},{"type":"Feature","properties":{"Id":0,"CLN":"9578","PSGC":"174001004","Barangay":"Apitong","Land_Class":"AGRICULTURAL","PIN":"030-01-005-03-028","Owner":"MAPACPAC, LEO L. & MAPACPAC, MERLINA M.","TaxDecNo":"04296"},"geometry":null},{"type":"Feature","properties":{"Id":0,"CLN":"9600","PSGC":"174001004","Barangay":"Apitong","Land_Class":"AGRICULTURAL","PIN":"030-01-005-03-033","Owner":"JANER, ESPERANZA","TaxDecNo":"04301"},"geometry":null},{"type":"Feature","properties":{"Id":0,"CLN":"9587","PSGC":"174001004","Barangay":"Apitong","Land_Class":"AGRICULTURAL","PIN":"030-01-005-03-034","Owner":"LAZO, DEMETRIO","TaxDecNo":"04302"},"geometry":null},{"type":"Feature","properties":{"Id":0,"CLN":"9586","PSGC":"174001004","Barangay":"Apitong","Land_Class":"AGRICULTURAL","PIN":"030-01-005-03-035","Owner":"LAZO, DEMETRIA","TaxDecNo":"04303"},"geometry":null},{"type":"Feature","properties":{"Id":0,"CLN":"9588","PSGC":"174001004","Barangay":"Apitong","Land_Class":"AGRICULTURAL","PIN":"030-01-005-03-054","Owner":"MADRIGAL, ANIANO","TaxDecNo":"04322"},"geometry":null},{"type":"Feature","properties":{"Id":0,"CLN":"9637","PSGC":"174001004","Barangay":"Apitong","Land_Class":"AGRICULTURAL","PIN":"030-01-005-03-049","Owner":"MASCAREÑAS, ALLAN","TaxDecNo":"04317"},"geometry":null},{"type":"Feature","properties":{"Id":0,"CLN":"9636","PSGC":"174001004","Barangay":"Apitong","Land_Class":"AGRICULTURAL","PIN":"030-01-005-03-048","Owner":"MASCAREÑAS, ALLAN","TaxDecNo":"04316"},"geometry":null},{"type":"Feature","properties":{"Id":0,"CLN":"9638","PSGC":"174001004","Barangay":"Apitong","Land_Class":"AGRICULTURAL","PIN":"030-01-005-02-047","Owner":"JANER, ESPERANZA & JANER, CASIANO","TaxDecNo":"04219"},"geometry":null},{"type":"Feature","properties":{"Id":0,"CLN":"9521","PSGC":"174001004","Barangay":"Apitong","Land_Class":"AGRICULTURAL","PIN":"030-01-005-03-015","Owner":"SERBAN, JUANITA L.","TaxDecNo":"04283"},"geometry":null},{"type":"Feature","properties":{"Id":0,"CLN":"9607","PSGC":"174001004","Barangay":"Apitong","Land_Class":"AGRICULTURAL","PIN":"030-01-005-03-041","Owner":"MABIOG, BENEDICTO & MABIOG, DELIA W.","TaxDecNo":"04309"},"geometry":null},{"type":"Feature","properties":{"Id":0,"CLN":"9633","PSGC":"174001004","Barangay":"Apitong","Land_Class":"AGRICULTURAL","PIN":"030-01-005-03-042","Owner":"LABOG, MARIBEL L.","TaxDecNo":"04310"},"geometry":null},{"type":"Feature","properties":{"Id":0,"CLN":"9604","PSGC":"174001004","Barangay":"Apitong","Land_Class":"AGRICULTURAL","PIN":"030-01-005-03-050","Owner":"MAGTURO, SERVILLANO","TaxDecNo":"04318"},"geometry":null},{"type":"Feature","properties":{"Id":0,"CLN":"9606","PSGC":"174001004","Barangay":"Apitong","Land_Class":"AGRICULTURAL","PIN":"030-01-005-03-045","Owner":"MALAPAD, SOLOMON","TaxDecNo":"04313"},"geometry":null},{"type":"Feature","properties":{"Id":0,"CLN":"9605","PSGC":"174001004","Barangay":"Apitong","Land_Class":"AGRICULTURAL","PIN":"030-01-005-03-046","Owner":"MADRIGAL, JUAN","TaxDecNo":"04314"},"geometry":null},{"type":"Feature","properties":{"Id":0,"CLN":"9633","PSGC":"174001004","Barangay":"Apitong","Land_Class":"AGRICULTURAL","PIN":"030-01-005-03-042","Owner":"LABOG, MARIBEL L.","TaxDecNo":"04310"},"geometry":null},{"type":"Feature","properties":{"Id":0,"CLN":"9625","PSGC":"174001004","Barangay":"Apitong","Land_Class":"AGRICULTURAL","PIN":"030-01-005-02-054","Owner":"MARQUEZ, FORTUNATO","TaxDecNo":"04228"},"geometry":null},{"type":"Feature","properties":{"Id":0,"CLN":"9624","PSGC":"174001004","Barangay":"Apitong","Land_Class":"AGRICULTURAL","PIN":"030-01-005-02-053","Owner":"MONTEJO, APOLONIA","TaxDecNo":"04227"},"geometry":null},{"type":"Feature","properties":{"Id":0,"CLN":"9640","PSGC":"174001004","Barangay":"Apitong","Land_Class":"AGRICULTURAL","PIN":"030-01-005-02-043","Owner":"MAGCULANG, JANMEKO T","TaxDecNo":"04215"},"geometry":null},{"type":"Feature","properties":{"Id":0,"CLN":"9621","PSGC":"174001004","Barangay":"Apitong","Land_Class":"AGRICULTURAL","PIN":"030-01-005-02-049","Owner":"MONTELLANO, RICARDO A.","TaxDecNo":"04222"},"geometry":null},{"type":"Feature","properties":{"Id":0,"CLN":"9644","PSGC":"174001004","Barangay":"Apitong","Land_Class":"AGRICULTURAL","PIN":"030-01-005-02-042","Owner":"MIRANDA, DOMINGO","TaxDecNo":"04214"},"geometry":null},{"type":"Feature","properties":{"Id":0,"CLN":"9641","PSGC":"174001004","Barangay":"Apitong","Land_Class":"AGRICULTURAL","PIN":"030-01-005-02-046","Owner":"TENORIO, LYDIA & MAGCULANG, BENJAMIN","TaxDecNo":"04218"},"geometry":null},{"type":"Feature","properties":{"Id":0,"CLN":"9640","PSGC":"174001004","Barangay":"Apitong","Land_Class":"AGRICULTURAL","PIN":"030-01-005-02-043","Owner":"MAGCULANG, JANMEKO T","TaxDecNo":"04215"},"geometry":null},{"type":"Feature","properties":{"Id":0,"CLN":"9643","PSGC":"174001004","Barangay":"Apitong","Land_Class":"RESIDENTIAL","PIN":"030-01-005-02-044","Owner":"MALAPAD, RONEL P.","TaxDecNo":"04216"},"geometry":null},{"type":"Feature","properties":{"Id":0,"CLN":"9645","PSGC":"174001004","Barangay":"Apitong","Land_Class":"AGRICULTURAL","PIN":"030-01-005-02-039","Owner":"ARCAYA, ROLANDO R.","TaxDecNo":"04211"},"geometry":null},{"type":"Feature","properties":{"Id":0,"CLN":"9646","PSGC":"174001004","Barangay":"Apitong","Land_Class":"AGRICULTURAL","PIN":"030-01-005-02-039","Owner":"ARCAYA, ROLANDO R.","TaxDecNo":"04211"},"geometry":null},{"type":"Feature","properties":{"Id":0,"CLN":"9649","PSGC":"174001004","Barangay":"Apitong","Land_Class":"AGRICULTURAL","PIN":"030-01-005-02-037","Owner":"MIRANDA, SERAFIN M.","TaxDecNo":"04209"},"geometry":null},{"type":"Feature","properties":{"Id":0,"CLN":"9648","PSGC":"174001004","Barangay":"Apitong","Land_Class":"AGRICULTURAL","PIN":"030-01-005-02-088","Owner":"MAGCULANG, JOSEFA","TaxDecNo":"04266"},"geometry":null},{"type":"Feature","properties":{"Id":0,"CLN":"9647","PSGC":"174001004","Barangay":"Apitong","Land_Class":"AGRICULTURAL","PIN":"030-01-005-02-038","Owner":"MALAPAD, WYNMAR L.","TaxDecNo":"04210"},"geometry":null},{"type":"Feature","properties":{"Id":0,"CLN":"9650","PSGC":"174001004","Barangay":"Apitong","Land_Class":"AGRICULTURAL","PIN":"030-01-005-02-036","Owner":"MOGOL, AURELIO JR.","TaxDecNo":"04208"},"geometry":null},{"type":"Feature","properties":{"Id":0,"CLN":"9656","PSGC":"174001004","Barangay":"Apitong","Land_Class":"AGRICULTURAL","PIN":"030-01-005-02-067","Owner":"LEYNES, MARK ANGELO M.","TaxDecNo":"04243"},"geometry":null},{"type":"Feature","properties":{"Id":0,"CLN":"9657","PSGC":"174001004","Barangay":"Apitong","Land_Class":"RESIDENTIAL","PIN":"030-01-005-02-034","Owner":"MUHI, NARCISO","TaxDecNo":"04207"},"geometry":null},{"type":"Feature","properties":{"Id":0,"CLN":"9655","PSGC":"174001004","Barangay":"Apitong","Land_Class":"AGRICULTURAL","PIN":"030-01-005-02-016","Owner":"LEYNES, MARK ANGELO M.","TaxDecNo":"04194"},"geometry":null},{"type":"Feature","properties":{"Id":0,"CLN":"9658","PSGC":"174001004","Barangay":"Apitong","Land_Class":"RESIDENTIAL","PIN":"030-01-005-02-033","Owner":"MIRANDA, APOLONIO","TaxDecNo":"04206"},"geometry":null},{"type":"Feature","properties":{"Id":0,"CLN":"9665","PSGC":"174001004","Barangay":"Apitong","Land_Class":"AGRICULTURAL","PIN":"030-01-005-02-081","Owner":"NARITO, CONCEPCION","TaxDecNo":"04258"},"geometry":null},{"type":"Feature","properties":{"Id":0,"CLN":"9666","PSGC":"174001004","Barangay":"Apitong","Land_Class":"AGRICULTURAL","PIN":"030-01-005-02-030","Owner":"MAGCULANG, VALERIANA","TaxDecNo":"04204"},"geometry":null},{"type":"Feature","properties":{"Id":0,"CLN":"9667","PSGC":"174001004","Barangay":"Apitong","Land_Class":"AGRICULTURAL","PIN":"030-01-005-02-029","Owner":"NALING, JOEL M.","TaxDecNo":"04203"},"geometry":null},{"type":"Feature","properties":{"Id":0,"CLN":"9668","PSGC":"174001004","Barangay":"Apitong","Land_Class":"AGRICULTURAL","PIN":"030-01-005-02-076","Owner":"MANRIQUE, NORA M.","TaxDecNo":"04252"},"geometry":null},{"type":"Feature","properties":{"Id":0,"CLN":"9669","PSGC":"174001004","Barangay":"Apitong","Land_Class":"RESIDENTIAL","PIN":"030-01-005-02-027","Owner":"MAGCAMIT, MARIA MARTINEZ","TaxDecNo":"04260"},"geometry":null},{"type":"Feature","properties":{"Id":0,"CLN":"9670","PSGC":"174001004","Barangay":"Apitong","Land_Class":"AGRICULTURAL","PIN":"030-01-005-02-075","Owner":"DAQUER, ISABELITA M.","TaxDecNo":"04251"},"geometry":null},{"type":"Feature","properties":{"Id":0,"CLN":"9473","PSGC":"174001004","Barangay":"Apitong","Land_Class":"AGRICULTURAL","PIN":"030-01-005-02-001","Owner":"MANDIA, FAUSTINO & MANTARING, VIRGINIA","TaxDecNo":"04177"},"geometry":null},{"type":"Feature","properties":{"Id":0,"CLN":"9472","PSGC":"174001004","Barangay":"Apitong","Land_Class":"AGRICULTURAL","PIN":"030-01-005-02-002","Owner":"DIZON, JOHN","TaxDecNo":"04178"},"geometry":null},{"type":"Feature","properties":{"Id":0,"CLN":"9661","PSGC":"174001004","Barangay":"Apitong","Land_Class":"AGRICULTURAL","PIN":"030-01-005-02-021","Owner":"JAMBALOS, JAY M. & JAMBALOS, RUBY INGCO","TaxDecNo":"04198"},"geometry":null},{"type":"Feature","properties":{"Id":0,"CLN":"9662","PSGC":"174001004","Barangay":"Apitong","Land_Class":"AGRICULTURAL","PIN":"030-01-005-02-020","Owner":"MONTEALEGRE, JUAN","TaxDecNo":"04197"},"geometry":null},{"type":"Feature","properties":{"Id":0,"CLN":"9532","PSGC":"174001004","Barangay":"Apitong","Land_Class":"AGRICULTURAL","PIN":"030-01-005-04-003","Owner":"LANOT, MELANIO","TaxDecNo":"04345"},"geometry":null},{"type":"Feature","properties":{"Id":0,"CLN":"9556","PSGC":"174001004","Barangay":"Apitong","Land_Class":"AGRICULTURAL","PIN":"030-01-005-04-037","Owner":"MONTALAN, CIRILO","TaxDecNo":"04379"},"geometry":null},{"type":"Feature","properties":{"Id":0,"CLN":"9530","PSGC":"174001004","Barangay":"Apitong","Land_Class":"AGRICULTURAL","PIN":"030-01-005-04-004","Owner":"MAPACPAC, LEO L. & MAPACPAC, MERLINA M.","TaxDecNo":"04346"},"geometry":null},{"type":"Feature","properties":{"Id":0,"CLN":"9485","PSGC":"174001004","Barangay":"Apitong","Land_Class":"AGRICULTURAL","PIN":"030-01-005-01-011","Owner":"MADRIGAL, DELBERT J.","TaxDecNo":"30686"},"geometry":null},{"type":"Feature","properties":{"Id":0,"CLN":"9528","PSGC":"174001004","Barangay":"Apitong","Land_Class":"AGRICULTURAL","PIN":"030-01-005-04-006","Owner":"LAZO, LUIS","TaxDecNo":"04348"},"geometry":null},{"type":"Feature","properties":{"Id":0,"CLN":"9533","PSGC":"174001004","Barangay":"Apitong","Land_Class":"AGRICULTURAL","PIN":"030-01-005-04-002","Owner":"LANOT, TEOFISTA","TaxDecNo":"04344"},"geometry":null},{"type":"Feature","properties":{"Id":0,"CLN":"9525","PSGC":"174001004","Barangay":"Apitong","Land_Class":"AGRICULTURAL","PIN":"030-01-005-03-067","Owner":"LEYNES, ROSENIE R. & VASQUEZ, CECILIA & MAAÑO, MYRNA & MASCAREÑAS, JOCELYN","TaxDecNo":"04335"},"geometry":null},{"type":"Feature","properties":{"Id":0,"CLN":"9522","PSGC":"174001004","Barangay":"Apitong","Land_Class":"AGRICULTURAL","PIN":"030-01-005-03-031","Owner":"MAGCAMIT, CELSO","TaxDecNo":"04299"},"geometry":null},{"type":"Feature","properties":{"Id":0,"CLN":"9535","PSGC":"174001004","Barangay":"Apitong","Land_Class":"AGRICULTURAL","PIN":"030-01-005-04-014","Owner":"VALERO, MYRNA L.","TaxDecNo":"04354"},"geometry":null},{"type":"Feature","properties":{"Id":0,"CLN":"9520","PSGC":"174001004","Barangay":"Apitong","Land_Class":"AGRICULTURAL","PIN":"030-01-005-03-003","Owner":"MINGI, JOSE NOEL & MINGI, MA. EDELIA","TaxDecNo":"04271"},"geometry":null},{"type":"Feature","properties":{"Id":0,"CLN":"9517","PSGC":"174001004","Barangay":"Apitong","Land_Class":"AGRICULTURAL","PIN":"030-01-005-03-010","Owner":"MADERAZO, JOELITO L","TaxDecNo":"04278"},"geometry":null},{"type":"Feature","properties":{"Id":0,"CLN":"9518","PSGC":"174001004","Barangay":"Apitong","Land_Class":"AGRICULTURAL","PIN":"030-01-005-03-009","Owner":"MADRIGAL, JOSE","TaxDecNo":"04277"},"geometry":null},{"type":"Feature","properties":{"Id":0,"CLN":"9519","PSGC":"174001004","Barangay":"Apitong","Land_Class":"AGRICULTURAL","PIN":"030-01-005-03-006","Owner":"MADRIGAL, MIGUEL","TaxDecNo":"04274"},"geometry":null},{"type":"Feature","properties":{"Id":0,"CLN":"9513","PSGC":"174001004","Barangay":"Apitong","Land_Class":"AGRICULTURAL","PIN":"030-01-005-03-005","Owner":"PLATA, HERIEL M.","TaxDecNo":"04273"},"geometry":null},{"type":"Feature","properties":{"Id":0,"CLN":"9514","PSGC":"174001004","Barangay":"Apitong","Land_Class":"AGRICULTURAL","PIN":"030-01-005-03-007","Owner":"PLATA, HERIEL M.","TaxDecNo":"04275"},"geometry":null},{"type":"Feature","properties":{"Id":0,"CLN":"9515","PSGC":"174001004","Barangay":"Apitong","Land_Class":"AGRICULTURAL","PIN":"030-01-005-03-008","Owner":"MADRIGAL, CARMEN","TaxDecNo":"04276"},"geometry":null},{"type":"Feature","properties":{"Id":0,"CLN":"9516","PSGC":"174001004","Barangay":"Apitong","Land_Class":"AGRICULTURAL","PIN":"030-01-005-03-011","Owner":"PLATA, HERIEL M.","TaxDecNo":"04279"},"geometry":null},{"type":"Feature","properties":{"Id":0,"CLN":"9506","PSGC":"174001004","Barangay":"Apitong","Land_Class":"AGRICULTURAL","PIN":"030-01-005-03-020","Owner":"NEPOMUCENO, ENRIQUE","TaxDecNo":"04288"},"geometry":null},{"type":"Feature","properties":{"Id":0,"CLN":"9508","PSGC":"174001004","Barangay":"Apitong","Land_Class":"AGRICULTURAL","PIN":"030-01-005-03-025","Owner":"LANOT, TEOPISTA","TaxDecNo":"04293"},"geometry":null},{"type":"Feature","properties":{"Id":0,"CLN":"9509","PSGC":"174001004","Barangay":"Apitong","Land_Class":"AGRICULTURAL","PIN":"030-01-005-03-016","Owner":"MONTERAS, ALVIN L.","TaxDecNo":"04284"},"geometry":null},{"type":"Feature","properties":{"Id":0,"CLN":"9503","PSGC":"174001004","Barangay":"Apitong","Land_Class":"AGRICULTURAL","PIN":"030-01-005-01-010","Owner":"HRS. OF NAVARRO, CONSTANCIO","TaxDecNo":"04145"},"geometry":null},{"type":"Feature","properties":{"Id":0,"CLN":"9501","PSGC":"174001004","Barangay":"Apitong","Land_Class":"AGRICULTURAL","PIN":"030-01-005-01-008","Owner":"MUHI, ANTONIO","TaxDecNo":"04144"},"geometry":null},{"type":"Feature","properties":{"Id":0,"CLN":"9500","PSGC":"174001004","Barangay":"Apitong","Land_Class":"AGRICULTURAL","PIN":"030-01-005-01-007","Owner":"TAN, BAYANI & TAN, ESTRELLA","TaxDecNo":"04143"},"geometry":null},{"type":"Feature","properties":{"Id":0,"CLN":"9499","PSGC":"174001004","Barangay":"Apitong","Land_Class":"AGRICULTURAL","PIN":"030-01-005-01-005","Owner":"MUHI, ANTONINO","TaxDecNo":"04141"},"geometry":null},{"type":"Feature","properties":{"Id":0,"CLN":"9510","PSGC":"174001004","Barangay":"Apitong","Land_Class":"AGRICULTURAL","PIN":"030-01-005-03-069","Owner":"HRS. OF NALING, ELENA","TaxDecNo":"04337"},"geometry":null},{"type":"Feature","properties":{"Id":0,"CLN":"9511","PSGC":"174001004","Barangay":"Apitong","Land_Class":"AGRICULTURAL","PIN":"030-01-005-01-002","Owner":"ALIÑO, NAPOLEON","TaxDecNo":"04138"},"geometry":null},{"type":"Feature","properties":{"Id":0,"CLN":"9512","PSGC":"174001004","Barangay":"Apitong","Land_Class":"AGRICULTURAL","PIN":"030-01-005-03-004","Owner":"TAN, WELLINGTON S.","TaxDecNo":"04272"},"geometry":null},{"type":"Feature","properties":{"Id":0,"CLN":"9582","PSGC":"174001004","Barangay":"Apitong","Land_Class":"AGRICULTURAL","PIN":"030-01-005-03-052","Owner":"MADRIGAL, REGINO","TaxDecNo":"04320"},"geometry":null},{"type":"Feature","properties":{"Id":0,"CLN":"9603","PSGC":"174001004","Barangay":"Apitong","Land_Class":"AGRICULTURAL","PIN":"030-01-005-03-051","Owner":"MADRIGAL, REGINO","TaxDecNo":"04319"},"geometry":null},{"type":"Feature","properties":{"Id":0,"CLN":"9631","PSGC":"174001004","Barangay":"Apitong","Land_Class":"AGRICULTURAL","PIN":"030-01-005-02-052","Owner":"LANOT, TIMOTEO","TaxDecNo":"04226"},"geometry":null},{"type":"Feature","properties":{"Id":0,"CLN":"9639","PSGC":"174001004","Barangay":"Apitong","Land_Class":"RESIDENTIAL","PIN":"030-01-005-02-048","Owner":"MANUBA, CARLOS","TaxDecNo":"04221"},"geometry":null},{"type":"Feature","properties":{"Id":0,"CLN":"9557","PSGC":"174001004","Barangay":"Apitong","Land_Class":"AGRICULTURAL","PIN":"030-01-005-04-029","Owner":"DAQUIOAG, ZENAIDA L.","TaxDecNo":"04370"},"geometry":null},{"type":"Feature","properties":{"Id":0,"CLN":"9539","PSGC":"174001004","Barangay":"Apitong","Land_Class":"AGRICULTURAL","PIN":"030-01-005-04-054","Owner":"MORALES, CLARITA","TaxDecNo":"04399"},"geometry":null},{"type":"Feature","properties":{"Id":0,"CLN":"9551","PSGC":"174001004","Barangay":"Apitong","Land_Class":"AGRICULTURAL","PIN":"030-01-005-04-017","Owner":"MALABANA, FELISA","TaxDecNo":"04357"},"geometry":null},{"type":"Feature","properties":{"Id":0,"CLN":"9593","PSGC":"174001004","Barangay":"Apitong","Land_Class":"AGRICULTURAL","PIN":"030-01-005-01-001","Owner":"NALING, ELVIRA YOLANDA & NALING, DOMINGO","TaxDecNo":"04137"},"geometry":null},{"type":"Feature","properties":{"Id":0,"CLN":"9493","PSGC":"174001004","Barangay":"Apitong","Land_Class":"AGRICULTURAL","PIN":"030-01-005-01-015","Owner":"DIMAGUILA, PEARL S.","TaxDecNo":"04150"},"geometry":null},{"type":"Feature","properties":{"Id":0,"CLN":"9490","PSGC":"174001004","Barangay":"Apitong","Land_Class":"AGRICULTURAL","PIN":"030-01-005-01-018","Owner":"PATRICIO, FRANCISCO","TaxDecNo":"04153"},"geometry":null},{"type":"Feature","properties":{"Id":0,"CLN":"9613","PSGC":"174001004","Barangay":"Apitong","Land_Class":"RESIDENTIAL","PIN":"030-01-005-01-024","Owner":"NALING, CELSO","TaxDecNo":"04268"},"geometry":null},{"type":"Feature","properties":{"Id":0,"CLN":"9591","PSGC":"174001004","Barangay":"Apitong","Land_Class":"RESIDENTIAL","PIN":"030-01-005-01-039","Owner":"MADRIGAL, EDITA J.","TaxDecNo":"04173"},"geometry":null},{"type":"Feature","properties":{"Id":0,"CLN":"9590","PSGC":"174001004","Barangay":"Apitong","Land_Class":"AGRICULTURAL","PIN":"030-01-005-01-027","Owner":"SPS. JOCELYN M. ORIL & BENJAMIN B. ORIL","TaxDecNo":"29813"},"geometry":null},{"type":"Feature","properties":{"Id":0,"CLN":"9474","PSGC":"174001004","Barangay":"Apitong","Land_Class":"AGRICULTURAL","PIN":"030-01-005-01-028","Owner":"MINGI, JOSE NOEL & MINGI, MA. EDELIA","TaxDecNo":"04162"},"geometry":null},{"type":"Feature","properties":{"Id":0,"CLN":"9477","PSGC":"174001004","Barangay":"Apitong","Land_Class":"AGRICULTURAL","PIN":"030-01-005-01-029","Owner":"LEAÑO, PATROCINIO M.","TaxDecNo":"04163"},"geometry":null},{"type":"Feature","properties":{"Id":0,"CLN":"9478","PSGC":"174001004","Barangay":"Apitong","Land_Class":"RESIDENTIAL","PIN":"030-01-005-01-030","Owner":"MAMPUSTI, ROSARIO","TaxDecNo":"04165"},"geometry":null},{"type":"Feature","properties":{"Id":0,"CLN":"9481","PSGC":"174001004","Barangay":"Apitong","Land_Class":"AGRICULTURAL","PIN":"030-01-005-01-031","Owner":"LICOP, RENATO","TaxDecNo":"04166"},"geometry":null},{"type":"Feature","properties":{"Id":0,"CLN":"9479","PSGC":"174001004","Barangay":"Apitong","Land_Class":"AGRICULTURAL","PIN":"030-01-005-01-032","Owner":"CALACHAN, ERWIN VON CALACHAN, GILDA CALACHAN, GIL CALACHAN, GINA CALACHAN, VALERIE","TaxDecNo":"04167"},"geometry":null},{"type":"Feature","properties":{"Id":0,"CLN":"9614","PSGC":"174001004","Barangay":"Apitong","Land_Class":"RESIDENTIAL","PIN":"030-01-005-02-059","Owner":"MABUTI, ANISIA S.","TaxDecNo":"04234"},"geometry":null},{"type":"Feature","properties":{"Id":0,"CLN":"9610","PSGC":"174001004","Barangay":"Apitong","Land_Class":"AGRICULTURAL","PIN":"030-01-005-03-024","Owner":"LOGATOC, CASIANO","TaxDecNo":"04292"},"geometry":null},{"type":"Feature","properties":{"Id":0,"CLN":"9609","PSGC":"174001004","Barangay":"Apitong","Land_Class":"AGRICULTURAL","PIN":"030-01-005-03-026","Owner":"DIMAGUILA, ROSEMARY","TaxDecNo":"04294"},"geometry":null},{"type":"Feature","properties":{"Id":0,"CLN":"9629","PSGC":"174001004","Barangay":"Apitong","Land_Class":"AGRICULTURAL","PIN":"030-01-005-03-022","Owner":"MUHI, APOLONIA MONTEJO C.","TaxDecNo":"04290"},"geometry":null},{"type":"Feature","properties":{"Id":0,"CLN":"9628","PSGC":"174001004","Barangay":"Apitong","Land_Class":"AGRICULTURAL","PIN":"030-01-005-02-058","Owner":"MAGTURO, PANTALEON","TaxDecNo":"04232"},"geometry":null},{"type":"Feature","properties":{"Id":0,"CLN":"9615","PSGC":"174001004","Barangay":"Apitong","Land_Class":"AGRICULTURAL","PIN":"030-01-005-02-005","Owner":"MAGTURO, PANTALEON","TaxDecNo":"04181"},"geometry":null},{"type":"Feature","properties":{"Id":0,"CLN":"9616","PSGC":"174001004","Barangay":"Apitong","Land_Class":"AGRICULTURAL","PIN":"030-01-005-02-006","Owner":"GETOLIO L. & CARMEN HARMI SANTOS","TaxDecNo":"04182"},"geometry":null},{"type":"Feature","properties":{"Id":0,"CLN":"9470","PSGC":"174001004","Barangay":"Apitong","Land_Class":"AGRICULTURAL","PIN":"030-01-005-02-003","Owner":"TAN, VICTORIA LORELIE M.","TaxDecNo":"30640"},"geometry":null},{"type":"Feature","properties":{"Id":0,"CLN":"9617","PSGC":"174001004","Barangay":"Apitong","Land_Class":"AGRICULTURAL","PIN":"030-01-005-02-009","Owner":"MONTEJO, APOLONIA","TaxDecNo":"04186"},"geometry":null},{"type":"Feature","properties":{"Id":0,"CLN":"9618","PSGC":"174001004","Barangay":"Apitong","Land_Class":"RESIDENTIAL","PIN":"030-01-005-02-008","Owner":"MALCO, AMBROCIO","TaxDecNo":"04185"},"geometry":null},{"type":"Feature","properties":{"Id":0,"CLN":"9619","PSGC":"174001004","Barangay":"Apitong","Land_Class":"AGRICULTURAL","PIN":"030-01-005-02-010","Owner":"MONTALAN, SALVACION L.","TaxDecNo":"04187"},"geometry":null},{"type":"Feature","properties":{"Id":0,"CLN":"9651","PSGC":"174001004","Barangay":"Apitong","Land_Class":"AGRICULTURAL","PIN":"030-01-005-02-012","Owner":"MOGOL, AURELIO JR.","TaxDecNo":"04190"},"geometry":null},{"type":"Feature","properties":{"Id":0,"CLN":"9652","PSGC":"174001004","Barangay":"Apitong","Land_Class":"AGRICULTURAL","PIN":"030-01-005-02-013","Owner":"MONTALAN, EFREN & MONTALAN, IMMACULADA L.","TaxDecNo":"04191"},"geometry":null},{"type":"Feature","properties":{"Id":0,"CLN":"9674","PSGC":"174001004","Barangay":"Apitong","Land_Class":"RESIDENTIAL","PIN":"030-01-005-02-022","Owner":"MAGCULANG, VALERIANO","TaxDecNo":"04200"},"geometry":null},{"type":"Feature","properties":{"Id":0,"CLN":"9673","PSGC":"174001004","Barangay":"Apitong","Land_Class":"RESIDENTIAL","PIN":"030-01-005-02-079","Owner":"SAYOSA, DOMINGO","TaxDecNo":"04256"},"geometry":null},{"type":"Feature","properties":{"Id":0,"CLN":"9567","PSGC":"174001004","Barangay":"Apitong","Land_Class":"AGRICULTURAL","PIN":"030-01-005-03-061","Owner":"LEYNES, ROSENIE R. & VASQUEZ, CECILIA & MAAÑO, MYRNA & MASCAREÑAS, JOCELYN","TaxDecNo":"04329"},"geometry":null},{"type":"Feature","properties":{"Id":0,"CLN":"9578","PSGC":"174001004","Barangay":"Apitong","Land_Class":"AGRICULTURAL","PIN":"030-01-005-03-028","Owner":"MAPACPAC, LEO L. & MAPACPAC, MERLINA M.","TaxDecNo":"04296"},"geometry":null},{"type":"Feature","properties":{"Id":0,"CLN":"9572","PSGC":"174001004","Barangay":"Apitong","Land_Class":"AGRICULTURAL","PIN":"030-01-005-03-059","Owner":"ORLINA, EDNA & ORLINA, MARITES & ORLINA, MYRNA","TaxDecNo":"04327"},"geometry":null},{"type":"Feature","properties":{"Id":0,"CLN":"9574","PSGC":"174001004","Barangay":"Apitong","Land_Class":"AGRICULTURAL","PIN":"030-01-005-03-058","Owner":"MALING, HECTOR MALAPAD","TaxDecNo":"31598"},"geometry":null},{"type":"Feature","properties":{"Id":0,"CLN":"9567","PSGC":"174001004","Barangay":"Apitong","Land_Class":"AGRICULTURAL","PIN":"030-01-005-03-061","Owner":"LEYNES, ROSENIE R. & VASQUEZ, CECILIA & MAAÑO, MYRNA & MASCAREÑAS, JOCELYN","TaxDecNo":"04329"},"geometry":null},{"type":"Feature","properties":{"Id":0,"CLN":"9573","PSGC":"174001004","Barangay":"Apitong","Land_Class":"AGRICULTURAL","PIN":"030-01-005-03-060","Owner":"LOZANO, JACINTO","TaxDecNo":"04328"},"geometry":null},{"type":"Feature","properties":{"Id":0,"CLN":"9570","PSGC":"174001004","Barangay":"Apitong","Land_Class":"AGRICULTURAL","PIN":"030-01-005-03-063","Owner":"MADRIGAL, PILAR","TaxDecNo":"04331"},"geometry":null},{"type":"Feature","properties":{"Id":0,"CLN":"9568","PSGC":"174001004","Barangay":"Apitong","Land_Class":"AGRICULTURAL","PIN":"030-01-005-03-065","Owner":"MONTALAN JR., CLEMENTE","TaxDecNo":"04333"},"geometry":null},{"type":"Feature","properties":{"Id":0,"CLN":"9571","PSGC":"174001004","Barangay":"Apitong","Land_Class":"AGRICULTURAL","PIN":"030-01-005-03-062","Owner":"LANOT, TIMOTEO","TaxDecNo":"04330"},"geometry":null},{"type":"Feature","properties":{"Id":0,"CLN":"9575","PSGC":"174001004","Barangay":"Apitong","Land_Class":"AGRICULTURAL","PIN":"030-01-005-03-032","Owner":"MONTELLANO, EDNA","TaxDecNo":"04300"},"geometry":null},{"type":"Feature","properties":{"Id":0,"CLN":"9576","PSGC":"174001004","Barangay":"Apitong","Land_Class":"AGRICULTURAL","PIN":"030-01-005-03-030","Owner":"MAGYAYA, ISABELO & MAGYAYA, JUANA & MAGYAYA, TRANQUILINO","TaxDecNo":"04298"},"geometry":null},{"type":"Feature","properties":{"Id":0,"CLN":"9579","PSGC":"174001004","Barangay":"Apitong","Land_Class":"AGRICULTURAL","PIN":"030-01-005-03-040","Owner":"ATTY. JAMILLA, SALVADOR","TaxDecNo":"04308"},"geometry":null},{"type":"Feature","properties":{"Id":0,"CLN":"9600","PSGC":"174001004","Barangay":"Apitong","Land_Class":"AGRICULTURAL","PIN":"030-01-005-03-033","Owner":"JANER, ESPERANZA","TaxDecNo":"04301"},"geometry":null},{"type":"Feature","properties":{"Id":0,"CLN":"9581","PSGC":"174001004","Barangay":"Apitong","Land_Class":"AGRICULTURAL","PIN":"030-01-005-03-038","Owner":"MADRIGAL, REGINO","TaxDecNo":"04306"},"geometry":null},{"type":"Feature","properties":{"Id":0,"CLN":"9585","PSGC":"174001004","Barangay":"Apitong","Land_Class":"AGRICULTURAL","PIN":"030-01-005-03-036","Owner":"MADRIGAL, CARMEN","TaxDecNo":"04304"},"geometry":null},{"type":"Feature","properties":{"Id":0,"CLN":"9584","PSGC":"174001004","Barangay":"Apitong","Land_Class":"AGRICULTURAL","PIN":"030-01-005-03-037","Owner":"MADRIGAL, MIGUEL","TaxDecNo":"04305"},"geometry":null},{"type":"Feature","properties":{"Id":0,"CLN":"9599","PSGC":"174001004","Barangay":"Apitong","Land_Class":"AGRICULTURAL","PIN":"030-01-005-03-055","Owner":"NAVARRO, RUSTICO","TaxDecNo":"04323"},"geometry":null},{"type":"Feature","properties":{"Id":0,"CLN":"9583","PSGC":"174001004","Barangay":"Apitong","Land_Class":"AGRICULTURAL","PIN":"030-01-005-03-053","Owner":"MAGTURO, SILVERIANO","TaxDecNo":"04321"},"geometry":null},{"type":"Feature","properties":{"Id":0,"CLN":"9602","PSGC":"174001004","Barangay":"Apitong","Land_Class":"AGRICULTURAL","PIN":"030-01-005-03-056","Owner":"MASCAREÑAS, REYNALDO","TaxDecNo":"04324"},"geometry":null},{"type":"Feature","properties":{"Id":0,"CLN":"9634","PSGC":"174001004","Barangay":"Apitong","Land_Class":"AGRICULTURAL","PIN":"030-01-005-03-044","Owner":"LABOG, CELSO, JR.","TaxDecNo":"04312"},"geometry":null},{"type":"Feature","properties":{"Id":0,"CLN":"9622","PSGC":"174001004","Barangay":"Apitong","Land_Class":"RESIDENTIAL","PIN":"030-01-005-02-051","Owner":"MARQUEZ, VICTORIA","TaxDecNo":"04225"},"geometry":null},{"type":"Feature","properties":{"Id":0,"CLN":"9612","PSGC":"174001004","Barangay":"Apitong","Land_Class":"AGRICULTURAL","PIN":"030-01-005-03-071","Owner":"MARQUEZ, REGINA","TaxDecNo":"04338"},"geometry":null},{"type":"Feature","properties":{"Id":0,"CLN":"9475","PSGC":"174001004","Barangay":"Apitong","Land_Class":"AGRICULTURAL","PIN":"030-01-005-02-004","Owner":"SIENA, IRMA","TaxDecNo":"04180"},"geometry":null},{"type":"Feature","properties":{"Id":0,"CLN":"9653","PSGC":"174001004","Barangay":"Apitong","Land_Class":"AGRICULTURAL","PIN":"030-01-005-02-014","Owner":"MAGTURO, CATALINO","TaxDecNo":"04192"},"geometry":null},{"type":"Feature","properties":{"Id":0,"CLN":"9660","PSGC":"174001004","Barangay":"Apitong","Land_Class":"AGRICULTURAL","PIN":"030-01-005-02-017","Owner":"MIRANDA, SERVILLANO","TaxDecNo":"04195"},"geometry":null},{"type":"Feature","properties":{"Id":0,"CLN":"9664","PSGC":"174001004","Barangay":"Apitong","Land_Class":"RESIDENTIAL","PIN":"030-01-005-02-086","Owner":"OSINSAO, VILMA A.","TaxDecNo":"04263"},"geometry":null},{"type":"Feature","properties":{"Id":0,"CLN":"9672","PSGC":"174001004","Barangay":"Apitong","Land_Class":"AGRICULTURAL","PIN":"030-01-005-02-065","Owner":"MASCAREÑAS, REYNALDO & MADRIGAL, NEMESIA","TaxDecNo":"04240"},"geometry":null},{"type":"Feature","properties":{"Id":0,"CLN":"9671","PSGC":"174001004","Barangay":"Apitong","Land_Class":"COMMERCIAL","PIN":"030-01-005-02-025","Owner":"MARINDUQUE ELECTRIC COOPERATIVE, INC.","TaxDecNo":"04202"},"geometry":null},{"type":"Feature","properties":{"Id":0,"CLN":"9534","PSGC":"174001004","Barangay":"Apitong","Land_Class":"AGRICULTURAL","PIN":"030-01-005-04-001","Owner":"LANOT, LUIS","TaxDecNo":"04343"},"geometry":null},{"type":"Feature","properties":{"Id":0,"CLN":"9535","PSGC":"174001004","Barangay":"Apitong","Land_Class":"AGRICULTURAL","PIN":"030-01-005-04-014","Owner":"VALERO, MYRNA L.","TaxDecNo":"04354"},"geometry":null},{"type":"Feature","properties":{"Id":0,"CLN":"9352","PSGC":"174001004","Barangay":"Apitong","Land_Class":"RESIDENTIAL","PIN":"030-01-012-03-029","Owner":"GATCHALIAN, ROMEO & GATCHALIAN, EDNA LINESES","TaxDecNo":"07932"},"geometry":null},{"type":"Feature","properties":{"Id":0,"CLN":"9536","PSGC":"174001004","Barangay":"Apitong","Land_Class":"AGRICULTURAL","PIN":"030-01-005-04-013","Owner":"VALERO, MYRNA L.","TaxDecNo":"04353"},"geometry":null},{"type":"Feature","properties":{"Id":0,"CLN":"9537","PSGC":"174001004","Barangay":"Apitong","Land_Class":"AGRICULTURAL","PIN":"030-01-005-04-012","Owner":"MANDIA, LAURO","TaxDecNo":"04352"},"geometry":null},{"type":"Feature","properties":{"Id":0,"CLN":"9538","PSGC":"174001004","Barangay":"Apitong","Land_Class":"RESIDENTIAL","PIN":"030-01-005-04-011","Owner":"MAPACPAC, JOSELITO N. & MAPACPAC, GINA M.","TaxDecNo":"04401"},"geometry":null},{"type":"Feature","properties":{"Id":0,"CLN":"9561","PSGC":"174001004","Barangay":"Apitong","Land_Class":"RESIDENTIAL","PIN":"030-01-005-04-033","Owner":"MIRANDA, MARCELO M.","TaxDecNo":"04375"},"geometry":null},{"type":"Feature","properties":{"Id":0,"CLN":"9560","PSGC":"174001004","Barangay":"Apitong","Land_Class":"AGRICULTURAL","PIN":"030-01-005-04-032","Owner":"MAGCULANG, JOSEFA","TaxDecNo":"04373"},"geometry":null},{"type":"Feature","properties":{"Id":0,"CLN":"9558","PSGC":"174001004","Barangay":"Apitong","Land_Class":"AGRICULTURAL","PIN":"030-01-005-04-031","Owner":"MAGCULANG, VALERIANA","TaxDecNo":"04372"},"geometry":null},{"type":"Feature","properties":{"Id":0,"CLN":"9563","PSGC":"174001004","Barangay":"Apitong","Land_Class":"AGRICULTURAL","PIN":"030-01-005-04-035","Owner":"LANOT, LUCIANO","TaxDecNo":"04376"},"geometry":null},{"type":"Feature","properties":{"Id":0,"CLN":"9364","PSGC":"174001004","Barangay":"Apitong","Land_Class":"RESIDENTIAL","PIN":"030-01-012-03-040","Owner":"DR. PABLO MARQUEZ","TaxDecNo":"07936"},"geometry":null},{"type":"Feature","properties":{"Id":0,"CLN":"9529","PSGC":"174001004","Barangay":"Apitong","Land_Class":"AGRICULTURAL","PIN":"030-01-005-04-005","Owner":"ROQUE, JOSEFA","TaxDecNo":"04347"},"geometry":null},{"type":"Feature","properties":{"Id":0,"CLN":"9541","PSGC":"174001004","Barangay":"Apitong","Land_Class":"AGRICULTURAL","PIN":"030-01-005-04-024","Owner":"ROQUE, JOSEFA","TaxDecNo":"04365"},"geometry":null},{"type":"Feature","properties":{"Id":0,"CLN":"9541","PSGC":"174001004","Barangay":"Apitong","Land_Class":"AGRICULTURAL","PIN":"030-01-005-04-024","Owner":"ROQUE, JOSEFA","TaxDecNo":"04365"},"geometry":null},{"type":"Feature","properties":{"Id":0,"CLN":"9555","PSGC":"174001004","Barangay":"Apitong","Land_Class":"AGRICULTURAL","PIN":"030-01-005-04-043","Owner":"MARQUEZ, ERMILINDA","TaxDecNo":"04388"},"geometry":null},{"type":"Feature","properties":{"Id":0,"CLN":"9343","PSGC":"174001004","Barangay":"Apitong","Land_Class":"AGRICULTURAL","PIN":"030-01-005-04-026","Owner":"NEPOMUCENO, EDWIN M.","TaxDecNo":"04367"},"geometry":null},{"type":"Feature","properties":{"Id":0,"CLN":"9544","PSGC":"174001004","Barangay":"Apitong","Land_Class":"AGRICULTURAL","PIN":"030-01-005-04-023","Owner":"ROQUE, JOSEFA","TaxDecNo":"04364"},"geometry":null},{"type":"Feature","properties":{"Id":0,"CLN":"9598","PSGC":"174001004","Barangay":"Apitong","Land_Class":"AGRICULTURAL","PIN":"030-01-047-01-037","Owner":"MONTERAS, MARIANO","TaxDecNo":"24653"},"geometry":null},{"type":"Feature","properties":{"Id":0,"CLN":"9540","PSGC":"174001004","Barangay":"Apitong","Land_Class":"AGRICULTURAL","PIN":"030-01-005-04-009","Owner":"MAAT, FRANCISCO MIL","TaxDecNo":"04351"},"geometry":null},{"type":"Feature","properties":{"Id":0,"CLN":"9545","PSGC":"174001004","Barangay":"Apitong","Land_Class":"RESIDENTIAL","PIN":"030-01-005-04-022","Owner":"MR. MALAPAD, NOEL","TaxDecNo":"04363"},"geometry":null},{"type":"Feature","properties":{"Id":0,"CLN":"9546","PSGC":"174001004","Barangay":"Apitong","Land_Class":"AGRICULTURAL","PIN":"030-01-005-04-021","Owner":"MALAPAD, LEONIDA & MONTOYA, CIPRIANO","TaxDecNo":"04361"},"geometry":null},{"type":"Feature","properties":{"Id":0,"CLN":"9547","PSGC":"174001004","Barangay":"Apitong","Land_Class":"AGRICULTURAL","PIN":"030-01-005-04-020","Owner":"NATAL, JOSE & MONTOYA, ILUMINADA","TaxDecNo":"04360"},"geometry":null},{"type":"Feature","properties":{"Id":0,"CLN":"9550","PSGC":"174001004","Barangay":"Apitong","Land_Class":"AGRICULTURAL","PIN":"030-01-005-04-018","Owner":"MAPACPAC, LUCIO","TaxDecNo":"04358"},"geometry":null},{"type":"Feature","properties":{"Id":0,"CLN":"9545","PSGC":"174001004","Barangay":"Apitong","Land_Class":"RESIDENTIAL","PIN":"030-01-005-04-022","Owner":"MR. MALAPAD, NOEL","TaxDecNo":"04363"},"geometry":null},{"type":"Feature","properties":{"Id":0,"CLN":"9566","PSGC":"174001004","Barangay":"Apitong","Land_Class":"AGRICULTURAL","PIN":"030-01-005-04-041","Owner":"LAZO, ROLITO & LAZO, MYRNA","TaxDecNo":"04386"},"geometry":null},{"type":"Feature","properties":{"Id":0,"CLN":"9589","PSGC":"174001004","Barangay":"Apitong","Land_Class":"AGRICULTURAL","PIN":"030-01-005-04-040","Owner":"LAZO, ROLITO","TaxDecNo":"04385"},"geometry":null},{"type":"Feature","properties":{"Id":0,"CLN":"9524","PSGC":"174001004","Barangay":"Apitong","Land_Class":"AGRICULTURAL","PIN":"030-01-005-03-066","Owner":"MINGI, JOSE NOEL & MINGI, MA. EDELIA","TaxDecNo":"04334"},"geometry":null},{"type":"Feature","properties":{"Id":0,"CLN":"9503","PSGC":"174001004","Barangay":"Apitong","Land_Class":"AGRICULTURAL","PIN":"030-01-005-01-010","Owner":"HRS. OF NAVARRO, CONSTANCIO","TaxDecNo":"04145"},"geometry":null},{"type":"Feature","properties":{"Id":0,"CLN":"9507","PSGC":"174001004","Barangay":"Apitong","Land_Class":"AGRICULTURAL","PIN":"030-01-005-03-019","Owner":"MADRIGAL, MICHAEL S.","TaxDecNo":"31479"},"geometry":null},{"type":"Feature","properties":{"Id":0,"CLN":"9504","PSGC":"174001004","Barangay":"Apitong","Land_Class":"AGRICULTURAL","PIN":"030-01-005-03-017","Owner":"LANOT, JOAQUIN & MONLEON, Y.","TaxDecNo":"04285"},"geometry":null},{"type":"Feature","properties":{"Id":0,"CLN":"9502","PSGC":"174001004","Barangay":"Apitong","Land_Class":"AGRICULTURAL","PIN":"030-01-005-01-035","Owner":"MADRIGAL, MICHAEL SELDA","TaxDecNo":"29073"},"geometry":null},{"type":"Feature","properties":{"Id":0,"CLN":"9565","PSGC":"174001004","Barangay":"Apitong","Land_Class":"AGRICULTURAL","PIN":"030-01-005-04-039","Owner":"DR. LOURDES LEUTERIO/TERESITA LEUTERIO/STELLA LEUTERIO/ CORAZON LEUTERIO/ RAMON LEUTERIO/ JOSE LEUTERIO JR.","TaxDecNo":"29671"},"geometry":null},{"type":"Feature","properties":{"Id":0,"CLN":"9526","PSGC":"174001004","Barangay":"Apitong","Land_Class":"AGRICULTURAL","PIN":"030-01-005-03-013","Owner":"LEYNES, WILFREDO R. & LEYNES, ZOSIMO & LEYNES, EDISON","TaxDecNo":"04281"},"geometry":null},{"type":"Feature","properties":{"Id":0,"CLN":"9559","PSGC":"174001004","Barangay":"Apitong","Land_Class":"AGRICULTURAL","PIN":"030-01-005-04-030","Owner":"MAGCULANG, BENJAMIN & TENORIO, LYDIA","TaxDecNo":"04371"},"geometry":null},{"type":"Feature","properties":{"Id":0,"CLN":"9620","PSGC":"174001004","Barangay":"Apitong","Land_Class":"RESIDENTIAL","PIN":"030-01-005-02-011","Owner":"MALAPAD, SOLOMON","TaxDecNo":"04189"},"geometry":null},{"type":"Feature","properties":{"Id":0,"CLN":"9486","PSGC":"174001004","Barangay":"Apitong","Land_Class":"AGRICULTURAL","PIN":"030-01-005-01-012","Owner":"MAGTURO, TERESITA L.","TaxDecNo":"04147"},"geometry":null},{"type":"Feature","properties":{"Id":0,"CLN":"9476","PSGC":"174001004","Barangay":"Apitong","Land_Class":"AGRICULTURAL","PIN":"030-01-005-01-026","Owner":"MAGYAYA, LOPE","TaxDecNo":"04160"},"geometry":null},{"type":"Feature","properties":{"Id":0,"CLN":"9492","PSGC":"174001004","Barangay":"Apitong","Land_Class":"AGRICULTURAL","PIN":"030-01-005-01-013","Owner":"CATRAL, ESTRELLA M.","TaxDecNo":"04148"},"geometry":null},{"type":"Feature","properties":{"Id":0,"CLN":"9623","PSGC":"174001004","Barangay":"Apitong","Land_Class":"RESIDENTIAL","PIN":"030-01-005-02-050","Owner":"MONTALAN JR., CLEMENTE","TaxDecNo":"04223"},"geometry":null},{"type":"Feature","properties":{"Id":0,"CLN":"9585","PSGC":"174001004","Barangay":"Apitong","Land_Class":"AGRICULTURAL","PIN":"030-01-005-03-039","Owner":"MANUBA, LOPE","TaxDecNo":"04307"},"geometry":null},{"type":"Feature","properties":{"Id":0,"CLN":"9527","PSGC":"174001004","Barangay":"Apitong","Land_Class":"AGRICULTURAL","PIN":"030-01-005-04-007","Owner":"LAZO, LUIS","TaxDecNo":"04349"},"geometry":null},{"type":"Feature","properties":{"Id":0,"CLN":"9548","PSGC":"174001004","Barangay":"Apitong","Land_Class":"AGRICULTURAL","PIN":"030-01-005-04-019","Owner":"MONTOYA, CIPRIANO","TaxDecNo":"04359"},"geometry":null},{"type":"Feature","properties":{"Id":0,"CLN":"9554","PSGC":"174001004","Barangay":"Apitong","Land_Class":"AGRICULTURAL","PIN":"030-01-005-04-028","Owner":"MARQUEZ, EDUARDO","TaxDecNo":"04369"},"geometry":null},{"type":"Feature","properties":{"Id":0,"CLN":"9553","PSGC":"174001004","Barangay":"Apitong","Land_Class":"AGRICULTURAL","PIN":"030-01-005-04-027","Owner":"ROQUE, JOSEFA","TaxDecNo":"04368"},"geometry":null},{"type":"Feature","properties":{"Id":0,"CLN":"9562","PSGC":"174001004","Barangay":"Apitong","Land_Class":"AGRICULTURAL","PIN":"030-01-005-04-055","Owner":"LANOT, LUCIANO","TaxDecNo":"04400"},"geometry":null},{"type":"Feature","properties":{"Id":0,"CLN":"9663","PSGC":"174001004","Barangay":"Apitong","Land_Class":"AGRICULTURAL","PIN":"030-01-005-02-019","Owner":"APOSTOL, EMERSON","TaxDecNo":"04196"},"geometry":null},{"type":"Feature","properties":{"Id":0,"CLN":"9471","PSGC":"174001004","Barangay":"Apitong","Land_Class":"AGRICULTURAL","PIN":"030-01-005-02-007","Owner":"LOZANO, JOSEFINA AND MALAPAD, MIGUEL","TaxDecNo":"04183"},"geometry":null},{"type":"Feature","properties":{"Id":0,"CLN":"9665","PSGC":"174001004","Barangay":"Apitong","Land_Class":"AGRICULTURAL","PIN":"030-01-005-02-082","Owner":"HRS. OF MANGUERA, RAYMUNDA","TaxDecNo":"04259"},"geometry":null},{"type":"Feature","properties":{"Id":0,"CLN":"9668","PSGC":"174001004","Barangay":"Apitong","Land_Class":"AGRICULTURAL","PIN":"030-01-005-02-078","Owner":"MAGCULANG, BENJAMIN","TaxDecNo":"04254"},"geometry":null},{"type":"Feature","properties":{"Id":0,"CLN":"9668","PSGC":"174001004","Barangay":"Apitong","Land_Class":"AGRICULTURAL","PIN":"030-01-005-02-077","Owner":"MIRONES, PILAR M.","TaxDecNo":"04253"},"geometry":null},{"type":"Feature","properties":{"Id":0,"CLN":"9670","PSGC":"174001004","Barangay":"Apitong","Land_Class":"AGRICULTURAL","PIN":"030-01-005-02-074","Owner":"LARIRIT, LOURDES","TaxDecNo":"04250"},"geometry":null},{"type":"Feature","properties":{"Id":0,"CLN":"9539","PSGC":"174001004","Barangay":"Apitong","Land_Class":"AGRICULTURAL","PIN":"030-01-005-04-053","Owner":"MORALES, ORTILLA","TaxDecNo":"04398"},"geometry":null},{"type":"Feature","properties":{"Id":0,"CLN":"9591","PSGC":"174001004","Barangay":"Apitong","Land_Class":"RESIDENTIAL","PIN":"030-01-005-01-038","Owner":"RAJA, JOCELYN M.","TaxDecNo":"04172"},"geometry":null},{"type":"Feature","properties":{"Id":0,"CLN":"9673","PSGC":"174001004","Barangay":"Apitong","Land_Class":"AGRICULTURAL","PIN":"030-01-005-02-080","Owner":"MAGCULANG, BENJAMIN","TaxDecNo":"04257"},"geometry":null},{"type":"Feature","properties":{"Id":0,"CLN":"9622","PSGC":"174001004","Barangay":"Apitong","Land_Class":"AGRICULTURAL","PIN":"030-01-005-02-061","Owner":"MUHI, FELISA","TaxDecNo":"04236"},"geometry":null},{"type":"Feature","properties":{"Id":0,"CLN":"9622","PSGC":"174001004","Barangay":"Apitong","Land_Class":"RESIDENTIAL","PIN":"030-01-005-02-063","Owner":"LANOT, CLODUALDO","TaxDecNo":"04238"},"geometry":null},{"type":"Feature","properties":{"Id":0,"CLN":"9622","PSGC":"174001004","Barangay":"Apitong","Land_Class":"AGRICULTURAL","PIN":"030-01-005-02-062","Owner":"ALCANTARA, HENRY A. & ALCANTARA, AZUCENA P.","TaxDecNo":"04237"},"geometry":null},{"type":"Feature","properties":{"Id":0,"CLN":"9612","PSGC":"174001004","Barangay":"Apitong","Land_Class":"AGRICULTURAL","PIN":"030-01-005-03-021","Owner":"MARQUEZ, DARIA","TaxDecNo":"04289"},"geometry":null},{"type":"Feature","properties":{"Id":0,"CLN":"9672","PSGC":"174001004","Barangay":"Apitong","Land_Class":"RESIDENTIAL","PIN":"030-01-005-02-066","Owner":"PALMERO, ANDREA M.","TaxDecNo":"04242"},"geometry":null},{"type":"Feature","properties":{"Id":0,"CLN":"9502","PSGC":"174001004","Barangay":"Apitong","Land_Class":"AGRICULTURAL","PIN":"030-01-005-01-034","Owner":"MADRIGAL, MICHAEL SELDA","TaxDecNo":"29072"},"geometry":null},{"type":"Feature","properties":{"Id":0,"CLN":"9562","PSGC":"174001004","Barangay":"Apitong","Land_Class":null,"PIN":"030-01-005-04-056"},"geometry":null}]}