{"type":"FeatureCollection","features":[{"type":"Feature","properties":{"name":"Agot","file":"/geojson/Agot.geojson","derived":"parcel-convex-hull"},"geometry":{"type":"Polygon","coordinates":[[[121.85681359376271,13.447165026573042],[121.85688085956949,13.446583767057112],[121.85698941833735,13.445886381982813],[121.85761630753265,13.44533980686533],[121.85766401296702,13.44530346785412],[121.86020578759663,13.443656569404393],[121.86026864301927,13.443642671258088],[121.86058086351055,13.443635814386512],[121.86561425461458,13.443605161143626],[121.867517955402,13.4437074968321],[121.86807792683678,13.443773050063795],[121.86897145541661,13.443911379822586],[121.87082330488113,13.44817729033041],[121.87065655384133,13.450308653231422],[121.87038817963524,13.452260405470222],[121.86897360135947,13.453308876848773],[121.86690972622698,13.454562138104382],[121.86597328708474,13.454696465738257],[121.86551668258357,13.4547618996153],[121.8648096087185,13.454544588669147],[121.85787350470652,13.449115498966414],[121.85688516807598,13.447823350993675],[121.85681359376271,13.447165026573042]]]}},{"type":"Feature","properties":{"name":"Agumaymayan","file":"/geojson/Agumaymayan.geojson","derived":"parcel-convex-hull"},"geometry":{"type":"Polygon","coordinates":[[[121.88453204477003,13.441281940884805],[121.88453228109886,13.441230837141333],[121.88525004245709,13.4391784238552],[121.88891677535275,13.432500621684321],[121.88990295770014,13.431364724723716],[121.89007994023055,13.43126676248321],[121.89233198779854,13.43024552442162],[121.8926062552159,13.430144461429245],[121.89308616498285,13.429987426175188],[121.89335804830138,13.429926586079107],[121.89363530614143,13.429900232827737],[121.89563304207643,13.432378699414476],[121.89583588803481,13.432788899408875],[121.89929453991785,13.442741058860095],[121.90041501849886,13.447452340025965],[121.90023590615809,13.449828429466296],[121.90006850592485,13.4501413927569],[121.89942545083333,13.451079665617701],[121.89483138290993,13.453012856547387],[121.89365561694794,13.45314212884178],[121.88992408916293,13.451218344861198],[121.88847581515653,13.449392872992982],[121.88475620461679,13.442324920730128],[121.88453204477003,13.441281940884805]]]}},{"type":"Feature","properties":{"name":"Amoingon","file":"/geojson/Amoingon.geojson","derived":"parcel-convex-hull"},"geometry":{"type":"Polygon","coordinates":[[[121.82460141239397,13.40291014326963],[121.8247112506884,13.394851769763049],[121.82487113058623,13.39432615814573],[121.82500707266266,13.39388917489823],[121.82787026673545,13.393059838632226],[121.8324514932031,13.393561588088254],[121.8506290285491,13.403097895889076],[121.85484477690585,13.40779769714813],[121.85419706361047,13.411696616208255],[121.85328077326442,13.413841378332348],[121.85246678965359,13.415651227757552],[121.85183996578904,13.416423261292396],[121.85108347164419,13.416832808863376],[121.85053799823011,13.41682070111777],[121.84915316197991,13.41658826631736],[121.82475701167127,13.406139386232052],[121.82460672110737,13.403243988735081],[121.82460141239397,13.40291014326963]]]}},{"type":"Feature","properties":{"name":"Apitong","file":"/geojson/Apitong.geojson","derived":"parcel-convex-hull"},"geometry":{"type":"Polygon","coordinates":[[[121.85400994227587,13.460811142075979],[121.85403473078014,13.46014939331582],[121.85778345359189,13.449225669674343],[121.85787351743527,13.449115483393758],[121.86051679468693,13.449172214177473],[121.86928156347552,13.453373118775001],[121.87509367788506,13.456456491003399],[121.87564930775251,13.457015750046605],[121.87737906807956,13.459244917646885],[121.8773254331539,13.460710541659628],[121.8770685659888,13.46189286125167],[121.87642036677812,13.462547967745238],[121.87625518145859,13.462703538508439],[121.85797429924206,13.464452231431745],[121.85741988347036,13.46447826420087],[121.85709382748273,13.464334020529964],[121.85400994227587,13.460811142075979]]]}},{"type":"Feature","properties":{"name":"Balagasan","file":"/geojson/Balagasan.geojson","derived":"parcel-convex-hull"},"geometry":{"type":"Polygon","coordinates":[[[121.87832654142015,13.419428729144101],[121.88162837857547,13.407528819785513],[121.88926107627755,13.394981520028855],[121.8901089889435,13.394093254615072],[121.89185487254656,13.392372815505189],[121.89837942298418,13.396087143852272],[121.89028787730435,13.42505715729578],[121.88903276927961,13.42651489005714],[121.88838505093389,13.426908924980207],[121.88754099909816,13.42693750560482],[121.87972848860169,13.425974639606137],[121.87953454051907,13.425928825833966],[121.87832654142015,13.419428729144101]]]}},{"type":"Feature","properties":{"name":"Balaring","file":"/geojson/Balaring.geojson","derived":"parcel-convex-hull"},"geometry":{"type":"Polygon","coordinates":[[[121.82116307236068,13.421105432250105],[121.82124222713446,13.41774773049854],[121.82159116623954,13.414939887109899],[121.82171397287658,13.414365288337846],[121.82227920744823,13.411896060473099],[121.82231559416857,13.411882009112656],[121.83541029156699,13.413330497751838],[121.83873322318442,13.414016659880017],[121.83926018541634,13.414254072218348],[121.84019415985277,13.414714243062885],[121.8407704250673,13.415255763611288],[121.84007592602939,13.41703058329907],[121.83994616884877,13.41725493633284],[121.83925624054285,13.418445712545095],[121.8390019628084,13.418740602875037],[121.83771885500744,13.419814889077525],[121.8348997434421,13.421743297395075],[121.83416678127455,13.422040840468277],[121.82211424347946,13.422464348735936],[121.8214086708572,13.422482990396814],[121.82130189284776,13.422008732953378],[121.82121666666617,13.421623689112558],[121.82118177381886,13.421466046229572],[121.82116307236068,13.421105432250105]]]}},{"type":"Feature","properties":{"name":"Balimbing","file":"/geojson/Balimbing.geojson","derived":"parcel-convex-hull"},"geometry":{"type":"Polygon","coordinates":[[[121.86871558396759,13.440543515589237],[121.87618891722454,13.429945198528676],[121.87829221864463,13.429403159084632],[121.87864511010507,13.42932047223402],[121.88922899269443,13.428804138859235],[121.88941101797494,13.429623338460539],[121.88947369706385,13.4303281112827],[121.889194130827,13.43349724823404],[121.8882680590233,13.436653134349388],[121.88494706565524,13.44364299939968],[121.88432647028746,13.443819491961492],[121.88080742902514,13.443971566109672],[121.87021283504794,13.44140444566613],[121.86967452140966,13.441240745576494],[121.86884068763374,13.440761113885745],[121.86871558396759,13.440543515589237]]]}},{"type":"Feature","properties":{"name":"Balogo","file":"/geojson/Balogo.geojson","derived":"parcel-convex-hull"},"geometry":{"type":"Polygon","coordinates":[[[121.82132295968563,13.467517767208347],[121.82429490519303,13.462968141133047],[121.8253325431065,13.461945301781661],[121.82680881247401,13.46102503912523],[121.83230711208735,13.459571747365558],[121.83456194670151,13.4620948227704],[121.82784255038796,13.47241395241222],[121.82737982648706,13.472095622349013],[121.82733887979084,13.47206745306572],[121.82721752815425,13.47198396912152],[121.82710570873894,13.471907042776605],[121.82672031823985,13.471641912040333],[121.82664429297681,13.47158961006246],[121.82639861281466,13.471420592807737],[121.82510232020056,13.470499750021073],[121.82311970802046,13.46905114903975],[121.82309768291508,13.469034301477723],[121.82233996076943,13.46843340187276],[121.82224430885937,13.468350198525947],[121.82215186012887,13.468266672259647],[121.82188977488019,13.468029881054175],[121.82168898913199,13.467848472812014],[121.82132295968563,13.467517767208347]]]}},{"type":"Feature","properties":{"name":"Banbangalon","file":"/geojson/Banbangalon.geojson","derived":"parcel-convex-hull"},"geometry":{"type":"Polygon","coordinates":[[[121.82101563886705,13.44658790997987],[121.82177032360514,13.441532633721543],[121.82390961403907,13.438641941365184],[121.82535299275075,13.437131334187933],[121.83166317236883,13.433915350297282],[121.8321178952479,13.433695429430644],[121.83306082549426,13.433366754983128],[121.83810738804185,13.433605163226076],[121.83874187731203,13.43367234280121],[121.83930140641246,13.433974407686],[121.84133282668374,13.436702655574768],[121.84127722968131,13.436968256990946],[121.8410801687534,13.437360461314398],[121.82456782459704,13.447886568893361],[121.82441649648207,13.447926206015788],[121.82301915100881,13.448027258336941],[121.82271708523997,13.447985501357316],[121.82221451855678,13.447736603101854],[121.82101563886705,13.44658790997987]]]}},{"type":"Feature","properties":{"name":"Bangbangalon","file":"/geojson/Bangbangalon.geojson","derived":"parcel-convex-hull"},"geometry":{"type":"Polygon","coordinates":[[[121.82101563886705,13.44658790997987],[121.82177032360514,13.441532633721543],[121.82390961403907,13.438641941365184],[121.82535299275075,13.437131334187933],[121.83166317236883,13.433915350297282],[121.8321178952479,13.433695429430644],[121.83306082549426,13.433366754983128],[121.83810738804185,13.433605163226076],[121.83874187731203,13.43367234280121],[121.83930140641246,13.433974407686],[121.84133282668374,13.436702655574768],[121.84127722968131,13.436968256990946],[121.8410801687534,13.437360461314398],[121.82456782459704,13.447886568893361],[121.82441649648207,13.447926206015788],[121.82301915100881,13.448027258336941],[121.82271708523997,13.447985501357316],[121.82221451855678,13.447736603101854],[121.82101563886705,13.44658790997987]]]}},{"type":"Feature","properties":{"name":"Bantad","file":"/geojson/Bantad.geojson","derived":"parcel-convex-hull"},"geometry":{"type":"Polygon","coordinates":[[[121.84445751824184,13.450777075667771],[121.84447277616702,13.450297056016568],[121.84448818269428,13.450172122273438],[121.84754484889629,13.45057261528785],[121.85675558545321,13.453269486298352],[121.85706294353761,13.453373457381405],[121.8572852749304,13.453451398268442],[121.85800966330918,13.453784718843297],[121.85831417125435,13.45404270892781],[121.8584490176588,13.455170811238984],[121.8584448249991,13.455278867369596],[121.85798285350644,13.46510897270485],[121.85751042708878,13.466265548714839],[121.85656526053069,13.466996790621042],[121.85494107903426,13.467676883763348],[121.85416978599689,13.46782162785331],[121.84670588032031,13.468550764691512],[121.84635155511458,13.46858036692328],[121.84590488270246,13.468268381483924],[121.84570772111456,13.468060852990591],[121.84537973651497,13.46771497471422],[121.84459304434054,13.466478871670052],[121.84445751824184,13.450777075667771]]]}},{"type":"Feature","properties":{"name":"Bantay","file":"/geojson/Bantay.geojson","derived":"parcel-convex-hull"},"geometry":{"type":"Polygon","coordinates":[[[121.88900147279067,13.430993230930177],[121.88922899269443,13.428804138859235],[121.89997980794485,13.418136336599172],[121.92156471427276,13.412974440317736],[121.92297727543315,13.41288742812801],[121.93344233567001,13.415004880381009],[121.93939005469443,13.418916539478863],[121.94147603429916,13.420566562717196],[121.9415145809559,13.42156454116888],[121.9406416354927,13.423913333869514],[121.93797262421187,13.429918220328105],[121.9283825361804,13.435390149322892],[121.92561104689251,13.43630531486164],[121.92167361180641,13.437506194222554],[121.90386214322552,13.438003159265703],[121.88915135720757,13.432069395142413],[121.88900147279067,13.430993230930177]]]}},{"type":"Feature","properties":{"name":"Bayote","file":"/geojson/Bayote.geojson","derived":"parcel-convex-hull"},"geometry":{"type":"Polygon","coordinates":[[[121.9213696841456,13.352819199194704],[121.95803939493192,13.311755400462458],[121.96770781274029,13.34620451697133],[121.9672692754959,13.348568283275414],[121.96710868132057,13.349042394601065],[121.96649492905962,13.349817867983589],[121.9601670404953,13.353697248763243],[121.95959823843398,13.353710824428871],[121.93191320902768,13.353496856070906],[121.9213696841456,13.352819199194704]]]}},{"type":"Feature","properties":{"name":"Bayuti","file":"/geojson/Bayuti.geojson","derived":"parcel-convex-hull"},"geometry":{"type":"Polygon","coordinates":[[[121.9213696841456,13.352819199194704],[121.95803939493192,13.311755400462458],[121.96770781274029,13.34620451697133],[121.9672692754959,13.348568283275414],[121.96710868132057,13.349042394601065],[121.96649492905962,13.349817867983589],[121.9601670404953,13.353697248763243],[121.95959823843398,13.353710824428871],[121.93191320902768,13.353496856070906],[121.9213696841456,13.352819199194704]]]}},{"type":"Feature","properties":{"name":"Binunga","file":"/geojson/Binunga.geojson","derived":"parcel-convex-hull"},"geometry":{"type":"Polygon","coordinates":[[[121.90172563737354,13.394124109282634],[121.90296280205857,13.391980870675477],[121.90996631100433,13.379902573175674],[121.91097897501133,13.379551341585142],[121.9111570262868,13.379532748211806],[121.93091648700137,13.38923256326386],[121.93114345219401,13.38941335053501],[121.93348202723176,13.391592685696672],[121.93476003273688,13.39288174595534],[121.93475160573531,13.395355856758563],[121.93475022808514,13.395668913314154],[121.93307526087764,13.402285788884685],[121.93271956559776,13.402921386141989],[121.92877356861044,13.408063419110793],[121.92635716977551,13.408594728835109],[121.90686937059975,13.404015102776949],[121.90649815270723,13.403594425157472],[121.90634320816514,13.403319093333835],[121.90172563737354,13.394124109282636],[121.90172563737354,13.394124109282634]]]}},{"type":"Feature","properties":{"name":"Boi","file":"/geojson/Boi.geojson","derived":"parcel-convex-hull"},"geometry":{"type":"Polygon","coordinates":[[[121.92986449396751,13.359067744229748],[121.93088295797564,13.355129305290708],[121.93191320902768,13.353496856070906],[121.93768612856826,13.350526886765278],[121.93854002971885,13.350144443407887],[121.95168100715928,13.347323865614122],[121.95308527930662,13.34793370949673],[121.95718858267266,13.35000081543234],[121.95751965784848,13.350292971305254],[121.96621504744442,13.359518582232447],[121.96697638332228,13.361627349495581],[121.96712270999237,13.362136835963678],[121.96718294033204,13.36241994095789],[121.96757603487819,13.366144895251344],[121.96508951339338,13.368721523824252],[121.95858534460882,13.374496421804219],[121.95674430783284,13.375922309213763],[121.95602220826679,13.376181824300602],[121.95478399760913,13.376401367600455],[121.95270682994234,13.376253250122671],[121.94374000688886,13.37319503436226],[121.93418510008382,13.367975761303173],[121.93404697549698,13.367812806149155],[121.93002928830752,13.360201986633486],[121.92986449396751,13.359067744229748]]]}},{"type":"Feature","properties":{"name":"Boton","file":"/geojson/Boton.geojson","derived":"parcel-convex-hull"},"geometry":{"type":"Polygon","coordinates":[[[121.86001532852177,13.440904227996151],[121.86140518244831,13.435294570615754],[121.86156437297393,13.43520005443939],[121.86437016709324,13.434197205932303],[121.86864494677654,13.435715673721685],[121.87011736389877,13.437156326630305],[121.87029560295943,13.437471248341462],[121.87017958880485,13.44156562431155],[121.87012893263,13.442805015605005],[121.86879117835355,13.443601275008827],[121.86830570683084,13.443815809379139],[121.86705820237353,13.444156913045004],[121.86535342815459,13.44429106193514],[121.86281234272802,13.444335870767981],[121.86122266037628,13.444324123968949],[121.8606443236078,13.443650509809503],[121.86013885174943,13.44252248161051],[121.86009969967556,13.442238597778847],[121.86001532852177,13.440904227996151]]]}},{"type":"Feature","properties":{"name":"Buliasnin","file":"/geojson/Buliasnin.geojson","derived":"parcel-convex-hull"},"geometry":{"type":"Polygon","coordinates":[[[121.8277301774972,13.469023185842156],[121.82778307688812,13.468937823509332],[121.83440102859036,13.460237308185347],[121.83441072221983,13.460227910181818],[121.83719256472293,13.457539074593281],[121.83746945954793,13.457396445095446],[121.83885658187137,13.456835598531493],[121.84091226512638,13.458796020330196],[121.84560479310535,13.472557081320513],[121.8456363179213,13.472704434028406],[121.84560792047024,13.473294497953349],[121.8455403090988,13.473678263205946],[121.84545410203577,13.473745977070157],[121.834931082996,13.479048936654412],[121.82802310109774,13.472511737312576],[121.82779782341163,13.471041430297639],[121.82777849711277,13.470904365573336],[121.8277301774972,13.469023185842156]]]}},{"type":"Feature","properties":{"name":"Bunganay","file":"/geojson/Bunganay.geojson","derived":"parcel-convex-hull"},"geometry":{"type":"Polygon","coordinates":[[[121.82352089455335,13.385560215221957],[121.82354485620947,13.385135942185284],[121.82381460592826,13.384923322510126],[121.82444902675515,13.384856244177385],[121.83051043028743,13.384774014737618],[121.83429372039264,13.384868921438429],[121.83519583952737,13.384932097880384],[121.83542755735095,13.384951785212705],[121.85592218523004,13.39508428597428],[121.85601476084062,13.39523201533586],[121.85644291282864,13.396953563405692],[121.85627095887338,13.39720644232508],[121.85131551218926,13.402686925283684],[121.8506290285491,13.403097895889076],[121.85024996084259,13.403294707427133],[121.84994691453952,13.403258910838566],[121.83960684351129,13.40170591910356],[121.82500707266266,13.39388917489823],[121.8247281316428,13.392901553542762],[121.82372222925414,13.387361301678766],[121.82352089455335,13.385560215221957]]]}},{"type":"Feature","properties":{"name":"Caganhao Shape file","file":"/geojson/Caganhao Shape file.geojson","derived":"parcel-convex-hull"},"geometry":{"type":"Polygon","coordinates":[[[121.82225795443095,13.41167363177056],[121.82416986528601,13.406913011363148],[121.82444501850378,13.406285556469307],[121.82468416292372,13.406176727601888],[121.825727990844,13.405861728027158],[121.8269319770041,13.405721389871578],[121.83884089862053,13.406997451838823],[121.839729543363,13.407227126631085],[121.83999116960358,13.40739752002785],[121.84539391777218,13.410940051350979],[121.84674425141901,13.412501979707171],[121.84695639878268,13.413001203881043],[121.84664986697378,13.413769831966448],[121.8464887082574,13.41404498789744],[121.84090401453722,13.415256377580612],[121.8407704250673,13.415255763611288],[121.83377049365865,13.414877561726716],[121.82673387764963,13.41378551635431],[121.82525353333605,13.413460206322993],[121.82346890387738,13.412952141817174],[121.82344601343186,13.412945373086215],[121.8234357572717,13.412939546637926],[121.82227920744823,13.411896060473092],[121.82225795443095,13.41167363177056]]]}},{"type":"Feature","properties":{"name":"Canat","file":"/geojson/Canat.geojson","derived":"parcel-convex-hull"},"geometry":{"type":"Polygon","coordinates":[[[121.89217558982048,13.378089915144049],[121.89221998506541,13.37739125443613],[121.89435821943037,13.36500412633691],[121.90011508450084,13.361413127798725],[121.9213696841456,13.352819199194704],[121.93191320902768,13.353496856070924],[121.95270682994234,13.376253250122671],[121.95287963073929,13.39026286886309],[121.95141821865347,13.39083381568215],[121.94716619209753,13.392375398645182],[121.94220199485241,13.393785006805402],[121.90039898274799,13.393602219469747],[121.90002464273776,13.393375402105347],[121.89217558982048,13.378089915144049]]]}},{"type":"Feature","properties":{"name":"Catubugan","file":"/geojson/Catubugan.geojson","derived":"parcel-convex-hull"},"geometry":{"type":"Polygon","coordinates":[[[121.86657722304277,13.41604175027767],[121.86755454100884,13.413248003666883],[121.86925731680894,13.40917692574318],[121.87219359243927,13.402270377629234],[121.87392798228328,13.39888212427867],[121.8743056973273,13.398381212978169],[121.87643221768137,13.395747125296316],[121.87654472436714,13.395612815362547],[121.87829236865427,13.394116998586185],[121.88074877084956,13.393140489373403],[121.88787528902135,13.390425854714552],[121.88902258547587,13.39020919455717],[121.89106687052671,13.390257797230097],[121.89154333476935,13.390652193411134],[121.89185487254653,13.392372815505192],[121.88487668648366,13.412546471072195],[121.88457820535726,13.413308341667294],[121.87959983689008,13.425556839051076],[121.87937580942676,13.426020131355399],[121.87390625587318,13.430664773316806],[121.87341582885563,13.43074388503306],[121.87189053362931,13.430097467500284],[121.86714331821332,13.421185699596148],[121.86657722304277,13.41604175027767]]]}},{"type":"Feature","properties":{"name":"Cawit","file":"/geojson/Cawit.geojson","derived":"parcel-convex-hull"},"geometry":{"type":"Polygon","coordinates":[[[121.82208766228715,13.381952871139475],[121.82297228516737,13.374094088219069],[121.82334792258595,13.374091405035799],[121.85027930186791,13.378827590565445],[121.85331673231016,13.381607621544447],[121.8576853204022,13.386372684146114],[121.85850381562207,13.387905051198187],[121.85861808576263,13.388121788966554],[121.85869525122214,13.388407470350154],[121.85870249844636,13.388478836293702],[121.8580484264258,13.392798975048777],[121.8576697382461,13.393743731997391],[121.85722573630626,13.394209869568828],[121.85592218523004,13.395084285974244],[121.85567031729586,13.395175162700431],[121.85197690909922,13.395543857941295],[121.84910405888763,13.39564140366564],[121.82354485620947,13.385135942185284],[121.82208766228715,13.381952871139475]]]}},{"type":"Feature","properties":{"name":"Daig","file":"/geojson/Daig.geojson","derived":"parcel-convex-hull"},"geometry":{"type":"Polygon","coordinates":[[[121.84440886131648,13.438395807912322],[121.84571825444114,13.431239760837368],[121.84600054896637,13.43035249111197],[121.84633686735908,13.429885438061673],[121.84827736668008,13.428447471870482],[121.8491601902611,13.428275986534368],[121.8495737171104,13.428780275351407],[121.84998878993444,13.429448933693015],[121.85102376551703,13.431425673459147],[121.85105907857272,13.431614889182764],[121.85106844951339,13.432582478461496],[121.84901415577937,13.443140376375656],[121.84870002129901,13.443313624155014],[121.84581556896924,13.443283218403597],[121.84570551941057,13.4431291581094],[121.84502452549495,13.441904396435092],[121.84486771837159,13.441621874040102],[121.84477375352037,13.441420941002297],[121.84440886131648,13.438395807912322]]]}},{"type":"Feature","properties":{"name":"Daypay","file":"/geojson/Daypay.geojson","derived":"parcel-convex-hull"},"geometry":{"type":"Polygon","coordinates":[[[121.84797928439248,13.45145579367577],[121.84814129424363,13.451074791369482],[121.85636529985607,13.445042769928142],[121.8566067183414,13.444967432467903],[121.85681030161028,13.444994943035098],[121.85755904091559,13.445333988847201],[121.857622641286,13.44543620928539],[121.85969335606173,13.452747421283119],[121.85979750621725,13.4536262451038],[121.85946352515998,13.45390489492288],[121.85889666907389,13.454349071805618],[121.85288654271663,13.454909088741543],[121.85166160108169,13.454925937422665],[121.85121390918565,13.454931165544638],[121.85071597580291,13.454920028947198],[121.85059858952859,13.45485302814834],[121.84853648295753,13.453430120990813],[121.84845142238495,13.453230338506796],[121.84797928439248,13.45145579367577]]]}},{"type":"Feature","properties":{"name":"Duyay","file":"/geojson/Duyay.geojson","derived":"parcel-convex-hull"},"geometry":{"type":"Polygon","coordinates":[[[121.8621558654217,13.377036520521653],[121.86232542284635,13.374698567948078],[121.87232636124504,13.364871116393827],[121.87754318964254,13.363715524130713],[121.90011508450084,13.361413127798725],[121.89576534356955,13.372633347336327],[121.89287185508498,13.378517270268638],[121.88849378176606,13.381633096486265],[121.88540040229098,13.381678471338818],[121.86594323595293,13.379615108933729],[121.86309139614696,13.378331388729798],[121.8630176866487,13.378288936345298],[121.8628350934507,13.37818377313044],[121.86242910414707,13.37794994579284],[121.8621558654217,13.377036520521653]]]}},{"type":"Feature","properties":{"name":"Hinapulan","file":"/geojson/Hinapulan.geojson","derived":"parcel-convex-hull"},"geometry":{"type":"Polygon","coordinates":[[[121.92493207912901,13.40936933014236],[121.92508930048614,13.408149052669854],[121.93230775044341,13.396864829645004],[121.96318670821289,13.357510532860164],[121.9674422500124,13.356503646475925],[121.96808862660681,13.356410166836563],[121.9686595272398,13.356343133159644],[121.98091947932232,13.35956815201055],[122.00125189970382,13.365409208562543],[121.98663516253603,13.39859309085635],[121.98472848085628,13.402743984561486],[121.98398239748917,13.404125950655802],[121.9688107089766,13.423440617531156],[121.96616525868527,13.426802692710035],[121.95967418428923,13.434662955671854],[121.93837229785477,13.430325454261135],[121.93797262421187,13.429918220328105],[121.92579072624567,13.413592976563121],[121.92493207912901,13.40936933014236]]]}},{"type":"Feature","properties":{"name":"Ihatub","file":"/geojson/Ihatub.geojson","derived":"parcel-convex-hull"},"geometry":{"type":"Polygon","coordinates":[[[121.81910191200338,13.431694231934486],[121.81910499902133,13.431063209101552],[121.8214086708572,13.422482990396814],[121.82261887676583,13.420501685205325],[121.82338169451397,13.420079474249157],[121.82537817555672,13.419233070567358],[121.8439284439379,13.41373678479548],[121.84469879974972,13.413616780262709],[121.84572476017166,13.413703833247835],[121.8464887082574,13.41404498789744],[121.84842910865365,13.414941560435873],[121.85108347164419,13.416832808863376],[121.85171046687216,13.41797924500942],[121.85175597884432,13.421339898683877],[121.83928683190031,13.433173529858637],[121.81910191200338,13.431694231934486]]]}},{"type":"Feature","properties":{"name":"Isok I","file":"/geojson/Isok I.geojson","derived":"parcel-convex-hull"},"geometry":{"type":"Polygon","coordinates":[[[121.83741618349558,13.445280262706067],[121.83790613827823,13.44421928278221],[121.83809443359739,13.443942271965085],[121.84222193737975,13.443333126430923],[121.84311310177958,13.444156575832757],[121.84328563853713,13.444855494528792],[121.84312880248606,13.445823056841919],[121.84171273530224,13.447106284108816],[121.8410648653875,13.447307169812078],[121.8386866015859,13.446769842404555],[121.83837190223853,13.4466702733387],[121.8374494455914,13.44533687335705],[121.83742509561188,13.445295430746032],[121.83741618349558,13.445280262706067]]]}},{"type":"Feature","properties":{"name":"Isok II","file":"/geojson/Isok II.geojson","derived":"parcel-convex-hull"},"geometry":{"type":"Polygon","coordinates":[[[121.83613181779101,13.441823159594358],[121.83617414740982,13.441550374809768],[121.84267160156709,13.43505606489696],[121.84356632962916,13.43416330354619],[121.84397988515299,13.434007117149303],[121.84409178007014,13.434155825078635],[121.8441285593072,13.4342120389587],[121.84429803002347,13.434604308122413],[121.84440285439838,13.434869354933435],[121.84498744371524,13.436374814591037],[121.84510025622616,13.437209522206889],[121.84514202824172,13.437549558819919],[121.8453064926303,13.442325212410495],[121.83720633898632,13.445958090388874],[121.83703603979873,13.445768116934547],[121.83690185023971,13.445618424493297],[121.83686477735046,13.4455770685406],[121.8364965310925,13.444728949170878],[121.83617429607737,13.442993014532211],[121.83613181779101,13.441823159594358]]]}},{"type":"Feature","properties":{"name":"Laylay","file":"/geojson/Laylay.geojson","derived":"parcel-convex-hull"},"geometry":{"type":"Polygon","coordinates":[[[121.81201703759473,13.444114164275547],[121.81240743443347,13.443093452312356],[121.81948225918508,13.431695085494729],[121.82371038461463,13.429633082521995],[121.8242904733978,13.429398698289393],[121.82575038239032,13.429249372521639],[121.83184740354385,13.429802427410737],[121.83225483987061,13.429863443568472],[121.83569371926117,13.431529953529683],[121.83832437777575,13.4331016876636],[121.83798535895066,13.433599622275889],[121.82178437262247,13.44573547826617],[121.82082811484958,13.446179153530641],[121.81617202078226,13.446713703514652],[121.81405750028776,13.445587065117808],[121.81201703759473,13.444114164275547]]]}},{"type":"Feature","properties":{"name":"Lupac","file":"/geojson/Lupac.geojson","derived":"parcel-convex-hull"},"geometry":{"type":"Polygon","coordinates":[[[121.81201157009066,13.454459688777963],[121.8120293184241,13.451775847001478],[121.81386718505097,13.451176156914492],[121.82598593431888,13.451536955382105],[121.83328202184151,13.452063027179284],[121.83339913645369,13.4524464409482],[121.83341210831752,13.452500526132322],[121.83260687214306,13.454259736336022],[121.82865244381394,13.457711278899312],[121.82026306293142,13.464246218991542],[121.81857706761478,13.465170042130755],[121.8150388478182,13.460361807856282],[121.81434061181261,13.459401855027712],[121.81389986243632,13.45875376185003],[121.81379893134927,13.458599898531185],[121.81306909309362,13.457459969380343],[121.81293441950717,13.457215519315758],[121.81288874551552,13.457126966226637],[121.81264988706081,13.456627596501406],[121.81201157009066,13.454459688777963]]]}},{"type":"Feature","properties":{"name":"Mahinhin","file":"/geojson/Mahinhin.geojson","derived":"parcel-convex-hull"},"geometry":{"type":"Polygon","coordinates":[[[121.92548748758162,13.435782912720368],[121.9256376502667,13.43531966436691],[121.93455142934455,13.429080218425696],[121.94906780285397,13.42340538601413],[121.95716088065589,13.428408193963952],[121.95825392223838,13.430434897892543],[121.95917870893938,13.434966528168598],[121.94845119312265,13.45028528484829],[121.94516890330071,13.453350929188677],[121.94431415440881,13.453594665944264],[121.94141212029957,13.451670737333407],[121.92559640241059,13.437063939378366],[121.92548748758162,13.435782912720368]]]}},{"type":"Feature","properties":{"name":"Mainit","file":"/geojson/Mainit.geojson","derived":"parcel-convex-hull"},"geometry":{"type":"Polygon","coordinates":[[[121.88748288046638,13.422075565604443],[121.88781571224592,13.420274545352676],[121.89005452407652,13.40897414043552],[121.89036095680468,13.407682650068079],[121.89131960615019,13.405595495973122],[121.89171490776071,13.404935531154356],[121.89205524369677,13.404417117353807],[121.90002464273776,13.393375402105347],[121.90296280205857,13.391980870675477],[121.90907104987473,13.402868829459138],[121.90974723810086,13.404340035420898],[121.90975071229118,13.405223541811528],[121.89924837275537,13.41807775409841],[121.89674022582255,13.420917134728226],[121.8961110037114,13.421552068345393],[121.89550652457238,13.422162029495018],[121.89497776818081,13.422695577230574],[121.89430375035793,13.423221531552189],[121.89284555129781,13.424221423669232],[121.89139125492093,13.424702789020447],[121.89028787730435,13.42505715729578],[121.88991871374053,13.424805852049628],[121.88748288046638,13.422075565604443]]]}},{"type":"Feature","properties":{"name":"Malbog","file":"/geojson/Malbog.geojson","derived":"parcel-convex-hull"},"geometry":{"type":"Polygon","coordinates":[[[121.84963048642311,13.42582710261518],[121.85010619946326,13.425272909198796],[121.85198999670834,13.423301162473557],[121.85249988960726,13.422974199633567],[121.85995651482797,13.418566963532687],[121.86325230161196,13.416836847914468],[121.86443077623736,13.41645182921464],[121.86535347225082,13.416503481044318],[121.86557582805908,13.41656458230028],[121.86554511088129,13.418666603137341],[121.86539925099801,13.420128613880749],[121.86401894227127,13.423426746464763],[121.85796400538905,13.431120804108984],[121.85675090876997,13.431088225184155],[121.85088076864014,13.427077874763263],[121.84969172662448,13.426035763352006],[121.84963048642311,13.42582710261518]]]}},{"type":"Feature","properties":{"name":"Maligaya","file":"/geojson/Maligaya.geojson","derived":"parcel-convex-hull"},"geometry":{"type":"Polygon","coordinates":[[[121.83549054470662,13.479752846923022],[121.83797336890697,13.475972184348144],[121.84004228102734,13.47449472741869],[121.84004228102737,13.474494727418675],[121.84008979352427,13.474484848444536],[121.84193398740922,13.475497136714058],[121.84207608753724,13.478572805530288],[121.84219250459627,13.48241532776164],[121.84190580328863,13.482723396862234],[121.83936912350941,13.48478869691718],[121.8391813585435,13.48476989293745],[121.8387722903261,13.484403307928163],[121.83549054470662,13.479752846923022]]]}},{"type":"Feature","properties":{"name":"Malusak","file":"/geojson/Malusak.geojson","derived":"parcel-convex-hull"},"geometry":{"type":"Polygon","coordinates":[[[121.83884916012215,13.445060633338448],[121.83991233830048,13.445032281799223],[121.84005233779448,13.44503015622045],[121.84025306461774,13.44519423959418],[121.84074004253125,13.4459412732824],[121.8414181167813,13.447916303396205],[121.84142864262733,13.447966408250194],[121.84144297080564,13.448158796147977],[121.84127112592174,13.448164444926201],[121.84105579776738,13.448163453324922],[121.84075493779767,13.448158444109568],[121.83907859897832,13.447889400932656],[121.83884916012215,13.445060633338448]]]}},{"type":"Feature","properties":{"name":"Mansiwat","file":"/geojson/Mansiwat.geojson","derived":"parcel-convex-hull"},"geometry":{"type":"Polygon","coordinates":[[[121.83798535895066,13.433599622275889],[121.83899824242968,13.427594463977142],[121.83904362413907,13.42750665437642],[121.84608059809115,13.422904582995582],[121.84626414725334,13.42281108817014],[121.8502866848814,13.421091761544153],[121.85154704300129,13.421278261836115],[121.85175597884432,13.421339898683877],[121.85256268636068,13.42206882341161],[121.85258169395127,13.422608807967125],[121.85249988960726,13.422974199633567],[121.84621601413907,13.436220589398816],[121.84510025622616,13.437209522206889],[121.8410073306315,13.436669321496808],[121.84023730273087,13.436419076480856],[121.83996089011468,13.436247086962126],[121.83798535895066,13.433599622275889]]]}},{"type":"Feature","properties":{"name":"Mataas Na Bayan","file":"/geojson/Mataas Na Bayan.geojson","derived":"parcel-convex-hull"},"geometry":{"type":"Polygon","coordinates":[[[121.84079056311599,13.448276694618329],[121.84138175224787,13.447306547319597],[121.84645880703178,13.446703334378975],[121.84678358404939,13.446689149435484],[121.84683515555315,13.446694610201046],[121.84710836134853,13.447602256717017],[121.8471019937475,13.447785415068005],[121.8470287176527,13.448072092908374],[121.84634530939707,13.44943053533097],[121.84105143615237,13.448964135088962],[121.84090690175422,13.44880773491038],[121.84082834410736,13.44867760060107],[121.84079395798832,13.44857428797172],[121.84079056311599,13.448276694618329]]]}},{"type":"Feature","properties":{"name":"Maybo","file":"/geojson/Maybo.geojson","derived":"parcel-convex-hull"},"geometry":{"type":"Polygon","coordinates":[[[121.8506290285491,13.403097895889076],[121.85149674777547,13.401495536204848],[121.8516356636389,13.40137379186252],[121.85244177291007,13.40084225208475],[121.86232821683764,13.398647208156662],[121.87219359243927,13.402270377629234],[121.8726529735239,13.402767880102555],[121.87266818455608,13.405398195394659],[121.87219948883308,13.406837837571947],[121.86720307586309,13.415183918970339],[121.86693349976566,13.415570711573892],[121.86657722304277,13.41604175027767],[121.85525111370667,13.423718844178582],[121.85506066629357,13.423768710791487],[121.85416338654026,13.423832174795105],[121.85408952997616,13.423817365930477],[121.85249988960726,13.422974199633567],[121.85182222311663,13.422076007909402],[121.85143172208898,13.420712110527372],[121.85119270434764,13.419700688971494],[121.85108347164419,13.416832808863376],[121.8506290285491,13.403097895889076]]]}},{"type":"Feature","properties":{"name":"Mercado","file":"/geojson/Mercado.geojson","derived":"parcel-convex-hull"},"geometry":{"type":"Polygon","coordinates":[[[121.83604347619018,13.446353781031933],[121.83686476638192,13.445577079653836],[121.83765357423358,13.445566270106973],[121.83892029918685,13.446813641920063],[121.83895726891511,13.447160576399451],[121.83903766068534,13.448123023008453],[121.8361571455746,13.448542467588792],[121.83612080328578,13.448125672205324],[121.83604347619018,13.446353781031933]]]}},{"type":"Feature","properties":{"name":"Murallon","file":"/geojson/Murallon.geojson","derived":"parcel-convex-hull"},"geometry":{"type":"Polygon","coordinates":[[[121.83481786763492,13.449986139712506],[121.83499630279101,13.447388783747236],[121.83516774952489,13.447237206648552],[121.83611689280683,13.446512542130158],[121.83616727503082,13.446513511213716],[121.83903766068534,13.448123023008453],[121.8390915873184,13.448729073126284],[121.8390966080319,13.44880219416404],[121.83652433150746,13.449577932109742],[121.83481786763492,13.449986139712506]]]}},{"type":"Feature","properties":{"name":"Ogbac Shape FIles","file":"/geojson/Ogbac Shape FIles.geojson","derived":"parcel-convex-hull"},"geometry":{"type":"Polygon","coordinates":[[[121.89997980794485,13.418136336599172],[121.90018338244107,13.414232411957451],[121.90037682934535,13.410844294743638],[121.90064279068851,13.408133329479151],[121.90127140108878,13.407190643385388],[121.90141288283525,13.40705617748048],[121.90259436841009,13.406240814921432],[121.91157821230892,13.402770014531592],[121.91187078433781,13.402678320953965],[121.91438154389502,13.403082402018008],[121.92432371863521,13.407688259596178],[121.92482820117903,13.408281919676348],[121.92735182625191,13.414271830628326],[121.92702846694401,13.414871975741852],[121.90375918663773,13.421484868087795],[121.90297521384672,13.421039469296423],[121.90210684304704,13.420260282846028],[121.89997980794485,13.418136336599172]]]}},{"type":"Feature","properties":{"name":"Pawa","file":"/geojson/Pawa.geojson","derived":"parcel-convex-hull"},"geometry":{"type":"Polygon","coordinates":[[[121.86830392616125,13.443902126810274],[121.86830570683084,13.443815809379139],[121.86837663479324,13.44359877071127],[121.86976639770607,13.442776541405502],[121.87052359656988,13.442650429294154],[121.87091848297683,13.4426280498485],[121.87130510724334,13.442613683021232],[121.88481510807912,13.442291458126059],[121.88490567493747,13.442291859300042],[121.88729219580091,13.44413428103053],[121.88999544338739,13.446632034957378],[121.89021402173572,13.447125407474859],[121.89052254329675,13.453974184484867],[121.89022779716265,13.45434981038636],[121.88169362791515,13.459625519612388],[121.88032339455766,13.460169121121202],[121.8773254331539,13.460710541659642],[121.87303225177152,13.457294621817812],[121.87014841611513,13.454772450085407],[121.86897360135947,13.453308876848773],[121.86830392616125,13.443902126810274]]]}},{"type":"Feature","properties":{"name":"Pili","file":"/geojson/Pili.geojson","derived":"parcel-convex-hull"},"geometry":{"type":"Polygon","coordinates":[[[121.81922652843376,13.465283445594876],[121.81925927098008,13.465251706296609],[121.82187602635653,13.463228105379057],[121.82461468110587,13.46194988251698],[121.82505166059659,13.4619164283157],[121.82523114134793,13.461908743134584],[121.82522996089162,13.461941675240318],[121.82410801998128,13.464881883430396],[121.82355786354631,13.465979845241144],[121.82352563300742,13.466011089200371],[121.82316658532804,13.466340175138775],[121.8225787752031,13.466828526655334],[121.82225560119049,13.467083777092057],[121.82122981180285,13.4674074919734],[121.82115447559963,13.467351076457932],[121.81922652843376,13.465283445594876]]]}},{"type":"Feature","properties":{"name":"Poblacion","file":"/geojson/Poblacion.geojson","derived":"parcel-convex-hull"},"geometry":{"type":"Polygon","coordinates":[[[121.83481786763492,13.449986139712506],[121.83499630279101,13.447388783747236],[121.83809443359739,13.443942271965092],[121.84296151796941,13.442762374955436],[121.84401859686015,13.442544430135255],[121.8442570666195,13.442496060874506],[121.8453064926303,13.442325212410495],[121.8489098970503,13.44317614100458],[121.84934885480007,13.443613484328614],[121.85170086238948,13.447883701606923],[121.85100454904328,13.44909336006286],[121.85004116458781,13.449990386723973],[121.84950748695206,13.45017757429589],[121.84871168334958,13.450222511531372],[121.83481786763492,13.449986139712506]]]}},{"type":"Feature","properties":{"name":"Poctoy","file":"/geojson/Poctoy.geojson","derived":"parcel-convex-hull"},"geometry":{"type":"Polygon","coordinates":[[[121.85587821581032,13.433968074472062],[121.85588154755767,13.433570618579274],[121.85589576837917,13.43329854708134],[121.85592458382325,13.432978813016852],[121.85862076328851,13.426898885792982],[121.86508891471536,13.41665763502381],[121.86547908078707,13.41616013098873],[121.86581158250162,13.415767135567929],[121.86657722304277,13.41604175027767],[121.86741508526256,13.417215699586917],[121.867998025872,13.419770802861962],[121.86803440208831,13.420111710615556],[121.867396073678,13.424940869548793],[121.86734490206547,13.425297968097764],[121.8669548019524,13.42668313354799],[121.86551614690647,13.430324710659491],[121.86353916787972,13.434046150543177],[121.86329604841077,13.4343084308194],[121.8629041845345,13.434509008068963],[121.86222705901149,13.434827299273747],[121.86177916440556,13.43496499255435],[121.86116507495684,13.435032075163855],[121.85587821581032,13.433968074472062]]]}},{"type":"Feature","properties":{"name":"Poras","file":"/geojson/Poras.geojson","derived":"parcel-convex-hull"},"geometry":{"type":"Polygon","coordinates":[[[121.82187882018961,13.459907757956984],[121.82201046573427,13.459672448673455],[121.83208001746365,13.45293582082642],[121.8322009418016,13.452860715391513],[121.83235903482101,13.452809809000517],[121.83356712914423,13.452453715735544],[121.83463139418954,13.453878077699349],[121.83478358561456,13.45414220104741],[121.83487012421489,13.455125628194361],[121.83486805980458,13.455133483706025],[121.83482969332516,13.45527947604776],[121.8343493718033,13.456587007762758],[121.83192194605267,13.460292349127561],[121.83094825483606,13.46097178787719],[121.8297457754635,13.461745416786593],[121.82321628143443,13.463268429510084],[121.82307377423047,13.46315838671948],[121.8229851598851,13.46308995942557],[121.82297114506548,13.463065052388291],[121.82292416709849,13.46298156344136],[121.82290609887512,13.462949452692188],[121.8221606741409,13.4612004632481],[121.82187882018961,13.459907757956984]]]}},{"type":"Feature","properties":{"name":"Puting Buhangin","file":"/geojson/Puting Buhangin.geojson","derived":"parcel-convex-hull"},"geometry":{"type":"Polygon","coordinates":[[[121.94884016180389,13.441593360936162],[121.94958682432116,13.439391611272237],[121.95396052358142,13.434935809770941],[121.9555555551442,13.434449396873493],[121.95634849497429,13.434535882681686],[121.95751055897406,13.434680387288235],[121.95817753998996,13.43477559044051],[121.95943818062239,13.435241878130151],[121.96809279183933,13.439505113999124],[121.96824119721725,13.44067044588093],[121.96019098594061,13.453562387636552],[121.95831082218963,13.4534720487155],[121.95188843848034,13.452456727670194],[121.9516245733144,13.452205396019794],[121.95001542143922,13.446780041818547],[121.94978044333054,13.445917360209409],[121.94884016180389,13.441593360936162]]]}},{"type":"Feature","properties":{"name":"Puyog","file":"/geojson/Puyog.geojson","derived":"parcel-convex-hull"},"geometry":{"type":"Polygon","coordinates":[[[121.89430304457488,13.436180616326649],[121.89430508278646,13.436152585185123],[121.89435176181583,13.436008617878748],[121.895011411267,13.434008952772405],[121.89563304207643,13.432378699414476],[121.89740163187406,13.432274916472181],[121.90931823880348,13.432489070140626],[121.91478918321067,13.433156038540686],[121.92561104689251,13.43630531486164],[121.92886699266404,13.43744276860618],[121.93185254701197,13.440148592423341],[121.93216919974917,13.440642701416833],[121.93266612656468,13.442349983800383],[121.93398631213155,13.447917503689395],[121.93427191538241,13.449128269885875],[121.93427022331042,13.449159537613959],[121.93187685550963,13.454072279062505],[121.93117721536044,13.454956820743618],[121.92579788514242,13.457641145073389],[121.9075654251985,13.456244612444763],[121.89969155185344,13.450642157486099],[121.89727081657868,13.447295038240767],[121.89694149329112,13.446093128660475],[121.89430304457488,13.436180616326649]]]}},{"type":"Feature","properties":{"name":"Sabong Shape files","file":"/geojson/Sabong Shape files.geojson","derived":"parcel-convex-hull"},"geometry":{"type":"Polygon","coordinates":[[[121.95576289249382,13.343861306492872],[121.955854251461,13.343404554584946],[121.95659382901981,13.34019967391362],[121.96085954532333,13.330809913230855],[121.97622605688233,13.320116877616666],[121.99163174541714,13.319024710604868],[121.9994744665932,13.319624978903457],[122.00272608515684,13.323521460430701],[122.00412654179016,13.327268864241779],[122.00142945043872,13.330215219194967],[122.00010563472857,13.331181258184657],[121.9867022161144,13.338223934761986],[121.97509281872281,13.343660219345283],[121.96250891820017,13.348019628101417],[121.96209375688451,13.348147106601079],[121.95589832311862,13.344381555843794],[121.95576289249382,13.343861306492872]]]}},{"type":"Feature","properties":{"name":"San Miguel","file":"/geojson/San Miguel.geojson","derived":"parcel-convex-hull"},"geometry":{"type":"Polygon","coordinates":[[[121.83909352470978,13.447984234072754],[121.83909636713003,13.447957677760106],[121.83990106078213,13.447898507713944],[121.8404730050622,13.447881659475646],[121.84064763239566,13.447883349697799],[121.8410241661788,13.448957191494417],[121.84080022629732,13.448972162645147],[121.84073746323209,13.448970983116391],[121.84067317596602,13.448969774926514],[121.83930374768181,13.448839096677748],[121.83922584627261,13.448818723177387],[121.83917500794993,13.448805158520933],[121.83915854354716,13.44878255264217],[121.83914096242975,13.448609441711207],[121.83912493495909,13.448413918014316],[121.83909352470978,13.447984234072754]]]}},{"type":"Feature","properties":{"name":"Santol","file":"/geojson/Santol.geojson","derived":"parcel-convex-hull"},"geometry":{"type":"Polygon","coordinates":[[[121.82425183532368,13.448008303430806],[121.82514914543155,13.445132441657872],[121.83005062884563,13.43822661350468],[121.83873263198711,13.436592789018997],[121.84045487966303,13.436942095844229],[121.8410801687534,13.437360461314398],[121.84076432125714,13.438197701348512],[121.83521859996031,13.449561834534567],[121.83481786763492,13.449986139712506],[121.82981604392872,13.451083264906135],[121.82870164672445,13.451279894385992],[121.82805395817672,13.451293932967669],[121.82682446290151,13.450912997377662],[121.82607643506394,13.450659371389316],[121.82425183532368,13.448008303430806]]]}},{"type":"Feature","properties":{"name":"Sawi","file":"/geojson/Sawi.geojson","derived":"parcel-convex-hull"},"geometry":{"type":"Polygon","coordinates":[[[121.84956925684392,13.439633309310505],[121.84957002806118,13.439471589568756],[121.84970275227332,13.438962057464982],[121.85140014905086,13.43750271594249],[121.85613843807619,13.435332296702942],[121.85806634280374,13.43504239577785],[121.86291036284301,13.438765216643915],[121.86266811722139,13.439737831017405],[121.86064426845137,13.443650497036959],[121.8590279496045,13.445045877121936],[121.85376048083779,13.448718554694677],[121.85309189516441,13.448894001453718],[121.85266818783658,13.448701050907585],[121.85246391689121,13.448603938937632],[121.85042304040465,13.443506509301676],[121.84992767679857,13.44201211958096],[121.84961698439585,13.440239422291757],[121.84956925684392,13.439633309310505]]]}},{"type":"Feature","properties":{"name":"Tabi","file":"/geojson/Tabi.geojson","derived":"parcel-convex-hull"},"geometry":{"type":"Polygon","coordinates":[[[121.83214936057776,13.458985160990835],[121.83320609272121,13.451813804156862],[121.83373510642771,13.451516011810737],[121.83475458584331,13.451087487134588],[121.83518504341528,13.450938723690921],[121.83548809373771,13.45086531108371],[121.83662799578173,13.45073439955264],[121.83759622453496,13.450818283052076],[121.83836537221522,13.451380458030043],[121.83962183360993,13.454821866026398],[121.83906279930017,13.456390597743841],[121.83460252835273,13.462029591364406],[121.83407198921789,13.461661899003973],[121.83371109317976,13.461393462174268],[121.83329936083047,13.461079849840472],[121.83284538908647,13.460693906202765],[121.83237753889641,13.459725682411671],[121.83230711208735,13.459571747365558],[121.83214936057776,13.458985160990835]]]}},{"type":"Feature","properties":{"name":"Tabigue","file":"/geojson/Tabigue.geojson","derived":"parcel-convex-hull"},"geometry":{"type":"Polygon","coordinates":[[[121.81166658972766,13.446617486690178],[121.81454307273339,13.446323697568175],[121.81970616264043,13.446118650683504],[121.82420005295758,13.447985338188843],[121.82455327670763,13.448141991012992],[121.82496217032894,13.44834449235312],[121.82595903464045,13.449327139591531],[121.82601884178455,13.4499626988893],[121.82606567717309,13.45048308840394],[121.82607643506394,13.450659371389316],[121.82603690402237,13.451649243887518],[121.82592451915366,13.452393856285934],[121.8242681532812,13.454154607000444],[121.8239855308094,13.454365804067232],[121.82130577288291,13.455516530939788],[121.81957325638311,13.455653738117404],[121.81801510293205,13.455503129532602],[121.81787961794136,13.45545015384944],[121.81217887923492,13.451249098114525],[121.81198299003623,13.451088088522173],[121.81186871161347,13.45075116843823],[121.8118223634797,13.450493598263842],[121.81166658972766,13.446617486690178]]]}},{"type":"Feature","properties":{"name":"Tagwak","file":"/geojson/Tagwak.geojson","derived":"parcel-convex-hull"},"geometry":{"type":"Polygon","coordinates":[[[121.86985582749693,13.4422071942618],[121.86991796641423,13.44168703599194],[121.87125011034858,13.441021715140671],[121.87149450507722,13.440952227239608],[121.87248383618709,13.440703010790214],[121.8727717999855,13.440703074716897],[121.87714052645077,13.441658484746455],[121.87786116538211,13.44187861442119],[121.88053090902139,13.443314363975748],[121.88080742902514,13.443971566109672],[121.87786970311303,13.447842309153991],[121.87502827945579,13.44825186880723],[121.87480470824944,13.448167465030416],[121.87465847262169,13.448025103278233],[121.8733634186167,13.44666318981647],[121.872465563018,13.44560935176591],[121.87007933551897,13.442716448463312],[121.86985582749693,13.4422071942618]]]}},{"type":"Feature","properties":{"name":"Tambunan","file":"/geojson/Tambunan.geojson","derived":"parcel-convex-hull"},"geometry":{"type":"Polygon","coordinates":[[[121.95803939493192,13.311755400462458],[121.98374587797377,13.299201444584128],[122.00110526292748,13.307053746008977],[122.00240284028871,13.307800932382168],[122.0030083765901,13.308758305261401],[122.00323876586205,13.309323525170099],[122.00082867462456,13.316734415299134],[121.99975065079586,13.319337704017201],[121.9994744665932,13.319624978903457],[121.98738972914101,13.32399655167317],[121.96617051919574,13.330456072332193],[121.9629825887884,13.33114531038405],[121.96255242782469,13.331119336197633],[121.96070600636472,13.330633183927205],[121.95950916411938,13.330218643323333],[121.95907908427965,13.328741467371573],[121.9587321961147,13.327091000999138],[121.95808329284543,13.315301896624932],[121.95803939493192,13.311755400462458]]]}},{"type":"Feature","properties":{"name":"Tampus","file":"/geojson/Tampus.geojson","derived":"parcel-convex-hull"},"geometry":{"type":"Polygon","coordinates":[[[121.84097053377934,13.447476288555551],[121.84222194835259,13.443333115314063],[121.84270088257219,13.442882792907788],[121.84284865243568,13.442798623812706],[121.84296151796941,13.442762374955436],[121.84401859686015,13.442544430135255],[121.8442570666195,13.442496060874506],[121.8453064926303,13.442325212410495],[121.8489098970503,13.44317614100458],[121.84934885480007,13.443613484328614],[121.85170086238948,13.447883701606923],[121.85100454904328,13.449093360062857],[121.85004116458781,13.449990386723973],[121.84950748695206,13.45017757429589],[121.84871168334958,13.450222511531372],[121.8479724324186,13.450091149033005],[121.84119868882054,13.447648325643064],[121.84097053377934,13.447476288555551]]]}},{"type":"Feature","properties":{"name":"Tanza","file":"/geojson/Tanza.geojson","derived":"parcel-convex-hull"},"geometry":{"type":"Polygon","coordinates":[[[121.83758463736768,13.450259806689933],[121.83794126951453,13.450155111399667],[121.83830994475667,13.450056379108977],[121.8402485841453,13.44983491308608],[121.84294131389122,13.449699611722643],[121.8444881826942,13.450172122273454],[121.84622829447436,13.454046034951368],[121.8503081708925,13.4689097018942],[121.85006986280438,13.469313461692387],[121.84987096154349,13.469650454110232],[121.84799570275815,13.472744446486383],[121.84763875452887,13.473022933083673],[121.84733864991873,13.47320406108525],[121.846136263282,13.473583446533862],[121.8455179899057,13.47357060337988],[121.84243058204208,13.469959681083312],[121.84044738978164,13.464635914863383],[121.84031210703952,13.464226181449053],[121.83961757173289,13.462055307805196],[121.83758463736768,13.450259806689933]]]}},{"type":"Feature","properties":{"name":"Tugos","file":"/geojson/Tugos.geojson","derived":"parcel-convex-hull"},"geometry":{"type":"Polygon","coordinates":[[[121.85251378263389,13.40075680747107],[121.85306300024473,13.375547519873557],[121.85372876516635,13.374031146372888],[121.85669160420743,13.37303469663253],[121.8979176173063,13.37657166009187],[121.90237281878703,13.379947162357357],[121.90206070269404,13.386187967784826],[121.9004801057344,13.39262466922701],[121.90002464273776,13.393375402105347],[121.89837942298418,13.396087143852272],[121.87024546260308,13.403619876552066],[121.85296338738242,13.401431713070963],[121.85289994335447,13.401375290074528],[121.85251378263389,13.40075680747107]]]}},{"type":"Feature","properties":{"name":"Tumagabok","file":"/geojson/Tumagabok.geojson","derived":"parcel-convex-hull"},"geometry":{"type":"Polygon","coordinates":[[[121.95956323915145,13.353830750367276],[121.96763567303591,13.340264905784405],[121.98857959601371,13.332442066085639],[121.99797718559074,13.332059218418966],[121.9985925613661,13.332075345591116],[122.00125189970382,13.365409208562543],[121.96956838529218,13.359746800528823],[121.96318670821289,13.357510532860164],[121.95956323915145,13.353830750367276]]]}},{"type":"Feature","properties":{"name":"Tumapon","file":"/geojson/Tumapon.geojson","derived":"parcel-convex-hull"},"geometry":{"type":"Polygon","coordinates":[[[121.84913256084742,13.427972260239073],[121.8493336002179,13.426972326291983],[121.84969172662451,13.42603576335205],[121.85602844983865,13.427221525243835],[121.85619896619822,13.427499834803463],[121.85749979478315,13.431066482164656],[121.85587821581035,13.43396807447211],[121.85494446325586,13.434844766882197],[121.85367485097814,13.435341275830787],[121.84949244303914,13.435692356254867],[121.84913256084742,13.427972260239073]]]}}]}