{"type":"FeatureCollection","name":"Maligaya","crs":{"type":"name","properties":{"name":"urn:ogc:def:crs:OGC:1.3:CRS84"}},"features":[{"type":"Feature","properties":{"Id":0,"CLN":"8532","PSGC":"174001019","Barangay":"Maligaya","Land_Class":"AGRICULTURAL","Area":0.0,"PIN":"030-01-035-01-099","Owner":"HRS. OF MENDOZA, MIGUEL","TaxDecNo":"31146"},"geometry":{"type":"Polygon","coordinates":[[[121.84038468021154,13.475386985176383],[121.84048527657339,13.475734187626538],[121.84065367547642,13.47566694213864],[121.84057487686542,13.475317174562434],[121.84038468021154,13.475386985176383]]]}},{"type":"Feature","properties":{"Id":0,"CLN":"8532","PSGC":"174001019","Barangay":"Maligaya","Land_Class":"AGRICULTURAL","Area":0.0,"PIN":"030-01-035-01-099","Owner":"HRS. OF MENDOZA, MIGUEL","TaxDecNo":"31146"},"geometry":{"type":"Polygon","coordinates":[[[121.84048527657339,13.475734187626538],[121.84056064207621,13.476020012722946],[121.84092563930847,13.475863638670965],[121.840905184238,13.47582991475952],[121.84111543942896,13.475696366900037],[121.84101773492843,13.475490890843744],[121.84065367547642,13.47566694213864],[121.84048527657339,13.475734187626538]]]}},{"type":"Feature","properties":{"Id":0,"CLN":"8535","PSGC":"174001019","Barangay":"Maligaya","Land_Class":"RESIDENTIAL","Area":0.0,"PIN":"030-01-035-01-100","Owner":"LABAGUIS, CONRADO","TaxDecNo":"19864"},"geometry":{"type":"Polygon","coordinates":[[[121.84056064207621,13.476020012722946],[121.84057373444631,13.476244550143845],[121.84101551021112,13.476021481560553],[121.84092563930847,13.475863638670965],[121.84056064207621,13.476020012722946]]]}},{"type":"Feature","properties":{"Id":0,"CLN":"8534","PSGC":"174001019","Barangay":"Maligaya","Land_Class":"AGRICULTURAL","Area":0.0,"PIN":"030-01-035-01-101","Owner":"DIMAANDAL, CARMEN M.","TaxDecNo":"19865"},"geometry":{"type":"Polygon","coordinates":[[[121.84101551021112,13.476021481560553],[121.84123421437668,13.475961957538614],[121.84111543942896,13.475696366900037],[121.840905184238,13.47582991475952],[121.84092563930847,13.475863638670965],[121.84101551021112,13.476021481560553]]]}},{"type":"Feature","properties":{"Id":0,"CLN":"8530","PSGC":"174001019","Barangay":"Maligaya","Land_Class":"AGRICULTURAL","Area":0.0,"PIN":"030-01-035-01-167","Owner":"MENDOZA, TOMAS","TaxDecNo":"30515"},"geometry":{"type":"Polygon","coordinates":[[[121.84005851817702,13.474568282441236],[121.83960719955856,13.475010504768434],[121.83975928337235,13.475454699442771],[121.84022720326071,13.475332431287628],[121.84005851817702,13.474568282441236]]]}},{"type":"Feature","properties":{"Id":0,"CLN":"wlng naklagay","PSGC":"174001019","Barangay":"Maligaya","Land_Class":null,"Area":null,"PIN":null},"geometry":{"type":"Polygon","coordinates":[[[121.84008979352427,13.474484848444536],[121.84004228102734,13.47449472741869],[121.84022720326071,13.475332431287613],[121.84026159743694,13.47532586419503],[121.84008979352427,13.474484848444536]]]}},{"type":"Feature","properties":{"Id":0,"CLN":"wlng naklagay","PSGC":"174001019","Barangay":"Maligaya","Land_Class":null,"Area":null,"PIN":null},"geometry":{"type":"Polygon","coordinates":[[[121.84034542214845,13.475396902303437],[121.84057373444631,13.476244550143845],[121.84056064207621,13.476020012722946],[121.84048527657339,13.475734187626538],[121.84038468021154,13.475386985176383],[121.84034542214845,13.475396902303437]]]}},{"type":"Feature","properties":{"Id":0,"CLN":"8537","PSGC":"174001019","Barangay":"Maligaya","Land_Class":"RESIDENTIAL","Area":0.0,"PIN":"030-01-035-01-161","Owner":"ALOJADO, ERNESTO L. & ALOJADO, CORAZON O.","TaxDecNo":"19918"},"geometry":{"type":"Polygon","coordinates":[[[121.84057373444631,13.476244550143845],[121.84062664292833,13.47682294170814],[121.84099150709146,13.47716988875673],[121.84158569038185,13.477468569933786],[121.84123421437668,13.475961957538614],[121.84101551021112,13.476021481560588],[121.84057373444631,13.476244550143845]]]}},{"type":"Feature","properties":{"Id":0,"CLN":"8538","PSGC":"174001019","Barangay":"Maligaya","Land_Class":"AGRICULTURAL","Area":0.0,"PIN":"030-01-035-01-102","Owner":"VILLAMIN, CORAZON","TaxDecNo":"19866"},"geometry":{"type":"Polygon","coordinates":[[[121.84193398740922,13.475497136714058],[121.84160128206311,13.475590527278742],[121.84150894280313,13.475481038888663],[121.84142499440503,13.47534331371064],[121.84101773492843,13.475490890843767],[121.84111543942896,13.475696366900037],[121.84123421437668,13.475961957538614],[121.84158569038185,13.477468569933786],[121.84193398740922,13.475497136714058]]]}},{"type":"Feature","properties":{"Id":0,"CLN":"wlng naklagay","PSGC":"174001019","Barangay":"Maligaya","Land_Class":null,"Area":null,"PIN":null},"geometry":{"type":"Polygon","coordinates":[[[121.84026159743696,13.475325864195067],[121.84022720326071,13.475332431287628],[121.8404227838619,13.476342219576585],[121.84045963107509,13.476302034284618],[121.84026159743696,13.475325864195067]]]}},{"type":"Feature","properties":{"Id":0,"CLN":"8528","PSGC":"174001019","Barangay":"Maligaya","Land_Class":"AGRICULTURAL","Area":0.0,"PIN":"030-01-035-01-095","Owner":"MERCENE, ANDRES","TaxDecNo":"19860"},"geometry":{"type":"Polygon","coordinates":[[[121.8404227838619,13.476342219576585],[121.84022720326071,13.475332431287628],[121.83975928337235,13.475454699442771],[121.83995183188121,13.476142751689766],[121.83994928037048,13.4766718440888],[121.84010970096048,13.476659133207441],[121.84046261326087,13.476633859203563],[121.8404227838619,13.476342219576585]]]}},{"type":"Feature","properties":{"Id":0,"CLN":"8527","PSGC":"174001019","Barangay":"Maligaya","Land_Class":"AGRICULTURAL","Area":0.0,"PIN":"030-01-035-01-096","Owner":"MANRIQUE, PEDRO","TaxDecNo":"19861"},"geometry":{"type":"Polygon","coordinates":[[[121.83958200900497,13.474936929995273],[121.83972439306801,13.476751516049383],[121.83994928037048,13.4766718440888],[121.83995183188121,13.476142751689766],[121.83975928337235,13.475454699442771],[121.83958200900497,13.474936929995273]]]}},{"type":"Feature","properties":{"Id":0,"CLN":"8526","PSGC":"174001019","Barangay":"Maligaya","Land_Class":"AGRICULTURAL","Area":0.0,"PIN":"030-01-035-01-097","Owner":"JANDA, GODOFREDO","TaxDecNo":"19862"},"geometry":{"type":"Polygon","coordinates":[[[121.83972439306801,13.476751516049383],[121.83958200900497,13.474936929995273],[121.83915080182369,13.47534291177345],[121.83928017328263,13.476709108032859],[121.83955020600565,13.476768647002897],[121.83972439306801,13.476751516049383]]]}},{"type":"Feature","properties":{"Id":0,"CLN":"8521","PSGC":"174001019","Barangay":"Maligaya","Land_Class":"AGRICULTURAL","Area":0.0,"PIN":"030-01-035-01-087","Owner":"MALAPOTE, FELISA","TaxDecNo":"19848"},"geometry":{"type":"Polygon","coordinates":[[[121.83928017328263,13.476709108032859],[121.83915080182369,13.47534291177345],[121.83852825845192,13.475626827521078],[121.83849260243852,13.475660710853797],[121.83867413360002,13.476020264834112],[121.83876275650513,13.476643941155015],[121.83928017328263,13.476709108032859]]]}},{"type":"Feature","properties":{"Id":0,"CLN":"8620","PSGC":"174001019","Barangay":"Maligaya","Land_Class":"AGRICULTURAL","Area":0.0,"PIN":"030-01-052-02-018","Owner":"FERNANDEZ, VICENTE T. & FERNANDEZ, ELENITA L.","TaxDecNo":"26400"},"geometry":{"type":"Polygon","coordinates":[[[121.83876275650513,13.476643941155015],[121.83867413360002,13.476020264834112],[121.83849260243852,13.475660710853797],[121.83797336890697,13.475972184348144],[121.83810263949408,13.476717114967002],[121.83876275650513,13.476643941155015]]]}},{"type":"Feature","properties":{"Id":0,"CLN":"8477","PSGC":"174001019","Barangay":"Maligaya","Land_Class":"AGRICULTURAL","Area":0.0,"PIN":"030-01-035-01-104","Owner":"BUÑAG, TEODORO","TaxDecNo":"19867"},"geometry":{"type":"Polygon","coordinates":[[[121.84099150709146,13.47716988875673],[121.84062664292833,13.47682294170814],[121.84071542234818,13.477415230891538],[121.84074112915144,13.477785274150516],[121.84089575864886,13.47778598789267],[121.84095028738629,13.477546757695153],[121.84099150709146,13.47716988875673]]]}},{"type":"Feature","properties":{"Id":0,"CLN":"8478","PSGC":"174001019","Barangay":"Maligaya","Land_Class":"AGRICULTURAL","Area":0.0,"PIN":"030-01-035-01-094","Owner":"BUÑAG, TEODORO","TaxDecNo":"19858"},"geometry":{"type":"Polygon","coordinates":[[[121.84046261326087,13.476633859203563],[121.84010970096048,13.476659133207441],[121.84017173978482,13.47757077926535],[121.84056687122141,13.477579329702973],[121.84046261326087,13.476633859203563]]]}},{"type":"Feature","properties":{"Id":0,"CLN":"8479","PSGC":"174001019","Barangay":"Maligaya","Land_Class":"AGRICULTURAL","Area":0.0,"PIN":"030-01-035-01-093","Owner":"BUÑAG, TEODORO","TaxDecNo":"19854"},"geometry":{"type":"Polygon","coordinates":[[[121.84056687122141,13.477579329702973],[121.84017173978482,13.47757077926535],[121.84014885227548,13.478041486587133],[121.84061679338112,13.477915855245685],[121.84056687122141,13.477579329702973]]]}},{"type":"Feature","properties":{"Id":0,"CLN":"8481","PSGC":"174001019","Barangay":"Maligaya","Land_Class":"AGRICULTURAL","Area":0.0,"PIN":"030-01-035-01-092","Owner":"DEL MAURO, JAZMIN PUNZALAN","TaxDecNo":"19853"},"geometry":{"type":"Polygon","coordinates":[[[121.84014885227548,13.478041486587133],[121.84017173978482,13.47757077926535],[121.84010970096048,13.476659133207441],[121.83994928037048,13.4766718440888],[121.83972439306801,13.476751516049383],[121.83971336160539,13.477851149683685],[121.83976965212831,13.478291956164725],[121.84000362305221,13.478229140990434],[121.84021003928154,13.47817965013289],[121.84014885227548,13.478041486587133]]]}},{"type":"Feature","properties":{"Id":0,"CLN":"8525","PSGC":"174001019","Barangay":"Maligaya","Land_Class":"AGRICULTURAL","Area":0.0,"PIN":"030-01-035-01-091","Owner":"MABUTI, FLORENCIO","TaxDecNo":"19852"},"geometry":{"type":"Polygon","coordinates":[[[121.83955020600565,13.476768647002903],[121.83952592956126,13.477291988870391],[121.83951767069115,13.477470029286843],[121.83950369018945,13.477771412499632],[121.83933038971901,13.477770560843881],[121.83934339949838,13.477878445533799],[121.8394709175043,13.47788360147083],[121.83950186733576,13.477884852855958],[121.83950034900485,13.477843439524241],[121.83971336160539,13.477851149683692],[121.83972439306801,13.47675151604938],[121.83955020600565,13.476768647002903]]]}},{"type":"Feature","properties":{"Id":0,"CLN":"8523","PSGC":"174001019","Barangay":"Maligaya","Land_Class":"AGRICULTURAL","Area":0.0,"PIN":"030-01-035-01-089","Owner":"MARQUEZ, JOSE & SOLAS, BEATRIZ M.","TaxDecNo":"19850"},"geometry":{"type":"Polygon","coordinates":[[[121.83952592956129,13.477291988870396],[121.83955020600565,13.476768647002897],[121.83928017328263,13.476709108032859],[121.83922227993226,13.47707540195285],[121.83921446628321,13.47727041690024],[121.83952592956129,13.477291988870396]]]}},{"type":"Feature","properties":{"Id":0,"CLN":"8524","PSGC":"174001019","Barangay":"Maligaya","Land_Class":"AGRICULTURAL","Area":0.0,"PIN":"030-01-035-01-090","Owner":"HRS. OF ANICIA MONTEVIRGEN","TaxDecNo":"19851"},"geometry":{"type":"Polygon","coordinates":[[[121.83921446628321,13.47727041690024],[121.8392031839456,13.477472141709264],[121.83951767069115,13.477470029286843],[121.83952592956129,13.477291988870396],[121.83921446628321,13.47727041690024]]]}},{"type":"Feature","properties":{"Id":0,"CLN":"8522","PSGC":"174001019","Barangay":"Maligaya","Land_Class":"AGRICULTURAL","Area":0.0,"PIN":"030-01-035-01-088","Owner":"LABAGUIS, CONRADO","TaxDecNo":"19849"},"geometry":{"type":"Polygon","coordinates":[[[121.83876275650513,13.476643941155015],[121.83879285250235,13.477053239098419],[121.83897842343877,13.477050734097165],[121.83922227993226,13.47707540195285],[121.83928017328263,13.476709108032859],[121.83876275650513,13.476643941155015]]]}},{"type":"Feature","properties":{"Id":0,"CLN":"8517pt.","PSGC":"174001019","Barangay":"Maligaya","Land_Class":"RESIDENTIAL","Area":0.0,"PIN":"030-01-035-01-131","Owner":"CALVARIO, REYNALDO B. & CALVARIO, CLEOFE L.","TaxDecNo":"19891"},"geometry":{"type":"Polygon","coordinates":[[[121.83934339949838,13.477878445533793],[121.83934278791932,13.478005183858356],[121.8394723266851,13.477998215886998],[121.8394709175043,13.477883601470833],[121.83934339949838,13.477878445533793]]]}},{"type":"Feature","properties":{"Id":0,"CLN":"8518","PSGC":"174001019","Barangay":"Maligaya","Land_Class":"AGRICULTURAL","Area":0.0,"PIN":"030-01-035-01-084","Owner":"NOBLEZA, MACARIO","TaxDecNo":"19845"},"geometry":{"type":"Polygon","coordinates":[[[121.83879285250235,13.477053239098419],[121.83877525495656,13.477851227520368],[121.83898788868903,13.477848427327022],[121.83897842343877,13.477050734097165],[121.83879285250235,13.477053239098419]]]}},{"type":"Feature","properties":{"Id":0,"CLN":"8517","PSGC":"174001019","Barangay":"Maligaya","Land_Class":"RESIDENTIAL","Area":0.0,"PIN":"030-01-035-01-083","Owner":"LASIC, RODOLFO L.","TaxDecNo":"19926"},"geometry":{"type":"Polygon","coordinates":[[[121.83877525495656,13.477851227520368],[121.83877106256274,13.478200604487418],[121.8389205500722,13.478198773477725],[121.83892394297752,13.478029800988027],[121.83905280093913,13.478030396722643],[121.83905456244642,13.478199393049776],[121.83918340833223,13.478202510880259],[121.83919719489758,13.47801593093358],[121.83934278791932,13.478005183858356],[121.83934339949838,13.477878445533793],[121.83933038971901,13.477770560843876],[121.83950369018945,13.477771412499623],[121.83951767069115,13.477470029286843],[121.8392031839456,13.477472141709264],[121.83921446628321,13.47727041690024],[121.83922227993226,13.47707540195285],[121.83897842343877,13.477050734097165],[121.83898788868903,13.477848427327022],[121.83877525495656,13.477851227520368]]]}},{"type":"Feature","properties":{"Id":0,"CLN":"8480","PSGC":"174001019","Barangay":"Maligaya","Land_Class":"RESIDENTIAL","Area":0.0,"PIN":"030-01-035-01-164","Owner":"LASIC, RODOLFO L.","TaxDecNo":"19926"},"geometry":{"type":"Polygon","coordinates":[[[121.8389205500722,13.478198773477725],[121.83905456244642,13.478199393049776],[121.83905280093913,13.478030396722643],[121.83892394297752,13.478029800988027],[121.8389205500722,13.478198773477725]]]}},{"type":"Feature","properties":{"Id":0,"CLN":"8519","PSGC":"174001019","Barangay":"Maligaya","Land_Class":"AGRICULTURAL","Area":0.0,"PIN":"030-01-035-01-085","Owner":"NOBLEZA, SALUD U.","TaxDecNo":"19846"},"geometry":{"type":"Polygon","coordinates":[[[121.83810263949408,13.476717114967002],[121.8381479370194,13.477017327534101],[121.83846479222461,13.477046537500131],[121.83850504747606,13.477783209402505],[121.8385226369379,13.47787661257284],[121.83877525495656,13.477851227520368],[121.83879285250235,13.477053239098419],[121.83876275650513,13.476643941155015],[121.83810263949408,13.476717114967002]]]}},{"type":"Feature","properties":{"Id":0,"CLN":"8508","PSGC":"174001019","Barangay":"Maligaya","Land_Class":"AGRICULTURAL","Area":0.0,"PIN":"030-01-035-01-052","Owner":"MAGALANG, ELISA J.","TaxDecNo":"19817"},"geometry":{"type":"Polygon","coordinates":[[[121.83810263949408,13.476717114967002],[121.83765391691115,13.47685109790311],[121.83772997604008,13.477111237621063],[121.8381479370194,13.477017327534101],[121.83810263949408,13.476717114967002]]]}},{"type":"Feature","properties":{"Id":0,"CLN":"8510","PSGC":"174001019","Barangay":"Maligaya","Land_Class":"AGRICULTURAL","Area":0.0,"PIN":"030-01-035-01-054","Owner":"NIEVA, FLORA","TaxDecNo":"19819"},"geometry":{"type":"Polygon","coordinates":[[[121.83799470968478,13.477793459608359],[121.83811670746078,13.478147133607594],[121.83816948764643,13.478424821005282],[121.8382792634389,13.478107530275116],[121.83849332601578,13.47807573169905],[121.83851050137469,13.478254888136497],[121.83856449996851,13.478280359995754],[121.83855843219379,13.478469497776349],[121.83866657563831,13.478490175611405],[121.83875932918437,13.478495648966584],[121.83877106256274,13.478200604487418],[121.83877525495656,13.477851227520368],[121.8385226369379,13.47787661257284],[121.83850504747606,13.477783209402505],[121.83799470968478,13.477793459608359]]]}},{"type":"Feature","properties":{"Id":0,"CLN":"8505","PSGC":"174001019","Barangay":"Maligaya","Land_Class":"AGRICULTURAL","Area":0.0,"PIN":"030-01-035-01-049","Owner":"MALAPOTE, FELISA","TaxDecNo":"19814"},"geometry":{"type":"Polygon","coordinates":[[[121.83811670746078,13.478147133607594],[121.83776771842273,13.478367473234872],[121.83816948764643,13.478424821005282],[121.83811670746078,13.478147133607594]]]}},{"type":"Feature","properties":{"Id":0,"CLN":"8571","PSGC":"174001019","Barangay":"Maligaya","Land_Class":"AGRICULTURAL","Area":0.0,"PIN":"030-01-052-01-012","Owner":"MASCAREÑAS, ALLAN","TaxDecNo":"26320"},"geometry":{"type":"Polygon","coordinates":[[[121.83851050137469,13.478254888136497],[121.83840338822772,13.478554535821392],[121.838516003937,13.478716478235617],[121.83865266681873,13.478701977035987],[121.83866657563831,13.478490175611405],[121.83855843219379,13.478469497776349],[121.83856449996851,13.478280359995754],[121.83851050137469,13.478254888136497]]]}},{"type":"Feature","properties":{"Id":0,"CLN":"8513","PSGC":"174001019","Barangay":"Maligaya","Land_Class":"AGRICULTURAL","Area":0.0,"PIN":"030-01-035-01-081","Owner":"NOBLEZA, MACARIO","TaxDecNo":"19843"},"geometry":{"type":"Polygon","coordinates":[[[121.83875932918437,13.478495648966584],[121.83910703939485,13.478540134222474],[121.83915163028327,13.478378918807264],[121.83918340833223,13.478202510880259],[121.83905456244642,13.478199393049776],[121.8389205500722,13.478198773477725],[121.83877106256274,13.478200604487418],[121.83875932918437,13.478495648966584]]]}},{"type":"Feature","properties":{"Id":0,"CLN":"8515","PSGC":"174001019","Barangay":"Maligaya","Land_Class":"EDUCATIONAL","Area":0.0,"PIN":"030-01-035-01-079","Owner":"BARRIO SCHOOL SITE","TaxDecNo":"19841"},"geometry":{"type":"Polygon","coordinates":[[[121.8394723266851,13.477998215886998],[121.83950397422143,13.477997171091575],[121.83948413302502,13.478370366782498],[121.83954429343035,13.478721232264997],[121.83983850415295,13.478636836481806],[121.83976965212831,13.478291956164725],[121.83971336160539,13.477851149683685],[121.83950034900485,13.477843439524241],[121.83950186733576,13.477884852855965],[121.8394709175043,13.477883601470833],[121.8394723266851,13.477998215886998]]]}},{"type":"Feature","properties":{"Id":0,"CLN":"8516","PSGC":"174001019","Barangay":"Maligaya","Land_Class":"AGRICULTURAL","Area":0.0,"PIN":"030-01-035-01-082","Owner":"ALOJADO, NICOLAS JR. LANOT","TaxDecNo":"19844"},"geometry":{"type":"Polygon","coordinates":[[[121.83915163028327,13.478378918807264],[121.83948413302502,13.478370366782498],[121.83950397422143,13.477997171091575],[121.8394723266851,13.477998215886998],[121.83934278791932,13.478005183858356],[121.83919719489758,13.47801593093358],[121.83918340833223,13.478202510880259],[121.83915163028327,13.478378918807264]]]}},{"type":"Feature","properties":{"Id":0,"CLN":"8514","PSGC":"174001019","Barangay":"Maligaya","Land_Class":"AGRICULTURAL","Area":0.0,"PIN":"030-01-035-01-080","Owner":"REJANO, RUFINO JR.","TaxDecNo":"19842"},"geometry":{"type":"Polygon","coordinates":[[[121.83910703939485,13.478540134222474],[121.83908068339042,13.478661078538613],[121.83922964777628,13.478767700052265],[121.83926345525983,13.478704801030087],[121.83954429343035,13.478721232264997],[121.83948413302502,13.478370366782498],[121.83915163028327,13.478378918807264],[121.83910703939485,13.478540134222474]]]}},{"type":"Feature","properties":{"Id":0,"CLN":"8572","PSGC":"174001019","Barangay":"Maligaya","Land_Class":"AGRICULTURAL","Area":0.0,"PIN":"030-01-052-01-013","Owner":"LAYAG, RAFAEL","TaxDecNo":"26321"},"geometry":{"type":"Polygon","coordinates":[[[121.83816948764643,13.478424821005282],[121.83805385248861,13.478710136542446],[121.83816676042701,13.478811547390904],[121.83832399826849,13.478983785180937],[121.83834407960127,13.479094855361103],[121.83772403118299,13.479408103233151],[121.83783700427514,13.479496062751508],[121.83895982986596,13.478959822231339],[121.83901226608818,13.4787751024916],[121.83908068339042,13.478661078538613],[121.83910703939485,13.478540134222474],[121.83875932918437,13.478495648966584],[121.83866657563831,13.478490175611405],[121.83865266681873,13.478701977035987],[121.838516003937,13.478716478235617],[121.83840338822772,13.478554535821392],[121.83851050137469,13.478254888136497],[121.83849332601578,13.47807573169905],[121.8382792634389,13.478107530275116],[121.83816948764643,13.478424821005282]]]}},{"type":"Feature","properties":{"Id":0,"CLN":"8500","PSGC":"174001019","Barangay":"Maligaya","Land_Class":"AGRICULTURAL","Area":0.0,"PIN":"030-01-035-01-045","Owner":"MALAPOTE, EUGENIO","TaxDecNo":"19810"},"geometry":{"type":"Polygon","coordinates":[[[121.83772403118299,13.479408103233151],[121.83834407960127,13.479094855361103],[121.83832399826849,13.478983785180937],[121.83816676042701,13.478811547390904],[121.83756353611871,13.479198857588274],[121.83772403118299,13.479408103233151]]]}},{"type":"Feature","properties":{"Id":0,"CLN":"8501","PSGC":"174001019","Barangay":"Maligaya","Land_Class":"AGRICULTURAL","Area":0.0,"PIN":"030-01-035-01-046","Owner":"MALAPOTE, JOSE","TaxDecNo":"19811"},"geometry":{"type":"Polygon","coordinates":[[[121.83756353611871,13.479198857588274],[121.83816676042701,13.478811547390904],[121.83805385248861,13.478710136542446],[121.83769844285042,13.479014519969272],[121.83740550218195,13.479191400068588],[121.83756353611871,13.479198857588274]]]}},{"type":"Feature","properties":{"Id":0,"CLN":"8503","PSGC":"174001019","Barangay":"Maligaya","Land_Class":"AGRICULTURAL","Area":0.0,"PIN":"030-01-035-01-047","Owner":"LABAGUIS, SOTERO","TaxDecNo":"19812"},"geometry":{"type":"Polygon","coordinates":[[[121.83740550218195,13.479191400068588],[121.83769844285042,13.479014519969272],[121.83740499202347,13.478586067251593],[121.83693279907267,13.478879820002055],[121.83740550218195,13.479191400068588]]]}},{"type":"Feature","properties":{"Id":0,"CLN":"8504","PSGC":"174001019","Barangay":"Maligaya","Land_Class":"AGRICULTURAL","Area":0.0,"PIN":"030-01-035-01-048","Owner":"FERNANDEZ, JOVITA N.","TaxDecNo":"19813"},"geometry":{"type":"Polygon","coordinates":[[[121.83740499202347,13.478586067251593],[121.83769844285042,13.479014519969272],[121.83805385248861,13.478710136542446],[121.83816948764643,13.478424821005282],[121.83776771842273,13.478367473234872],[121.83740499202347,13.478586067251593]]]}},{"type":"Feature","properties":{"Id":0,"CLN":"8497","PSGC":"174001019","Barangay":"Maligaya","Land_Class":"AGRICULTURAL","Area":0.0,"PIN":"030-01-035-01-056","Owner":"MONTEVIRGEN, SILVESTRE","TaxDecNo":"19821"},"geometry":{"type":"Polygon","coordinates":[[[121.83895982986596,13.478959822231339],[121.83917911529072,13.479091991027417],[121.83940018607105,13.478854243503614],[121.83955509202016,13.478797789263746],[121.83954429343035,13.478721232264997],[121.83926345525983,13.478704801030087],[121.83922964777628,13.478767700052265],[121.83908068339042,13.478661078538613],[121.83901226608818,13.4787751024916],[121.83895982986596,13.478959822231339]]]}},{"type":"Feature","properties":{"Id":0,"CLN":"8496","PSGC":"174001019","Barangay":"Maligaya","Land_Class":"AGRICULTURAL","Area":0.0,"PIN":"030-01-035-01-057","Owner":"NALING, LORNA G.","TaxDecNo":"19822"},"geometry":{"type":"Polygon","coordinates":[[[121.83917911529072,13.479091991027417],[121.83938767033166,13.479311546727425],[121.8396803016268,13.479198558823454],[121.83955509202016,13.478797789263746],[121.83940018607105,13.478854243503614],[121.83917911529072,13.479091991027417]]]}},{"type":"Feature","properties":{"Id":0,"CLN":"8495","PSGC":"174001019","Barangay":"Maligaya","Land_Class":"AGRICULTURAL","Area":0.0,"PIN":"030-01-035-01-197","Owner":"MORALES JR., ARTURO M.","TaxDecNo":"19961"},"geometry":{"type":"Polygon","coordinates":[[[121.83998160519954,13.479293368850675],[121.83978892441522,13.479399577187602],[121.83983697307174,13.479488496375359],[121.84002993744957,13.47937841051081],[121.83998160519954,13.479293368850675]]]}},{"type":"Feature","properties":{"Id":0,"CLN":"8483","PSGC":"174001019","Barangay":"Maligaya","Land_Class":"AGRICULTURAL","Area":0.0,"PIN":"030-01-035-01-078","Owner":"HRS. OF ANICIA MONTEVIRGEN","TaxDecNo":"19839"},"geometry":{"type":"Polygon","coordinates":[[[121.83993302802216,13.478809624336574],[121.84005702404735,13.478749664030019],[121.840222433072,13.478652902475421],[121.84000362305221,13.478229140990434],[121.83976965212831,13.478291956164725],[121.83983850415295,13.478636836481806],[121.83993302802216,13.478809624336574]]]}},{"type":"Feature","properties":{"Id":0,"CLN":"8482","PSGC":"174001019","Barangay":"Maligaya","Land_Class":"AGRICULTURAL","Area":0.0,"PIN":"030-01-035-01-075","Owner":"NOBLEZA, LAMBERTO U.","TaxDecNo":"19838"},"geometry":{"type":"Polygon","coordinates":[[[121.840222433072,13.478652902475421],[121.84051875884143,13.478486123353433],[121.84045753916335,13.47835468561658],[121.84036801912525,13.478391264700244],[121.84021003928154,13.47817965013289],[121.84000362305221,13.478229140990434],[121.840222433072,13.478652902475421]]]}},{"type":"Feature","properties":{"Id":0,"CLN":"8480","PSGC":"174001019","Barangay":"Maligaya","Land_Class":"AGRICULTURAL","Area":0.0,"PIN":"030-01-035-01-077","Owner":"OLAVIDEZ, MAURO","TaxDecNo":"19912"},"geometry":{"type":"Polygon","coordinates":[[[121.84061679338112,13.477915855245685],[121.84014885227548,13.478041486587133],[121.84021003928154,13.47817965013289],[121.84036801912525,13.478391264700244],[121.84045753916335,13.47835468561658],[121.8406574558266,13.47822781651737],[121.84061679338112,13.477915855245685]]]}},{"type":"Feature","properties":{"Id":0,"CLN":"8484","PSGC":"174001019","Barangay":"Maligaya","Land_Class":"RESIDENTIAL","Area":0.0,"PIN":"030-01-035-01-076","Owner":"DACUYAN, ELEAZAR B. & DACUYAN, MODELYN A.","TaxDecNo":"19990"},"geometry":{"type":"Polygon","coordinates":[[[121.84051875884143,13.478486123353438],[121.84061746902765,13.478681630230168],[121.84067567721414,13.478787510649637],[121.8407435070841,13.478910892742384],[121.8406574558266,13.478227816517364],[121.84045753916334,13.478354685616575],[121.84051875884143,13.478486123353438]]]}},{"type":"Feature","properties":{"Id":0,"CLN":"8485","PSGC":"174001019","Barangay":"Maligaya","Land_Class":"RESIDENTIAL","Area":0.0,"PIN":"030-01-035-01-074","Owner":"ALOJADO, ERNESTO L. & ALOJADO, CORAZON O.","TaxDecNo":"19837"},"geometry":{"type":"Polygon","coordinates":[[[121.840222433072,13.478652902475421],[121.84026919061168,13.478754847659209],[121.84034338124236,13.47886868985089],[121.84061746902765,13.47868163023018],[121.84051875884143,13.478486123353433],[121.840222433072,13.478652902475421]]]}},{"type":"Feature","properties":{"Id":0,"CLN":"8486","PSGC":"174001019","Barangay":"Maligaya","Land_Class":"AGRICULTURAL","Area":0.0,"PIN":"030-01-035-01-073","Owner":"OLAVIDEZ, RUFINA & VILLARUEL, NICOLAS","TaxDecNo":"19835"},"geometry":{"type":"Polygon","coordinates":[[[121.84005702404735,13.478749664030019],[121.84010643978915,13.478834806768852],[121.84026919061168,13.478754847659209],[121.840222433072,13.478652902475421],[121.84005702404735,13.478749664030019]]]}},{"type":"Feature","properties":{"Id":0,"CLN":"8487","PSGC":"174001019","Barangay":"Maligaya","Land_Class":"AGRICULTURAL","Area":0.0,"PIN":"030-01-035-01-072","Owner":"AMBAT, RONALD V. & LASIC, ALBINA O.","TaxDecNo":"19834"},"geometry":{"type":"Polygon","coordinates":[[[121.84010643978915,13.478834806768852],[121.84005702404735,13.478749664030019],[121.83993302802216,13.478809624336574],[121.84007272927188,13.479055765007821],[121.84022169480856,13.478984149640514],[121.84010643978915,13.478834806768852]]]}},{"type":"Feature","properties":{"Id":0,"CLN":"8489","PSGC":"174001019","Barangay":"Maligaya","Land_Class":"RESIDENTIAL","Area":0.0,"PIN":"030-01-035-01-071","Owner":"OLAVIDEZ, SIMPLICIO","TaxDecNo":"19833"},"geometry":{"type":"Polygon","coordinates":[[[121.84051589353064,13.478902275228501],[121.84059859398157,13.478854735031348],[121.84065993542278,13.478960951178404],[121.8407435070841,13.478910892742391],[121.84067567721414,13.478787510649639],[121.84061746902765,13.47868163023018],[121.84034338124236,13.47886868985089],[121.84026919061168,13.478754847659209],[121.84010643978915,13.478834806768852],[121.84022169480856,13.478984149640514],[121.84028310907534,13.479075232929826],[121.84033738777738,13.479042694839574],[121.84040981610737,13.478987540635567],[121.84051589353064,13.478902275228501]]]}},{"type":"Feature","properties":{"Id":0,"CLN":"8488","PSGC":"174001019","Barangay":"Maligaya","Land_Class":"RESIDENTIAL","Area":0.0,"PIN":"030-01-035-01-070","Owner":"MOLDON, PEDRO","TaxDecNo":"19830"},"geometry":{"type":"Polygon","coordinates":[[[121.84015809979633,13.479167136681522],[121.84025202490652,13.479107878132076],[121.84028310907534,13.479075232929826],[121.84022169480856,13.478984149640514],[121.84007272927188,13.479055765007821],[121.84015809979633,13.479167136681522]]]}},{"type":"Feature","properties":{"Id":0,"CLN":"8493","PSGC":"174001019","Barangay":"Maligaya","Land_Class":null,"Area":0.0,"PIN":"030-01-035-01-065"},"geometry":{"type":"Polygon","coordinates":[[[121.84022290165898,13.479268324482705],[121.84031340272786,13.47920652788554],[121.84025202490652,13.479107878132076],[121.84015809979633,13.479167136681522],[121.84022290165898,13.479268324482705]]]}},{"type":"Feature","properties":{"Id":0,"CLN":"8491","PSGC":"174001019","Barangay":"Maligaya","Land_Class":"RESIDENTIAL","Area":0.0,"PIN":"030-01-035-01-066","Owner":"MUNDAS, ALICIA L.","TaxDecNo":"19828"},"geometry":{"type":"Polygon","coordinates":[[[121.84031340272786,13.47920652788554],[121.84040130631125,13.47914892294463],[121.84033738777738,13.479042694839574],[121.84028310907534,13.479075232929826],[121.84025202490652,13.479107878132076],[121.84031340272786,13.47920652788554]]]}},{"type":"Feature","properties":{"Id":0,"CLN":"8490","PSGC":"174001019","Barangay":"Maligaya","Land_Class":"RESIDENTIAL","Area":0.0,"PIN":"030-01-035-01-067","Owner":"LUSLOS, MATEO L. & LUSLOS, ANISIA M.","TaxDecNo":"19829"},"geometry":{"type":"Polygon","coordinates":[[[121.84040130631125,13.47914892294463],[121.84046337733396,13.479103809748242],[121.84040981610737,13.478987540635567],[121.84033738777738,13.479042694839574],[121.84040130631125,13.47914892294463]]]}},{"type":"Feature","properties":{"Id":0,"CLN":"8491","PSGC":"174001019","Barangay":"Maligaya","Land_Class":"RESIDENTIAL","Area":0.0,"PIN":"030-01-035-01-066","Owner":"MUNDAS, ALICIA L.","TaxDecNo":"19828"},"geometry":{"type":"Polygon","coordinates":[[[121.84046337733396,13.479103809748242],[121.84050216867173,13.479076244530836],[121.84056682898805,13.479028621048991],[121.84051589353064,13.478902275228501],[121.84040981610737,13.478987540635567],[121.84046337733396,13.479103809748242]]]}},{"type":"Feature","properties":{"Id":0,"CLN":"8492","PSGC":"174001019","Barangay":"Maligaya","Land_Class":"RESIDENTIAL","Area":0.0,"PIN":"030-01-035-01-069","Owner":"HRS. OF LASIC, ANTONINA","TaxDecNo":"28790"},"geometry":{"type":"Polygon","coordinates":[[[121.84056682898805,13.479028621048991],[121.84065993542278,13.478960951178404],[121.84059859398157,13.478854735031348],[121.84051589353064,13.478902275228501],[121.84056682898805,13.479028621048991]]]}},{"type":"Feature","properties":{"Id":0,"CLN":"8457","PSGC":"174001019","Barangay":"Maligaya","Land_Class":"AGRICULTURAL","Area":0.0,"PIN":"030-01-035-01-059","Owner":"MALING, CLAUDIO & MALING, SOCORRO M.","TaxDecNo":"01-16061"},"geometry":{"type":"Polygon","coordinates":[[[121.83983697307174,13.479488496375359],[121.83971606806917,13.479619933491357],[121.84004701544703,13.47993421682243],[121.84023336306414,13.47977113379995],[121.84012301877279,13.479672257841994],[121.84036094613595,13.479501846313298],[121.84029448685135,13.479388039823437],[121.84050140260968,13.479235140390962],[121.84055572996084,13.479192513628236],[121.84050216867173,13.479076244530836],[121.84046337733396,13.479103809748242],[121.84040130631125,13.47914892294463],[121.84031340272786,13.47920652788554],[121.84022290165898,13.479268324482705],[121.83983697307174,13.479488496375359]]]}},{"type":"Feature","properties":{"Id":0,"CLN":"8460","PSGC":"174001019","Barangay":"Maligaya","Land_Class":"GOV'T OWNED","Area":0.0,"PIN":"030-01-035-01-125","Owner":"BARANGAY MALIGAYA, BOAC, MARINDUQUE","TaxDecNo":"30619"},"geometry":{"type":"Polygon","coordinates":[[[121.84055572996084,13.479192513628236],[121.84076766601065,13.479067381470214],[121.8407435070841,13.478910892742391],[121.84065993542278,13.478960951178404],[121.84056682898805,13.479028621048991],[121.84050216867173,13.479076244530836],[121.84055572996084,13.479192513628236]]]}},{"type":"Feature","properties":{"Id":0,"CLN":"8458","PSGC":"174001019","Barangay":"Maligaya","Land_Class":"AGRICULTURAL","Area":0.0,"PIN":"030-01-035-01-063","Owner":"LASIC, VENANCIO","TaxDecNo":"19825"},"geometry":{"type":"Polygon","coordinates":[[[121.84036094613595,13.479501846313298],[121.84059887317063,13.479331434529584],[121.84050140260968,13.479235140390962],[121.84029448685135,13.479388039823437],[121.84036094613595,13.479501846313298]]]}},{"type":"Feature","properties":{"Id":0,"CLN":"8459","PSGC":"174001019","Barangay":"Maligaya","Land_Class":"RESIDENTIAL","Area":0.0,"PIN":"030-01-035-01-064","Owner":"JORDAN, ROSARIO L.","TaxDecNo":"19827"},"geometry":{"type":"Polygon","coordinates":[[[121.84059887317063,13.479331434529584],[121.84078241179394,13.479216260102836],[121.84076766601065,13.479067381470214],[121.84055572996084,13.479192513628236],[121.84050140260968,13.479235140390962],[121.84059887317063,13.479331434529584]]]}},{"type":"Feature","properties":{"Id":0,"CLN":"8506","PSGC":"174001019","Barangay":"Maligaya","Land_Class":"AGRICULTURAL","Area":0.0,"PIN":"030-01-035-01-050","Owner":"ORNEDO, DAMIAN","TaxDecNo":"19815"},"geometry":{"type":"Polygon","coordinates":[[[121.83693279907267,13.478879820002055],[121.83740499202347,13.478586067251593],[121.83776771842273,13.478367473234872],[121.83811670746078,13.478147133607594],[121.83799470968478,13.477793459608359],[121.83794113774947,13.477679712231911],[121.83702228152505,13.478258930044573],[121.83692676139165,13.47811500194055],[121.83642578194068,13.47844000794309],[121.83693279907267,13.478879820002055]]]}},{"type":"Feature","properties":{"Id":0,"CLN":"8507","PSGC":"174001019","Barangay":"Maligaya","Land_Class":"AGRICULTURAL","Area":0.0,"PIN":"030-01-035-01-051","Owner":"FERNANDEZ, JOVITA N.","TaxDecNo":"19816"},"geometry":{"type":"Polygon","coordinates":[[[121.83642578194068,13.47844000794309],[121.83692676139165,13.47811500194055],[121.83702228152505,13.478258930044573],[121.83794113774947,13.477679712231911],[121.83772997604008,13.477111237621063],[121.83738480590263,13.4771934334071],[121.83642578194068,13.47844000794309]]]}},{"type":"Feature","properties":{"Id":0,"CLN":"8502","PSGC":"174001019","Barangay":"Maligaya","Land_Class":"AGRICULTURAL","Area":0.0,"PIN":"030-01-035-01-126","Owner":"REPUBLIC OF THE PHILIPPINES","TaxDecNo":"19885"},"geometry":{"type":"Polygon","coordinates":[[[121.83642578194068,13.47844000794309],[121.8380260455354,13.480079568246842],[121.83800854219581,13.479909097914852],[121.83783700427514,13.479496062751508],[121.83772403118299,13.479408103233151],[121.83756353611871,13.479198857588274],[121.83740550218195,13.479191400068588],[121.83693279907267,13.478879820002055],[121.83642578194068,13.47844000794309]]]}},{"type":"Feature","properties":{"Id":0,"CLN":"8498","PSGC":"174001019","Barangay":"Maligaya","Land_Class":"AGRICULTURAL","Area":0.0,"PIN":"030-01-035-01-042","Owner":"LOSLOS, FRANCISCO","TaxDecNo":"19919"},"geometry":{"type":"Polygon","coordinates":[[[121.83800854219581,13.479909097914852],[121.83878055453461,13.479437372675113],[121.83900369135395,13.479720892138113],[121.83822664188995,13.480286757242048],[121.83841377516042,13.480435592724113],[121.83971606806917,13.479619933491357],[121.83983697307174,13.479488496375359],[121.8396803016268,13.479198558823454],[121.83938767033166,13.479311546727425],[121.83917911529072,13.479091991027417],[121.83895982986596,13.478959822231339],[121.83783700427514,13.479496062751508],[121.83800854219581,13.479909097914852]]]}},{"type":"Feature","properties":{"Id":0,"CLN":"8499","PSGC":"174001019","Barangay":"Maligaya","Land_Class":"AGRICULTURAL","Area":0.0,"PIN":"030-01-035-01-043","Owner":"MONTEVIRGEN, RAFAEL","TaxDecNo":"19809"},"geometry":{"type":"Polygon","coordinates":[[[121.8380260455354,13.480079568246842],[121.83822664188995,13.480286757242048],[121.83900369135395,13.479720892138113],[121.83878055453461,13.479437372675113],[121.83800854219581,13.479909097914852],[121.8380260455354,13.480079568246842]]]}},{"type":"Feature","properties":{"Id":0,"CLN":"8454","PSGC":"174001019","Barangay":"Maligaya","Land_Class":"AGRICULTURAL","Area":0.0,"PIN":"030-01-035-01-041","Owner":"MONTEVIRGEN, RENE O.","TaxDecNo":"19960"},"geometry":{"type":"Polygon","coordinates":[[[121.83841377516042,13.480435592724113],[121.8387424855649,13.480679245456443],[121.83943293822854,13.480018815966393],[121.83977956486508,13.480347744905387],[121.84011123951703,13.479977110863594],[121.84004701544703,13.47993421682243],[121.83971606806917,13.479619933491357],[121.83841377516042,13.480435592724113]]]}},{"type":"Feature","properties":{"Id":0,"CLN":"8444","PSGC":"174001019","Barangay":"Maligaya","Land_Class":"AGRICULTURAL","Area":0.0,"PIN":"030-01-035-01-040","Owner":"OLAVIDEZ, VENERANDA M.","TaxDecNo":"19808"},"geometry":{"type":"Polygon","coordinates":[[[121.8387424855649,13.480679245456443],[121.83922595621605,13.481134358098103],[121.83977956486508,13.480347744905387],[121.83943293822854,13.480018815966393],[121.8387424855649,13.480679245456443]]]}},{"type":"Feature","properties":{"Id":0,"CLN":"8443","PSGC":"174001019","Barangay":"Maligaya","Land_Class":"AGRICULTURAL","Area":0.0,"PIN":"030-01-035-01-039","Owner":"MAGALANG, ELISA","TaxDecNo":"19807"},"geometry":{"type":"Polygon","coordinates":[[[121.83922595621605,13.481134358098103],[121.83956439438862,13.481261472630598],[121.8401437621963,13.480833692236377],[121.83977956486508,13.480347744905387],[121.83922595621605,13.481134358098103]]]}},{"type":"Feature","properties":{"Id":0,"CLN":"8456","PSGC":"174001019","Barangay":"Maligaya","Land_Class":"AGRICULTURAL","Area":0.0,"PIN":"030-01-035-01-060","Owner":"LARA, CRISPIN S.","TaxDecNo":"19823"},"geometry":{"type":"Polygon","coordinates":[[[121.84011123951703,13.479977110863594],[121.84016608963202,13.480004267825635],[121.84084155983462,13.479599349014082],[121.84078241179394,13.479216260102836],[121.84059887317063,13.479331434529584],[121.84036094613595,13.479501846313298],[121.84012301877279,13.479672257841994],[121.84023336306414,13.47977113379995],[121.84004701544703,13.47993421682243],[121.84011123951703,13.479977110863594]]]}},{"type":"Feature","properties":{"Id":0,"CLN":"8455","PSGC":"174001019","Barangay":"Maligaya","Land_Class":"AGRICULTURAL","Area":0.0,"PIN":"030-01-035-01-061","Owner":"MARQUEZ, PABLO","TaxDecNo":"19824"},"geometry":{"type":"Polygon","coordinates":[[[121.84016608963202,13.480004267825635],[121.84040813906755,13.480166807358886],[121.8408903803729,13.479926901558798],[121.84084155983462,13.479599349014082],[121.84016608963202,13.480004267825635]]]}},{"type":"Feature","properties":{"Id":0,"CLN":"8440","PSGC":"174001019","Barangay":"Maligaya","Land_Class":"AGRICULTURAL","Area":0.0,"PIN":"030-01-035-01-188","Owner":"MARQUEZ, SEVERINA","TaxDecNo":"19952"},"geometry":{"type":"Polygon","coordinates":[[[121.84040813906755,13.480166807358886],[121.84045060544845,13.480386716198764],[121.84094634903758,13.48019731693552],[121.8408903803729,13.479926901558798],[121.84040813906755,13.480166807358886]]]}},{"type":"Feature","properties":{"Id":0,"CLN":"8440","PSGC":"174001019","Barangay":"Maligaya","Land_Class":"RESIDENTIAL","Area":0.0,"PIN":"030-01-035-01-187","Owner":"LOZANO, GINA FE","TaxDecNo":"31281"},"geometry":{"type":"Polygon","coordinates":[[[121.84045060544845,13.480386716198764],[121.84047062298016,13.480511237785487],[121.84097665935654,13.480325248964926],[121.84094634903758,13.48019731693552],[121.84045060544845,13.480386716198764]]]}},{"type":"Feature","properties":{"Id":0,"CLN":"8440","PSGC":"174001019","Barangay":"Maligaya","Land_Class":"AGRICULTURAL","Area":0.0,"PIN":"030-01-035-01-186","Owner":"LLANES, ANTON M. , LLANES, IMELDA L. & LAMBON, LILIBETH M.","TaxDecNo":"19950"},"geometry":{"type":"Polygon","coordinates":[[[121.84047062298016,13.480511237785487],[121.84050081956276,13.480662709976597],[121.8409931436662,13.480469931923816],[121.84097665935654,13.480325248964926],[121.84047062298016,13.480511237785487]]]}},{"type":"Feature","properties":{"Id":0,"CLN":"8440","PSGC":"174001019","Barangay":"Maligaya","Land_Class":"RESIDENTIAL","Area":0.0,"PIN":null,"Owner":"LASIC, ROMEO & JANDA, MILAGROS","TaxDecNo":"19928"},"geometry":{"type":"Polygon","coordinates":[[[121.84050081956276,13.480662709976597],[121.84052769342422,13.48079062617239],[121.84103369795781,13.4806113630359],[121.8409931436662,13.480469931923816],[121.84050081956276,13.480662709976597]]]}},{"type":"Feature","properties":{"Id":0,"CLN":"3440","PSGC":"174001019","Barangay":"Maligaya","Land_Class":"AGRICULTURAL","Area":0.0,"PIN":null,"Owner":"MEDALLON, TRINIDAD","TaxDecNo":"16050"},"geometry":{"type":"Polygon","coordinates":[[[121.84052769342422,13.48079062617239],[121.84055111483883,13.480921889373137],[121.84106400835772,13.480739295058655],[121.84103369795781,13.4806113630359],[121.84052769342422,13.48079062617239]]]}},{"type":"Feature","properties":{"Id":0,"CLN":"8441","PSGC":"174001019","Barangay":"Maligaya","Land_Class":"COMMERCIAL","Area":0.0,"PIN":"030-01-035-01-038","Owner":"MARINDUQUE ELECTRIC COOPERATIVE, INC.","TaxDecNo":"19806"},"geometry":{"type":"Polygon","coordinates":[[[121.83956439438862,13.481261472630598],[121.83979783587385,13.48178380854213],[121.84046417012236,13.481374365079043],[121.84042784099675,13.481306938303613],[121.84114854798727,13.481023294082666],[121.84106400835772,13.480739295058655],[121.84055111483883,13.480921889373137],[121.84052769342422,13.48079062617239],[121.84050081956276,13.480662709976597],[121.84047062298016,13.480511237785487],[121.84045060544845,13.480386716198764],[121.84040813906755,13.480166807358886],[121.84016608963202,13.480004267825635],[121.84011123951703,13.479977110863594],[121.83977956486508,13.480347744905387],[121.8401437621963,13.480833692236377],[121.83956439438862,13.481261472630598]]]}},{"type":"Feature","properties":{"Id":0,"CLN":"8442","PSGC":"174001019","Barangay":"Maligaya","Land_Class":"AGRICULTURAL","Area":0.0,"PIN":"030-01-035-01-020","Owner":"MANGUERA, FELIX","TaxDecNo":"19788"},"geometry":{"type":"Polygon","coordinates":[[[121.83922595621605,13.481134358098103],[121.83981375157978,13.482046192094844],[121.83981099680688,13.481904935516843],[121.83979783587385,13.48178380854213],[121.83956439438862,13.481261472630598],[121.83922595621605,13.481134358098103]]]}},{"type":"Feature","properties":{"Id":0,"CLN":"8434","PSGC":"174001019","Barangay":"Maligaya","Land_Class":"RESIDENTIAL","Area":0.0,"PIN":"030-01-035-01-033","Owner":"JANDA, MACARIO","TaxDecNo":"19800"},"geometry":{"type":"Polygon","coordinates":[[[121.83981375157978,13.482046192094844],[121.83982738308055,13.482069795729254],[121.84007907444379,13.481896085350652],[121.84001778941229,13.481778098986792],[121.83981099680688,13.481904935516843],[121.83981375157978,13.482046192094844]]]}},{"type":"Feature","properties":{"Id":0,"CLN":"8433","PSGC":"174001019","Barangay":"Maligaya","Land_Class":"AGRICULTURAL","Area":0.0,"PIN":"030-01-035-01-034","Owner":"VILLARUEL, GREGORIO","TaxDecNo":"19801"},"geometry":{"type":"Polygon","coordinates":[[[121.84007907444379,13.481896085350652],[121.84031022894801,13.481705465082001],[121.84026255914291,13.481614445254923],[121.84001778941229,13.481778098986792],[121.84007907444379,13.481896085350652]]]}},{"type":"Feature","properties":{"Id":0,"CLN":"8432","PSGC":"174001019","Barangay":"Maligaya","Land_Class":"AGRICULTURAL","Area":0.0,"PIN":"030-01-035-01-035","Owner":"JANDA, MACARIO","TaxDecNo":"19802"},"geometry":{"type":"Polygon","coordinates":[[[121.84031022894801,13.481705465082001],[121.84060289533838,13.481585750574382],[121.84056882455805,13.481525060143168],[121.84051763734014,13.481450838863452],[121.84026255914291,13.481614445254923],[121.84031022894801,13.481705465082001]]]}},{"type":"Feature","properties":{"Id":0,"CLN":"8435","PSGC":"174001019","Barangay":"Maligaya","Land_Class":"AGRICULTURAL","Area":0.0,"PIN":"030-01-035-01-132","Owner":"VILLARUEL, MARCELA","TaxDecNo":"19892"},"geometry":{"type":"Polygon","coordinates":[[[121.84046417012236,13.481374365079043],[121.83979783587385,13.48178380854213],[121.83981099680688,13.481904935516843],[121.84001778941229,13.481778098986792],[121.84026255914291,13.481614445254923],[121.84051763734014,13.481450838863452],[121.84046417012236,13.481374365079043]]]}},{"type":"Feature","properties":{"Id":0,"CLN":"8436","PSGC":"174001019","Barangay":"Maligaya","Land_Class":"RESIDENTIAL","Area":0.0,"PIN":"030-01-035-01-211","Owner":"LUSLOS, WENCESLAO L. & LUSLOS, EMELITA L.","TaxDecNo":"19975"},"geometry":{"type":"Polygon","coordinates":[[[121.84088196515962,13.481128211776982],[121.84092932131988,13.481262452030567],[121.84071264480787,13.481337995902564],[121.84073197316589,13.481384729299323],[121.84057156394066,13.481449768799626],[121.84058610200051,13.481476148019455],[121.84054791030826,13.481494734563498],[121.84056882455805,13.481525060143168],[121.84123332006779,13.481259091870403],[121.84114854798727,13.481023294082666],[121.84088196515962,13.481128211776982]]]}},{"type":"Feature","properties":{"Id":0,"CLN":"8430","PSGC":"174001019","Barangay":"Maligaya","Land_Class":"AGRICULTURAL","Area":0.0,"PIN":"030-01-035-01-027","Owner":"MATINING, JUANA","TaxDecNo":"19974"},"geometry":{"type":"Polygon","coordinates":[[[121.84060289533838,13.481585750574382],[121.84062673840863,13.481629579024114],[121.84073924347467,13.481815060764507],[121.84112501319422,13.481628516513807],[121.84130421760156,13.481521729210176],[121.84123332006779,13.481259091870403],[121.84056882455805,13.481525060143168],[121.84060289533838,13.481585750574382]]]}},{"type":"Feature","properties":{"Id":0,"CLN":"8431","PSGC":"174001019","Barangay":"Maligaya","Land_Class":"AGRICULTURAL","Area":0.0,"PIN":"030-01-035-01-032","Owner":"OLAVIDEZ, RUFINA & VILLARUEL, NICOLAS","TaxDecNo":"19798"},"geometry":{"type":"Polygon","coordinates":[[[121.83982738308055,13.482069795729254],[121.83989834903558,13.48213990484976],[121.83999916419138,13.482077315390553],[121.84020348104293,13.481929448841443],[121.8403095720824,13.481841661496073],[121.84062673840863,13.481629579024114],[121.84060289533838,13.481585750574382],[121.84031022894801,13.481705465082001],[121.84007907444379,13.481896085350652],[121.83982738308055,13.482069795729254]]]}},{"type":"Feature","properties":{"Id":0,"CLN":"8426","PSGC":"174001019","Barangay":"Maligaya","Land_Class":"AGRICULTURAL","Area":0.0,"PIN":"030-01-035-01-031","Owner":"JANDA, APOLONIO","TaxDecNo":"19797"},"geometry":{"type":"Polygon","coordinates":[[[121.83989834903558,13.48213990484976],[121.84001338630854,13.4823346466944],[121.84011935593568,13.482272081007677],[121.83999916419138,13.482077315390553],[121.83989834903558,13.48213990484976]]]}},{"type":"Feature","properties":{"Id":0,"CLN":"8427","PSGC":"174001019","Barangay":"Maligaya","Land_Class":"AGRICULTURAL","Area":0.0,"PIN":"030-01-035-01-030","Owner":"JANDA, LUIS","TaxDecNo":"19796"},"geometry":{"type":"Polygon","coordinates":[[[121.84011935593568,13.482272081007677],[121.840344144562,13.482154575475096],[121.84020348104293,13.481929448841443],[121.83999916419138,13.482077315390553],[121.84011935593568,13.482272081007677]]]}},{"type":"Feature","properties":{"Id":0,"CLN":"8428","PSGC":"174001019","Barangay":"Maligaya","Land_Class":"AGRICULTURAL","Area":0.0,"PIN":"030-01-035-01-029","Owner":"JANDA, MACARIO","TaxDecNo":"19795"},"geometry":{"type":"Polygon","coordinates":[[[121.840344144562,13.482154575475096],[121.84045281286524,13.482066799978833],[121.8403095720824,13.481841661496073],[121.84020348104293,13.481929448841443],[121.840344144562,13.482154575475096]]]}},{"type":"Feature","properties":{"Id":0,"CLN":"8429","PSGC":"174001019","Barangay":"Maligaya","Land_Class":"AGRICULTURAL","Area":0.0,"PIN":"030-01-035-01-028","Owner":"JANDA, LUIS","TaxDecNo":"19794"},"geometry":{"type":"Polygon","coordinates":[[[121.84045281286524,13.482066799978833],[121.84073924347467,13.481815060764507],[121.84062673840863,13.481629579024114],[121.8403095720824,13.481841661496073],[121.84045281286524,13.482066799978833]]]}},{"type":"Feature","properties":{"Id":0,"CLN":"8425","PSGC":"174001019","Barangay":"Maligaya","Land_Class":"AGRICULTURAL","Area":0.0,"PIN":"030-01-035-01-025","Owner":"DR. PABLO MARQUEZ","TaxDecNo":"19793"},"geometry":{"type":"Polygon","coordinates":[[[121.84001338630854,13.4823346466944],[121.84031756791553,13.48285562761346],[121.8410881788029,13.482319432739281],[121.84108075109593,13.4822563431385],[121.8411583104043,13.482206256903273],[121.84129532772151,13.482118611874434],[121.84135736294844,13.482081064985827],[121.84131143511118,13.481985008938446],[121.84125781216315,13.481881350730843],[121.84112501319422,13.481628516513807],[121.84073924347467,13.481815060764507],[121.84045281286524,13.482066799978833],[121.840344144562,13.482154575475096],[121.84011935593568,13.482272081007677],[121.84001338630854,13.4823346466944]]]}},{"type":"Feature","properties":{"Id":0,"CLN":"8424 part","PSGC":"174001019","Barangay":"Maligaya","Land_Class":"AGRICULTURAL","Area":0.0,"PIN":"030-01-035-01-173","Owner":"DR. PABLO MARQUEZ","TaxDecNo":"19934"},"geometry":{"type":"Polygon","coordinates":[[[121.84135736294844,13.482081064985827],[121.8415408548596,13.481975978796765],[121.84149228900051,13.481892521669813],[121.84131143511118,13.481985008938446],[121.84135736294844,13.482081064985827]]]}},{"type":"Feature","properties":{"Id":0,"CLN":"8424 part","PSGC":"174001019","Barangay":"Maligaya","Land_Class":"AGRICULTURAL","Area":0.0,"PIN":"030-01-035-01-171","Owner":"LUMAWIG, ELIZABETH O.","TaxDecNo":"19932"},"geometry":{"type":"Polygon","coordinates":[[[121.84149228900051,13.481892521669813],[121.84142066203393,13.481781213774836],[121.84125781216315,13.481881350730843],[121.84131143511118,13.481985008938446],[121.84149228900051,13.481892521669813]]]}},{"type":"Feature","properties":{"Id":0,"CLN":"8420","PSGC":"174001019","Barangay":"Maligaya","Land_Class":"AGRICULTURAL","Area":0.0,"PIN":"030-01-035-01-172","Owner":"DR. PABLO MARQUEZ","TaxDecNo":"19933"},"geometry":{"type":"Polygon","coordinates":[[[121.84142066203393,13.481781213774836],[121.84136444972135,13.48168006585209],[121.84130421760156,13.481521729210176],[121.84112501319422,13.481628516513807],[121.84125781216315,13.481881350730843],[121.84142066203393,13.481781213774836]]]}},{"type":"Feature","properties":{"Id":0,"CLN":"8421","PSGC":"174001019","Barangay":"Maligaya","Land_Class":"RESIDENTIAL","Area":0.0,"PIN":"030-01-035-01-191","Owner":"MORALES, GIL M.","TaxDecNo":"19955"},"geometry":{"type":"Polygon","coordinates":[[[121.84148592546414,13.482143452488858],[121.84141372188277,13.482048788135105],[121.84135736294844,13.482081064985827],[121.84129532772151,13.482118611874434],[121.84138756021248,13.482232537112935],[121.84148592546414,13.482143452488858]]]}},{"type":"Feature","properties":{"Id":0,"CLN":"8422","PSGC":"174001019","Barangay":"Maligaya","Land_Class":"RESIDENTIAL","Area":0.0,"PIN":"030-01-035-01-022","Owner":"MALINAO, CONSOLACION","TaxDecNo":"19789"},"geometry":{"type":"Polygon","coordinates":[[[121.84138756021248,13.482232537112935],[121.84129532772151,13.482118611874434],[121.8411583104043,13.482206256903273],[121.84123753527021,13.482345344277867],[121.84138756021248,13.482232537112935]]]}},{"type":"Feature","properties":{"Id":0,"CLN":"8423","PSGC":"174001019","Barangay":"Maligaya","Land_Class":"RESIDENTIAL","Area":0.0,"PIN":"030-01-035-01-023","Owner":"JALAC, JOSEFINA O.","TaxDecNo":"19791"},"geometry":{"type":"Polygon","coordinates":[[[121.84123753527021,13.482345344277867],[121.8411583104043,13.482206256903273],[121.84108075109593,13.4822563431385],[121.8410881788029,13.482319432739281],[121.84111335521463,13.482443137370852],[121.84123753527021,13.482345344277867]]]}},{"type":"Feature","properties":{"Id":0,"CLN":"8424","PSGC":"174001019","Barangay":"Maligaya","Land_Class":"AGRICULTURAL","Area":0.0,"PIN":"030-01-035-01-024","Owner":"ORNEDO, DOMINADOR","TaxDecNo":"19792"},"geometry":{"type":"Polygon","coordinates":[[[121.84111335521463,13.482443137370852],[121.8410881788029,13.482319432739281],[121.84031756791553,13.48285562761346],[121.84001338630854,13.4823346466944],[121.83989834903558,13.48213990484976],[121.83982738308055,13.482069795729254],[121.84038063578792,13.483138406667251],[121.84042240645816,13.48302762229225],[121.84111335521463,13.482443137370852]]]}},{"type":"Feature","properties":{"Id":0,"CLN":"8404","PSGC":"174001019","Barangay":"Maligaya","Land_Class":"AGRICULTURAL","Area":0.0,"PIN":"030-01-035-01-011","Owner":"ORNEDO, DANTE P.","TaxDecNo":"19781"},"geometry":{"type":"Polygon","coordinates":[[[121.84047831453114,13.483191824301127],[121.84072216499067,13.48339724967609],[121.84071540624409,13.483195441501277],[121.84051753228077,13.483075983692595],[121.84047831453114,13.483191824301127]]]}},{"type":"Feature","properties":{"Id":0,"CLN":"8410","PSGC":"174001019","Barangay":"Maligaya","Land_Class":"AGRICULTURAL","Area":0.0,"PIN":"030-01-035-01-012","Owner":"ORNEDO, DOMINADOR","TaxDecNo":"19782"},"geometry":{"type":"Polygon","coordinates":[[[121.84072216499067,13.48339724967609],[121.84132452878255,13.483011609926983],[121.84106770696032,13.48282378072806],[121.84111274739261,13.48256924519034],[121.84051753228077,13.483075983692595],[121.84071540624409,13.483195441501277],[121.84072216499067,13.48339724967609]]]}},{"type":"Feature","properties":{"Id":0,"CLN":"8411","PSGC":"174001019","Barangay":"Maligaya","Land_Class":"RESIDENTIAL","Area":0.0,"PIN":"030-01-035-01-013","Owner":"OLAVIDES, GLORIA","TaxDecNo":"19971"},"geometry":{"type":"Polygon","coordinates":[[[121.84132452878255,13.483011609926983],[121.8414066186334,13.48291278176491],[121.84127352730475,13.482720479344078],[121.84124371904126,13.482488298201767],[121.84111274739261,13.48256924519034],[121.84106770696032,13.48282378072806],[121.84132452878255,13.483011609926983]]]}},{"type":"Feature","properties":{"Id":0,"CLN":"8412","PSGC":"174001019","Barangay":"Maligaya","Land_Class":"AGRICULTURAL","Area":0.0,"PIN":"030-01-035-01-014","Owner":"JANDUSAY, VIRGINIA","TaxDecNo":"01-26770"},"geometry":{"type":"Polygon","coordinates":[[[121.8414066186334,13.48291278176491],[121.8415822256302,13.482839607238457],[121.84135063260965,13.482408080844344],[121.84124371904126,13.482488298201767],[121.84127352730475,13.482720479344078],[121.8414066186334,13.48291278176491]]]}},{"type":"Feature","properties":{"Id":0,"CLN":"8413","PSGC":"174001019","Barangay":"Maligaya","Land_Class":"AGRICULTURAL","Area":0.0,"PIN":"030-01-035-01-015","Owner":"JANDUSAY, VIRGINIA","TaxDecNo":"01-26769"},"geometry":{"type":"Polygon","coordinates":[[[121.8415822256302,13.482839607238457],[121.84172353449661,13.48275282253603],[121.84143000728274,13.482337825200977],[121.84135063260965,13.482408080844344],[121.8415822256302,13.482839607238457]]]}},{"type":"Feature","properties":{"Id":0,"CLN":"8414","PSGC":"174001019","Barangay":"Maligaya","Land_Class":"RESIDENTIAL","Area":0.0,"PIN":"030-01-035-01-016","Owner":"PAGLINAWAN, ULDARICO","TaxDecNo":"19784"},"geometry":{"type":"Polygon","coordinates":[[[121.84172353449661,13.48275282253603],[121.84178887247514,13.482743035131078],[121.84155076304067,13.482237493922865],[121.84143000728274,13.482337825200977],[121.84172353449661,13.48275282253603]]]}},{"type":"Feature","properties":{"Id":0,"CLN":"8415","PSGC":"174001019","Barangay":"Maligaya","Land_Class":"RESIDENTIAL","Area":0.0,"PIN":"030-01-035-01-017","Owner":"PAGLINAWAN, PATROCINIO","TaxDecNo":"19785"},"geometry":{"type":"Polygon","coordinates":[[[121.84178887247514,13.482743035131078],[121.84190580328863,13.482723396862234],[121.84161634389814,13.482177263413735],[121.84155076304067,13.482237493922865],[121.84178887247514,13.482743035131078]]]}},{"type":"Feature","properties":{"Id":0,"CLN":"8416","PSGC":"174001019","Barangay":"Maligaya","Land_Class":"AGRICULTURAL","Area":0.0,"PIN":"030-01-035-01-018","Owner":"MALING, APOLONIO","TaxDecNo":"19786"},"geometry":{"type":"Polygon","coordinates":[[[121.84190580328863,13.482723396862234],[121.84198182262716,13.482636310808775],[121.84166806622453,13.482140509599338],[121.84161634389814,13.482177263413735],[121.84190580328863,13.482723396862234]]]}},{"type":"Feature","properties":{"Id":0,"CLN":"8417","PSGC":"174001019","Barangay":"Maligaya","Land_Class":"AGRICULTURAL","Area":0.0,"PIN":"030-01-035-01-019","Owner":"GARCIA, RITA L.","TaxDecNo":"19787"},"geometry":{"type":"Polygon","coordinates":[[[121.84198182262716,13.482636310808775],[121.84219250459627,13.48241532776164],[121.84181647395248,13.482006676246602],[121.84166806622453,13.482140509599338],[121.84198182262716,13.482636310808775]]]}},{"type":"Feature","properties":{"Id":0,"CLN":"8419","PSGC":"174001019","Barangay":"Maligaya","Land_Class":"AGRICULTURAL","Area":0.0,"PIN":"030-01-035-01-123","Owner":"DR. PABLO MARQUEZ","TaxDecNo":"19882"},"geometry":{"type":"Polygon","coordinates":[[[121.84170001045678,13.481920570538318],[121.84179659861205,13.481843668270002],[121.84175557395344,13.48179976065009],[121.84174043363977,13.48137595898729],[121.84144439651415,13.481482207529545],[121.84150180848968,13.481690975391102],[121.84170001045678,13.481920570538318]]]}},{"type":"Feature","properties":{"Id":0,"CLN":"8437 part","PSGC":"174001019","Barangay":"Maligaya","Land_Class":"RESIDENTIAL","Area":0.0,"PIN":"030-01-035-01-177","Owner":"MADLA, PLARIDEL M.","TaxDecNo":"19940"},"geometry":{"type":"Polygon","coordinates":[[[121.84174043363977,13.48137595898729],[121.84170663796353,13.481258099792942],[121.84140037320284,13.481347486356553],[121.84144439651415,13.481482207529545],[121.84174043363977,13.48137595898729]]]}},{"type":"Feature","properties":{"Id":0,"CLN":"8437 part","PSGC":"174001019","Barangay":"Maligaya","Land_Class":"RESIDENTIAL","Area":0.0,"PIN":"030-01-035-01-176","Owner":"MATINING, PORFERIO & MATINING, MIRIAM M.","TaxDecNo":"19938"},"geometry":{"type":"Polygon","coordinates":[[[121.84170663796353,13.481258099792942],[121.84167285851498,13.481136877719404],[121.84151811341206,13.481159704414068],[121.84135978619582,13.481212781035932],[121.84140037320284,13.481347486356553],[121.84170663796353,13.481258099792942]]]}},{"type":"Feature","properties":{"Id":0,"CLN":"8467","PSGC":"174001019","Barangay":"Maligaya","Land_Class":"AGRICULTURAL","Area":0.0,"PIN":"030-01-035-01-115","Owner":"LASIC, GREGORIA","TaxDecNo":"19876"},"geometry":{"type":"Polygon","coordinates":[[[121.84167285851498,13.481136877719404],[121.84166729811149,13.480864453037055],[121.84146775224248,13.480913976631944],[121.84151811341206,13.481159704414068],[121.84167285851498,13.481136877719404]]]}},{"type":"Feature","properties":{"Id":0,"CLN":"8466","PSGC":"174001019","Barangay":"Maligaya","Land_Class":"AGRICULTURAL","Area":0.0,"PIN":"030-01-035-01-114","Owner":"LASIC, TERESA","TaxDecNo":"19875"},"geometry":{"type":"Polygon","coordinates":[[[121.84135978619582,13.481212781035932],[121.84151811341206,13.481159704414068],[121.84146775224248,13.480913976631944],[121.84128877523324,13.480973683838654],[121.84135978619582,13.481212781035932]]]}},{"type":"Feature","properties":{"Id":0,"CLN":"8439","PSGC":"174001019","Barangay":"Maligaya","Land_Class":"AGRICULTURAL","Area":0.0,"PIN":"030-01-035-01-120","Owner":"MANGUERA, FELIX","TaxDecNo":"19958"},"geometry":{"type":"Polygon","coordinates":[[[121.84166729811149,13.480864453037055],[121.84185105265621,13.479812696934385],[121.84168201274773,13.47994979820891],[121.84135268430505,13.479833938447396],[121.84103269254709,13.479919898407632],[121.84128877523324,13.480973683838654],[121.84146775224248,13.480913976631944],[121.84166729811149,13.480864453037055]]]}},{"type":"Feature","properties":{"Id":0,"CLN":"8469","PSGC":"174001019","Barangay":"Maligaya","Land_Class":"AGRICULTURAL","Area":0.0,"PIN":"030-01-035-01-118","Owner":"LABAGUIS, ARACELI","TaxDecNo":"01-16128"},"geometry":{"type":"Polygon","coordinates":[[[121.84103269254709,13.479919898407632],[121.84135268430505,13.479833938447396],[121.84125873656129,13.479708134731823],[121.84118205516468,13.479587655640367],[121.84113096533648,13.479493257236584],[121.84097947924309,13.479553091176099],[121.84103269254709,13.479919898407632]]]}},{"type":"Feature","properties":{"Id":0,"CLN":"8463","PSGC":"174001019","Barangay":"Maligaya","Land_Class":"AGRICULTURAL","Area":0.0,"PIN":"030-01-035-01-112","Owner":"LASIC, ISIDRO","TaxDecNo":"19873"},"geometry":{"type":"Polygon","coordinates":[[[121.84107298687206,13.47940218998238],[121.84125214094857,13.479305491193927],[121.84120109975198,13.47920100417648],[121.84099781107818,13.479314406293001],[121.84107298687206,13.47940218998238]]]}},{"type":"Feature","properties":{"Id":0,"CLN":"8470","PSGC":"174001019","Barangay":"Maligaya","Land_Class":"AGRICULTURAL","Area":0.0,"PIN":"030-01-035-01-119","Owner":"MENDOZA, MACARIO","TaxDecNo":"19881"},"geometry":{"type":"Polygon","coordinates":[[[121.84185105265621,13.479812696934385],[121.84178005768507,13.479570236967398],[121.841559636319,13.479673471652568],[121.84135268430505,13.479833938447396],[121.84168201274773,13.47994979820891],[121.84185105265621,13.479812696934385]]]}},{"type":"Feature","properties":{"Id":0,"CLN":"8468","PSGC":"174001019","Barangay":"Maligaya","Land_Class":"AGRICULTURAL","Area":0.0,"PIN":"030-01-035-01-116","Owner":"LASIC, FLORA","TaxDecNo":"19877"},"geometry":{"type":"Polygon","coordinates":[[[121.841559636319,13.479673471652568],[121.84149807561245,13.479612654516119],[121.84125873656129,13.479708134731823],[121.84135268430505,13.479833938447396],[121.841559636319,13.479673471652568]]]}},{"type":"Feature","properties":{"Id":0,"CLN":"8467","PSGC":"174001019","Barangay":"Maligaya","Land_Class":"AGRICULTURAL","Area":0.0,"PIN":"030-01-035-01-115","Owner":"LASIC, GREGORIA","TaxDecNo":"19876"},"geometry":{"type":"Polygon","coordinates":[[[121.84149807561245,13.479612654516119],[121.84140321818654,13.479508806109889],[121.84118205516468,13.479587655640367],[121.84125873656129,13.479708134731823],[121.84149807561245,13.479612654516119]]]}},{"type":"Feature","properties":{"Id":0,"CLN":"8466","PSGC":"174001019","Barangay":"Maligaya","Land_Class":"AGRICULTURAL","Area":0.0,"PIN":"030-01-035-01-114","Owner":"LASIC, TERESA","TaxDecNo":"19875"},"geometry":{"type":"Polygon","coordinates":[[[121.84140321818654,13.479508806109889],[121.84132118596547,13.4794176279196],[121.84113096533648,13.479493257236584],[121.84118205516468,13.479587655640367],[121.84140321818654,13.479508806109889]]]}},{"type":"Feature","properties":{"Id":0,"CLN":"8465","PSGC":"174001019","Barangay":"Maligaya","Land_Class":"AGRICULTURAL","Area":0.0,"PIN":"030-01-035-01-113","Owner":"LASIC, PETRA","TaxDecNo":"19874"},"geometry":{"type":"Polygon","coordinates":[[[121.84132118596547,13.4794176279196],[121.84125214094857,13.479305491193927],[121.84107298687206,13.47940218998238],[121.84113096533648,13.479493257236584],[121.84132118596547,13.4794176279196]]]}},{"type":"Feature","properties":{"Id":0,"CLN":"8462","PSGC":"174001019","Barangay":"Maligaya","Land_Class":"RESIDENTIAL","Area":0.0,"PIN":"030-01-035-01-111","Owner":"LASIC, EMILIO","TaxDecNo":"19987"},"geometry":{"type":"Polygon","coordinates":[[[121.84093292782673,13.479230033044043],[121.84099781107818,13.479314406293001],[121.84120109975198,13.47920100417648],[121.84115253854671,13.479116706301639],[121.84093292782673,13.479230033044043]]]}},{"type":"Feature","properties":{"Id":0,"CLN":"8461","PSGC":"174001019","Barangay":"Maligaya","Land_Class":"AGRICULTURAL","Area":0.0,"PIN":"030-01-035-01-110","Owner":"LASIC, ENRIQUE","TaxDecNo":"19872"},"geometry":{"type":"Polygon","coordinates":[[[121.84093292782673,13.479230033044043],[121.84115253854671,13.479116706301639],[121.84106797799163,13.479015427522764],[121.8409079623998,13.479062611012214],[121.84093292782673,13.479230033044043]]]}},{"type":"Feature","properties":{"Id":0,"CLN":"8471","PSGC":"174001019","Barangay":"Maligaya","Land_Class":"AGRICULTURAL","Area":0.0,"PIN":"030-01-035-01-109","Owner":"MANRIQUE, BUTCH L.","TaxDecNo":"19871"},"geometry":{"type":"Polygon","coordinates":[[[121.84115253854671,13.479116706301639],[121.84120109975198,13.47920100417648],[121.84125214094857,13.479305491193927],[121.84132118596547,13.4794176279196],[121.84140321818654,13.479508806109889],[121.84149807561245,13.479612654516119],[121.841559636319,13.479673471652568],[121.84178005768507,13.479570236967398],[121.84161522523841,13.47883383099903],[121.84115253854671,13.479116706301639]]]}},{"type":"Feature","properties":{"Id":0,"CLN":"8472","PSGC":"174001019","Barangay":"Maligaya","Land_Class":"AGRICULTURAL","Area":0.0,"PIN":"030-01-035-01-108","Owner":"MANRIQUE, BUTCH L.","TaxDecNo":"19870"},"geometry":{"type":"Polygon","coordinates":[[[121.84185105265621,13.479812696934385],[121.84207608753724,13.478572805530288],[121.84205558352771,13.478549170320102],[121.84161522523841,13.47883383099903],[121.84178005768507,13.479570236967398],[121.84185105265621,13.479812696934385]]]}},{"type":"Feature","properties":{"Id":0,"CLN":"8474","PSGC":"174001019","Barangay":"Maligaya","Land_Class":"AGRICULTURAL","Area":0.0,"PIN":"030-01-035-01-105","Owner":"JABAL, JAIME JANDUSAY","TaxDecNo":"19984"},"geometry":{"type":"Polygon","coordinates":[[[121.8409079623998,13.479062611012214],[121.84106797799163,13.479015427522764],[121.84115253854671,13.479116706301639],[121.84161522523841,13.47883383099903],[121.84205558352771,13.478549170320102],[121.84165001652212,13.478328708013207],[121.84150260537756,13.478493933615017],[121.84117611976328,13.477788449438144],[121.84140061892606,13.477789485266227],[121.84146033111136,13.477758373193401],[121.84145613824381,13.477677643012358],[121.84158569038185,13.477468569933786],[121.84099150709146,13.47716988875673],[121.84095028738629,13.477546757695153],[121.84089575864886,13.47778598789267],[121.84074112915144,13.477785274150516],[121.8409079623998,13.479062611012214]]]}},{"type":"Feature","properties":{"Id":0,"CLN":"8475","PSGC":"174001019","Barangay":"Maligaya","Land_Class":"AGRICULTURAL","Area":0.0,"PIN":"030-01-035-01-106","Owner":"LILITA BUÑAG JANDUSAY BENITEZ AND LOVELLE LAGUSTAN MAYUGA","TaxDecNo":"31140"},"geometry":{"type":"Polygon","coordinates":[[[121.84140061892606,13.477789485266227],[121.84117611976328,13.477788449438144],[121.84150260537756,13.478493933615017],[121.84165001652212,13.478328708013207],[121.84140061892606,13.477789485266227]]]}},{"type":"Feature","properties":{"Id":0,"CLN":"8476","PSGC":"174001019","Barangay":"Maligaya","Land_Class":"AGRICULTURAL","Area":0.0,"PIN":"030-01-035-01-107","Owner":"MOGOL, FLORENCIO & JANDUSAY, LUCIANA","TaxDecNo":"19869"},"geometry":{"type":"Polygon","coordinates":[[[121.84205558352771,13.478549170320102],[121.84158569038185,13.477468569933786],[121.84145613824381,13.477677643012358],[121.84146033111136,13.477758373193401],[121.84140061892606,13.477789485266227],[121.84165001652212,13.478328708013207],[121.84205558352771,13.478549170320102]]]}},{"type":"Feature","properties":{"Id":0,"CLN":"8452","PSGC":"174001019","Barangay":"Maligaya","Land_Class":"AGRICULTURAL","Area":0.0,"PIN":"030-01-035-01-001","Owner":"MAZON, FRANCISCO M.","TaxDecNo":"19775"},"geometry":{"type":"Polygon","coordinates":[[[121.83549054470662,13.479752846923022],[121.83709292790942,13.480006889201023],[121.83597370074409,13.479324630180448],[121.83549054470662,13.479752846923022]]]}},{"type":"Feature","properties":{"Id":0,"CLN":"8451","PSGC":"174001019","Barangay":"Maligaya","Land_Class":"AGRICULTURAL","Area":0.0,"PIN":"030-01-035-01-002","Owner":"GO, GIANCARLO L.","TaxDecNo":"19901"},"geometry":{"type":"Polygon","coordinates":[[[121.83549054470662,13.479752846923022],[121.83636968176344,13.480815129383915],[121.83709292790942,13.480006889201023],[121.83549054470662,13.479752846923022]]]}},{"type":"Feature","properties":{"Id":0,"CLN":"8450","PSGC":"174001019","Barangay":"Maligaya","Land_Class":"AGRICULTURAL","Area":0.0,"PIN":"030-01-035-01-003","Owner":"FR. SAPUNGAN, RENATO M.","TaxDecNo":"19776"},"geometry":{"type":"Polygon","coordinates":[[[121.83636968176344,13.480815129383915],[121.83648811082176,13.480959163889848],[121.83706865363115,13.480289264265313],[121.83709292790942,13.480006889201023],[121.83636968176344,13.480815129383915]]]}},{"type":"Feature","properties":{"Id":0,"CLN":"8449","PSGC":"174001019","Barangay":"Maligaya","Land_Class":"AGRICULTURAL","Area":0.0,"PIN":"030-01-035-01-136","Owner":"MAZON, LEONOR","TaxDecNo":"19896"},"geometry":{"type":"Polygon","coordinates":[[[121.83648811082176,13.480959163889848],[121.83656085347299,13.481076083086041],[121.8367574334058,13.480856009658561],[121.8372150064715,13.48034374920597],[121.83706865363115,13.480289264265313],[121.83648811082176,13.480959163889848]]]}},{"type":"Feature","properties":{"Id":0,"CLN":"8449","PSGC":"174001019","Barangay":"Maligaya","Land_Class":"AGRICULTURAL","Area":0.0,"PIN":"030-01-035-01-180","Owner":"LOGDAT, BUENAVENTURA & LOGDAT, ROSENDA R.","TaxDecNo":"19943"},"geometry":{"type":"Polygon","coordinates":[[[121.83656085347299,13.481076083086041],[121.83662449792516,13.48117950832595],[121.83675339209147,13.481054555564391],[121.83683173595342,13.480960756040346],[121.8367574334058,13.480856009658561],[121.83656085347299,13.481076083086041]]]}},{"type":"Feature","properties":{"Id":0,"CLN":"8448","PSGC":"174001019","Barangay":"Maligaya","Land_Class":"AGRICULTURAL","Area":0.0,"PIN":"030-01-035-01-179","Owner":"LOGDAT, BUENAVENTURA & LOGDAT, ROSENDA R.","TaxDecNo":"19942"},"geometry":{"type":"Polygon","coordinates":[[[121.83662449792516,13.48117950832595],[121.83680698432572,13.481400907019678],[121.83693911653936,13.481257753211358],[121.83675339209147,13.481054555564391],[121.83662449792516,13.48117950832595]]]}},{"type":"Feature","properties":{"Id":0,"CLN":"8449","PSGC":"174001019","Barangay":"Maligaya","Land_Class":"AGRICULTURAL","Area":0.0,"PIN":"030-01-035-01-181","Owner":"FR. SAPUNGAN, RENATO","TaxDecNo":"19945"},"geometry":{"type":"Polygon","coordinates":[[[121.83683173595342,13.480960756040346],[121.83736077990264,13.480399632610945],[121.8372150064715,13.48034374920597],[121.8367574334058,13.480856009658561],[121.83683173595342,13.480960756040346]]]}},{"type":"Feature","properties":{"Id":0,"CLN":"8448","PSGC":"174001019","Barangay":"Maligaya","Land_Class":"AGRICULTURAL","Area":0.0,"PIN":"030-01-035-01-178","Owner":"MAZON, PETRONIO M.","TaxDecNo":"29680"},"geometry":{"type":"Polygon","coordinates":[[[121.83680698432572,13.481400907019678],[121.83693514863691,13.481545266698975],[121.83788954669723,13.480843467268555],[121.83736077990264,13.480399632610945],[121.83683173595342,13.480960756040346],[121.83675339209147,13.481054555564391],[121.83693911653936,13.481257753211358],[121.83680698432572,13.481400907019678]]]}},{"type":"Feature","properties":{"Id":0,"CLN":"8440","PSGC":"174001019","Barangay":"Maligaya","Land_Class":"AGRICULTURAL","Area":0.0,"PIN":"030-01-035-01-006","Owner":"ROBLES, JOSEFINA LANSANGAN","TaxDecNo":"29107"},"geometry":{"type":"Polygon","coordinates":[[[121.83693514863691,13.481545266698975],[121.83712238126614,13.481732777482415],[121.83811774657704,13.48108665557712],[121.83788954669723,13.480843467268555],[121.83693514863691,13.481545266698975]]]}},{"type":"Feature","properties":{"Id":0,"CLN":"8446","PSGC":"174001019","Barangay":"Maligaya","Land_Class":"AGRICULTURAL","Area":0.0,"PIN":"030-01-035-01-007","Owner":"LANSANGAN, JOSEFINA S.","TaxDecNo":"29106"},"geometry":{"type":"Polygon","coordinates":[[[121.83712238126614,13.481732777482415],[121.83726078155833,13.481892317688239],[121.83742111665718,13.48177956076078],[121.83835462886337,13.481133151458181],[121.83811774657704,13.48108665557712],[121.83712238126614,13.481732777482415]]]}},{"type":"Feature","properties":{"Id":0,"CLN":"8445","PSGC":"174001019","Barangay":"Maligaya","Land_Class":"AGRICULTURAL","Area":0.0,"PIN":"030-01-035-01-168","Owner":"QUIMPO, TEOFILO","TaxDecNo":"19930"},"geometry":{"type":"Polygon","coordinates":[[[121.83726078155833,13.481892317688239],[121.83738119040633,13.482041685676059],[121.83754928154634,13.48192392016851],[121.83742111665718,13.48177956076078],[121.83726078155833,13.481892317688239]]]}},{"type":"Feature","properties":{"Id":0,"CLN":"8405","PSGC":"174001019","Barangay":"Maligaya","Land_Class":"AGRICULTURAL","Area":0.0,"PIN":"030-01-035-01-010","Owner":"MARQUEZ, PABLO","TaxDecNo":"19780"},"geometry":{"type":"Polygon","coordinates":[[[121.84043830177137,13.483267980504005],[121.84031000739994,13.48350615724419],[121.8401854248475,13.48368718091645],[121.8405331393484,13.483554269226147],[121.84043830177137,13.483267980504005]]]}},{"type":"Feature","properties":{"Id":0,"CLN":"8445","PSGC":"174001019","Barangay":"Maligaya","Land_Class":"AGRICULTURAL","Area":0.0,"PIN":"030-01-035-01-169","Owner":"SORIANO, ANDRES M.","TaxDecNo":"19931"},"geometry":{"type":"Polygon","coordinates":[[[121.83738119040633,13.482041685676059],[121.83753494451513,13.482223996742652],[121.8385872773367,13.48152264819377],[121.8387451440507,13.48138717903489],[121.83835462886337,13.481133151458181],[121.83742111665718,13.48177956076078],[121.83754928154634,13.48192392016851],[121.83738119040633,13.482041685676059]]]}},{"type":"Feature","properties":{"Id":0,"CLN":"8406","PSGC":"174001019","Barangay":"Maligaya","Land_Class":"AGRICULTURAL","Area":0.0,"PIN":"030-01-035-01-009","Owner":"GARCELLANO, JULIETA GARCIA","TaxDecNo":"01-32646"},"geometry":{"type":"Polygon","coordinates":[[[121.83753494451513,13.482223996742652],[121.8387722903261,13.484403307928163],[121.8391813585435,13.48476989293745],[121.83936912350941,13.48478869691718],[121.83955434130722,13.484385999523697],[121.8396429525437,13.484063566144988],[121.83988714748394,13.483782207155064],[121.84011251742244,13.483603891324716],[121.8387451440507,13.48138717903489],[121.8385872773367,13.48152264819377],[121.83753494451513,13.482223996742652]]]}},{"type":"Feature","properties":{"Id":0,"CLN":"8407","PSGC":"174001019","Barangay":"Maligaya","Land_Class":"AGRICULTURAL","Area":0.0,"PIN":"030-01-035-01-128","Owner":"MARQUEZ, PABLO","TaxDecNo":"19887"},"geometry":{"type":"Polygon","coordinates":[[[121.83876403078294,13.481370129887035],[121.83795537128374,13.480713135963478],[121.83746514042325,13.480294701975984],[121.83709292790942,13.480006889201023],[121.83706865363115,13.480289264265313],[121.8372150064715,13.48034374920597],[121.83736077990264,13.480399632610945],[121.83788954669723,13.480843467268555],[121.83811774657704,13.48108665557712],[121.83835462886337,13.481133151458181],[121.8387451440507,13.48138717903489],[121.84011251742244,13.483603891324716],[121.84025973822266,13.483479021421928],[121.84034800206716,13.483228328981923],[121.83876403078294,13.481370129887035]]]}},{"type":"Feature","properties":{"Id":0,"CLN":"8464","PSGC":"174001019","Barangay":"Maligaya","Land_Class":"RESIDENTIAL","Area":0.0,"PIN":"030-01-035-01-117","Owner":"MONSANTO, EDGARDO M. & MONSANTO, ANACLETA L.","TaxDecNo":"19879"},"geometry":{"type":"Polygon","coordinates":[[[121.84097947924309,13.479553091176099],[121.84113096533648,13.479493257236584],[121.84107298687206,13.47940218998238],[121.84099781107818,13.479314406293001],[121.84093292782673,13.479230033044043],[121.84097947924309,13.479553091176099]]]}},{"type":"Feature","properties":{"Id":0,"CLN":"8530","PSGC":"174001019","Barangay":"Maligaya","Land_Class":"RESIDENTIAL","Area":0.0,"PIN":"030-01-035-01-166","Owner":"LASIC, ROMEO & JANDA, MILAGROS","TaxDecNo":"19928"},"geometry":{"type":"Polygon","coordinates":[[[121.84005851817702,13.474568282441236],[121.84004228102737,13.474494727418675],[121.83958200900497,13.474936929995273],[121.83960719955856,13.475010504768434],[121.84005851817702,13.474568282441236]]]}},{"type":"Feature","properties":{"Id":0,"CLN":"8495","PSGC":"174001019","Barangay":"Maligaya","Land_Class":"AGRICULTURAL","Area":0.0,"PIN":"030-01-035-01-153","Owner":"MADLA, EFREN M. & MADLA, ELVIRA A.","TaxDecNo":"19910"},"geometry":{"type":"Polygon","coordinates":[[[121.84002302078527,13.478968183316983],[121.83993302802216,13.478809624336574],[121.83983850415295,13.478636836481806],[121.83954429343035,13.478721232264997],[121.83955509202016,13.478797789263746],[121.83965443279513,13.479115758245193],[121.84002302078527,13.478968183316983]]]}},{"type":"Feature","properties":{"Id":0,"CLN":"8495","PSGC":"174001019","Barangay":"Maligaya","Land_Class":"RESIDENTIAL","Area":0.0,"PIN":"030-01-035-01-201","Owner":"FLORITA, CHARLYNNE M.","TaxDecNo":"29797"},"geometry":{"type":"Polygon","coordinates":[[[121.84006495084164,13.479042060147803],[121.84002302078527,13.478968183316983],[121.839838726842,13.479041970853539],[121.83988590025305,13.479124973696875],[121.84006495084164,13.479042060147803]]]}},{"type":"Feature","properties":{"Id":0,"CLN":"8495","PSGC":"174001019","Barangay":"Maligaya","Land_Class":"RESIDENTIAL","Area":0.0,"PIN":"030-01-035-01-202","Owner":"FLORITA, CHARLYNNE M.","TaxDecNo":"29798"},"geometry":{"type":"Polygon","coordinates":[[[121.84006495084164,13.479042060147803],[121.83988590025305,13.479124973696875],[121.83993327298191,13.479208327183404],[121.84011541452446,13.479111450847633],[121.84007272927188,13.479055765007821],[121.84006495084164,13.479042060147803]]]}},{"type":"Feature","properties":{"Id":0,"CLN":"8495","PSGC":"174001019","Barangay":"Maligaya","Land_Class":"RESIDENTIAL","Area":0.0,"PIN":"030-01-035-01-200","Owner":"MORALES, MANUEL M.","TaxDecNo":"30397"},"geometry":{"type":"Polygon","coordinates":[[[121.83988590025305,13.479124973696875],[121.839838726842,13.479041970853539],[121.83965443279513,13.479115758245193],[121.8396803016268,13.479198558823454],[121.83968964684745,13.47921585319137],[121.83988590025305,13.479124973696875]]]}},{"type":"Feature","properties":{"Id":0,"CLN":"8495","PSGC":"174001019","Barangay":"Maligaya","Land_Class":"AGRICULTURAL","Area":0.0,"PIN":"030-01-035-01-199","Owner":"MORALES, MA. ASUNCION M","TaxDecNo":"19963"},"geometry":{"type":"Polygon","coordinates":[[[121.83988590025305,13.479124973696875],[121.83968964684745,13.47921585319137],[121.83974087579222,13.47931065799292],[121.83993327298191,13.479208327183404],[121.83988590025305,13.479124973696875]]]}},{"type":"Feature","properties":{"Id":0,"CLN":"8495","PSGC":"174001019","Barangay":"Maligaya","Land_Class":"RESIDENTIAL","Area":0.0,"PIN":"030-01-035-01-198","Owner":"LASIC, MARLA MARTINEZ","TaxDecNo":"31511"},"geometry":{"type":"Polygon","coordinates":[[[121.83998160519954,13.479293368850675],[121.83993327298191,13.479208327183404],[121.83974087579222,13.47931065799292],[121.83978892441522,13.479399577187602],[121.83998160519954,13.479293368850675]]]}},{"type":"Feature","properties":{"Id":0,"CLN":"8495","PSGC":"174001019","Barangay":"Maligaya","Land_Class":"RESIDENTIAL","Area":0.0,"PIN":"030-01-035-01-204","Owner":"MORALES, MA. JANINE M","TaxDecNo":"19968"},"geometry":{"type":"Polygon","coordinates":[[[121.84017397241767,13.479191921713236],[121.83998160519954,13.479293368850675],[121.84002993744957,13.47937841051081],[121.84022290165898,13.479268324482705],[121.84017397241767,13.479191921713236]]]}},{"type":"Feature","properties":{"Id":0,"CLN":"8495","PSGC":"174001019","Barangay":"Maligaya","Land_Class":"AGRICULTURAL","Area":0.0,"PIN":"030-01-035-01-203","Owner":"MORALES, JOVEN M","TaxDecNo":"19967"},"geometry":{"type":"Polygon","coordinates":[[[121.84017397241767,13.479191921713236],[121.84015809979633,13.479167136681522],[121.84011541452446,13.479111450847633],[121.83993327298191,13.479208327183404],[121.83998160519954,13.479293368850675],[121.84017397241767,13.479191921713236]]]}},{"type":"Feature","properties":{"Id":0,"CLN":"8436","PSGC":"174001019","Barangay":"Maligaya","Land_Class":"RESIDENTIAL","Area":0.0,"PIN":"030-01-035-01-219","Owner":"LUSLOS, WENCESLAO L. & LUSLOS, EMELITA L.","TaxDecNo":"19975"},"geometry":{"type":"Polygon","coordinates":[[[121.84065490315534,13.481217575150138],[121.84071264480787,13.481337995902564],[121.84092932131988,13.481262452030567],[121.84088196515962,13.481128211776982],[121.84065490315534,13.481217575150138]]]}},{"type":"Feature","properties":{"Id":0,"CLN":"8436","PSGC":"174001019","Barangay":"Maligaya","Land_Class":"AGRICULTURAL","Area":0.0,"PIN":"030-01-035-01-214","Owner":"JABAL, CIPRIANO","TaxDecNo":"19977"},"geometry":{"type":"Polygon","coordinates":[[[121.84071264480787,13.481337995902564],[121.84065490315534,13.481217575150138],[121.84042784099675,13.481306938303613],[121.84046417012236,13.481374365079043],[121.84051763734014,13.481450838863452],[121.84054791030826,13.481494734563498],[121.84058610200051,13.481476148019455],[121.84057156394066,13.481449768799626],[121.84073197316589,13.481384729299323],[121.84071264480787,13.481337995902564]]]}},{"type":"Feature","properties":{"Id":0,"CLN":"8421","PSGC":"174001019","Barangay":"Maligaya","Land_Class":"RESIDENTIAL","Area":0.0,"PIN":"030-01-035-01-192","Owner":"MORALES JR., ARTURO M.","TaxDecNo":"19956"},"geometry":{"type":"Polygon","coordinates":[[[121.84141372188277,13.482048788135105],[121.84148592546414,13.482143452488858],[121.84158429064327,13.48205436781971],[121.8415408548596,13.481975978796765],[121.84141372188277,13.482048788135105]]]}},{"type":"Feature","properties":{"Id":0,"CLN":"8509","PSGC":null,"Barangay":"Maligaya","Land_Class":"AGRICULTURAL","Area":0.0,"PIN":"030-01-035-01-053","Owner":"MAGALANG, TIMOTEO","TaxDecNo":"19818"},"geometry":{"type":"Polygon","coordinates":[[[121.83799470968478,13.477793459608359],[121.83850504747606,13.477783209402524],[121.83846479222461,13.477046537500131],[121.8381479370194,13.477017327534089],[121.83772997604011,13.477111237621099],[121.8379411377495,13.47767971223193],[121.83799470968478,13.477793459608359]]]}}]}