{"type":"FeatureCollection","name":"Malusak","crs":{"type":"name","properties":{"name":"urn:ogc:def:crs:OGC:1.3:CRS84"}},"features":[{"type":"Feature","properties":{"Id":0,"CLN":"18 RW","PSGC":"174001035","Barangay":"Malusak","Land_Class":null,"PIN":"030-01-001-41-","ALN":null,"Section":"41","Brgy_Code":"01"},"geometry":{"type":"Polygon","coordinates":[[[121.8405506553113,13.447192986223847],[121.8405867653805,13.447198632534386],[121.84063935761222,13.447057890732712],[121.84059616057027,13.447055966560264],[121.8405506553113,13.447192986223847]]]}},{"type":"Feature","properties":{"Id":0,"CLN":"17","PSGC":"174001035","Barangay":"Malusak","Land_Class":null,"PIN":"030-01-001-41-","ALN":"No ALN","Section":"41","Brgy_Code":"01"},"geometry":{"type":"Polygon","coordinates":[[[121.8405506553113,13.447192986223847],[121.84059616057027,13.447055966560264],[121.8405599789752,13.447053438142024],[121.84054007248677,13.447171017679128],[121.84053641630716,13.44719042973661],[121.8405506553113,13.447192986223847]]]}},{"type":"Feature","properties":{"Id":0,"CLN":"16","PSGC":"174001035","Barangay":"Malusak","Land_Class":"COMMERCIAL","PIN":"030-01-001-41-012","ALN":"012","Section":"41","Brgy_Code":"01","Owner":"SOLOMON, RONORIHAR","TaxDecNo":"01520"},"geometry":{"type":"Polygon","coordinates":[[[121.84054007248677,13.447171017679128],[121.8405599789752,13.447053438142024],[121.84034057970327,13.447051215632655],[121.84033713230188,13.447062491758107],[121.84054007248677,13.447171017679128]]]}},{"type":"Feature","properties":{"Id":0,"CLN":"8","PSGC":"174001035","Barangay":"Malusak","Land_Class":"COMMERCIAL","PIN":"030-01-001-41-009","ALN":"009","Section":"41","Brgy_Code":"01","Owner":"CHUA CUCO, ARSENIO A. & TAN, DEMETRIA","TaxDecNo":"01-01221"},"geometry":{"type":"Polygon","coordinates":[[[121.84053641630716,13.447190429736626],[121.84034753114506,13.44709527174707],[121.84034267902078,13.447163444278353],[121.84034654373147,13.44720975652122],[121.84035465647212,13.447306974432804],[121.84040076419433,13.447315157724931],[121.84040326994568,13.44735856601918],[121.84050103362841,13.447350159999823],[121.84054268112847,13.447345037997195],[121.8405506553113,13.447192986223847],[121.84053641630716,13.447190429736626]]]}},{"type":"Feature","properties":{"Id":0,"CLN":"9 RW","PSGC":"174001035","Barangay":"Malusak","Land_Class":null,"PIN":"030-01-001-41-","ALN":null,"Section":"41","Brgy_Code":"01"},"geometry":{"type":"Polygon","coordinates":[[[121.84054268112847,13.447345037997184],[121.84060603590666,13.447341787290394],[121.8405867653805,13.447198632534386],[121.8405506553113,13.447192986223847],[121.84054268112847,13.447345037997184]]]}},{"type":"Feature","properties":{"Id":0,"CLN":"12","PSGC":"174001035","Barangay":"Malusak","Land_Class":"RESIDENTIAL","PIN":"030-01-001-41-005","ALN":"005","Section":"41","Brgy_Code":"01","Owner":"MARAPIA, BENITO","TaxDecNo":"01508"},"geometry":{"type":"Polygon","coordinates":[[[121.84030305164585,13.447312936167048],[121.84022974294918,13.447310793218866],[121.84023457336893,13.4473914747602],[121.84033257432753,13.447383038396655],[121.84030305164585,13.447312936167048]]]}},{"type":"Feature","properties":{"Id":0,"CLN":"10","PSGC":"174001035","Barangay":"Malusak","Land_Class":"COMMERCIAL","PIN":"030-01-001-41-007","ALN":"007","Section":"41","Brgy_Code":"01","Owner":"CHUACUCO, ARSENIO A. & CHUACUCO, DEMETRIA T","TaxDecNo":"01512"},"geometry":{"type":"Polygon","coordinates":[[[121.84040326994568,13.447358566019197],[121.84040076419433,13.447315157724931],[121.84035465647212,13.447306974432804],[121.84030305164585,13.447312936167048],[121.84033257432753,13.447383038396655],[121.84032776052604,13.44744324027098],[121.8404100953592,13.447444505317845],[121.84040326994568,13.447358566019197]]]}},{"type":"Feature","properties":{"Id":0,"CLN":"7","PSGC":"174001035","Barangay":"Malusak","Land_Class":"COMMERCIAL","PIN":"030-01-001-41-008","ALN":"008","Section":"41","Brgy_Code":"01","Owner":"CHUACUCO, ARSENIO A.","TaxDecNo":"01514"},"geometry":{"type":"Polygon","coordinates":[[[121.8404100953592,13.447444505317845],[121.84050694573325,13.447437866386352],[121.84050103362841,13.447350159999804],[121.84040326994568,13.447358566019197],[121.8404100953592,13.447444505317845]]]}},{"type":"Feature","properties":{"Id":0,"CLN":"5 RW","PSGC":"174001035","Barangay":"Malusak","Land_Class":null,"PIN":"030-01-001-41-","ALN":null,"Section":"41","Brgy_Code":"01"},"geometry":{"type":"Polygon","coordinates":[[[121.84060603590666,13.447341787290394],[121.84054268112847,13.447345037997184],[121.84056376711146,13.447558661997414],[121.84062586308126,13.447546463316959],[121.84060603590666,13.447341787290394]]]}},{"type":"Feature","properties":{"Id":0,"CLN":"4","PSGC":"174001035","Barangay":"Malusak","Land_Class":"COMMERCIAL","PIN":"030-01-001-41-002","ALN":"002","Section":"41","Brgy_Code":"01","Owner":"CHUACUCO, ARSENIO A.","TaxDecNo":"01505"},"geometry":{"type":"Polygon","coordinates":[[[121.84056376711146,13.447558661997396],[121.84054268112847,13.447345037997184],[121.84050103362841,13.447350159999804],[121.84050694573325,13.447437866386352],[121.84051175282606,13.447567193134349],[121.84056376711146,13.447558661997396]]]}},{"type":"Feature","properties":{"Id":0,"CLN":"6","PSGC":"174001035","Barangay":"Malusak","Land_Class":"COMMERCIAL","PIN":"030-01-001-41-003","ALN":"003","Section":"41","Brgy_Code":"01","Owner":"CHUACUCO, ARSENIO A.","TaxDecNo":"01507"},"geometry":{"type":"Polygon","coordinates":[[[121.84040856436016,13.447574688506457],[121.84051175282606,13.447567193134349],[121.84050694573325,13.447437866386352],[121.8404100953592,13.447444505317845],[121.84040856436016,13.447574688506457]]]}},{"type":"Feature","properties":{"Id":0,"CLN":"11 pt","PSGC":"174001035","Barangay":"Malusak","Land_Class":"COMMERCIAL","PIN":"030-01-001-41-043","ALN":"043","Section":"41","Brgy_Code":"01","Owner":"LAVAYNA, JHON ODFJELL BANIAGA","TaxDecNo":"01568"},"geometry":{"type":"Polygon","coordinates":[[[121.8402405156477,13.447490095316423],[121.84034343928408,13.447486485088087],[121.84034152964134,13.447443451830654],[121.84032776052604,13.44744324027098],[121.8402379127265,13.447447004672528],[121.8402405156477,13.447490095316423]]]}},{"type":"Feature","properties":{"Id":0,"CLN":"3 RW","PSGC":"174001035","Barangay":"Malusak","Land_Class":null,"PIN":"030-01-001-41-","ALN":null,"Section":"41","Brgy_Code":"01"},"geometry":{"type":"Polygon","coordinates":[[[121.8405866728941,13.44779072230318],[121.84058374888711,13.447761098970117],[121.83967623567861,13.447810429012124],[121.83968069790676,13.447839684781329],[121.8405866728941,13.44779072230318]]]}},{"type":"Feature","properties":{"Id":0,"CLN":"1","PSGC":"174001035","Barangay":"Malusak","Land_Class":"RESIDENTIAL","PIN":"030-01-001-41-001","ALN":"001","Section":"41","Brgy_Code":"01","Owner":"MUNICIPALITY OF BOAC","TaxDecNo":"01503"},"geometry":{"type":"Polygon","coordinates":[[[121.84058374888711,13.447761098970117],[121.84056376711146,13.447558661997414],[121.84051175282606,13.447567193134365],[121.84040856436016,13.447574688506457],[121.84024568721829,13.4475757092305],[121.84021266249187,13.447576661386199],[121.84017962642531,13.447577176074198],[121.83995339445732,13.447581447202463],[121.83989184927215,13.447584706081411],[121.8397696594641,13.44759211359347],[121.83964386313889,13.447596847473124],[121.83967623567861,13.447810429012124],[121.84058374888711,13.447761098970117]]]}},{"type":"Feature","properties":{"Id":0,"CLN":"28 pt","PSGC":"174001035","Barangay":"Malusak","Land_Class":"RESIDENTIAL","PIN":"030-01-001-41-036","ALN":"036","Section":"41","Brgy_Code":"01","Owner":"THE NATIONAL MUSEUM","TaxDecNo":"01560"},"geometry":{"type":"Polygon","coordinates":[[[121.84016843855504,13.447421671795146],[121.83994089627659,13.447435169067765],[121.83995339445732,13.447581447202463],[121.84017962642531,13.447577176074198],[121.84016843855504,13.447421671795146]]]}},{"type":"Feature","properties":{"Id":0,"CLN":"30 pt","PSGC":"174001035","Barangay":"Malusak","Land_Class":"RESIDENTIAL","PIN":"030-01-001-41-030","ALN":"030","Section":"41","Brgy_Code":"01","Owner":"OLIVAR, CAROLINA","TaxDecNo":"01552"},"geometry":{"type":"Polygon","coordinates":[[[121.84003859169658,13.447322854814397],[121.84006010630006,13.447321609851226],[121.8400457777889,13.447198673433052],[121.84002036564118,13.447202698646832],[121.84003859169658,13.447322854814397]]]}},{"type":"Feature","properties":{"Id":0,"CLN":"31","PSGC":"174001035","Barangay":"Malusak","Land_Class":"RESIDENTIAL","PIN":"030-01-001-41-014","ALN":"014","Section":"41","Brgy_Code":"01","Owner":"MUNICIPAL GOVERNMENT OF BOAC","TaxDecNo":"01525"},"geometry":{"type":"Polygon","coordinates":[[[121.84008031125714,13.4473204406703],[121.84016036196901,13.447315808436175],[121.84015613729323,13.44725900958275],[121.84007530534315,13.447263575195333],[121.84008031125714,13.4473204406703]]]}},{"type":"Feature","properties":{"Id":0,"CLN":"32","PSGC":"174001035","Barangay":"Malusak","Land_Class":"COMMERCIAL","PIN":"030-01-001-41-013","ALN":"013","Section":"41","Brgy_Code":"01","Owner":"LACOSTA, JOSE & LACOSTA, SALOME","TaxDecNo":"01523"},"geometry":{"type":"Polygon","coordinates":[[[121.84007530534315,13.447263575195333],[121.84015613729323,13.44725900958275],[121.84014735204863,13.447138631640469],[121.84006884803686,13.447142028071957],[121.84006926449487,13.447194953201455],[121.84007530534315,13.447263575195333]]]}},{"type":"Feature","properties":{"Id":0,"CLN":"33","PSGC":"174001035","Barangay":"Malusak","Land_Class":"RESIDENTIAL","PIN":"030-01-001-41-017","ALN":"017","Section":"41","Brgy_Code":"01","Owner":"MARASIGAN, PIO & MARASIGAN, MARIETTA N.","TaxDecNo":"01528"},"geometry":{"type":"Polygon","coordinates":[[[121.84002036564118,13.447202698646814],[121.84006926449487,13.447194953201455],[121.84006884803686,13.447142028071957],[121.84000687577128,13.447144475258026],[121.84002036564118,13.447202698646814]]]}},{"type":"Feature","properties":{"Id":0,"CLN":"34","PSGC":"174001035","Barangay":"Malusak","Land_Class":"RESIDENTIAL","PIN":"030-01-001-41-029","ALN":"029","Section":"41","Brgy_Code":"01","Owner":"OLIVAR, MAY BERNADETH H.","TaxDecNo":"01550"},"geometry":{"type":"Polygon","coordinates":[[[121.83992365587183,13.447232392668461],[121.84000574783904,13.447231857646468],[121.84000405750065,13.447207051716102],[121.84002036564118,13.447202698646814],[121.84000687577128,13.447144475258026],[121.83991657080692,13.447148195687266],[121.83992365587183,13.447232392668461]]]}},{"type":"Feature","properties":{"Id":0,"CLN":"29 pt","PSGC":"174001035","Barangay":"Malusak","Land_Class":"RESIDENTIAL","PIN":"030-01-001-41-040","ALN":"040","Section":"41","Brgy_Code":"01","Owner":"OLIVAR, JOSELITO","TaxDecNo":"01566"},"geometry":{"type":"Polygon","coordinates":[[[121.84000976727577,13.447281205379083],[121.84000574783904,13.447231857646468],[121.83992365587183,13.447232392668461],[121.83992805916442,13.44728435003017],[121.84000976727577,13.447281205379083]]]}},{"type":"Feature","properties":{"Id":0,"CLN":"75","PSGC":"174001035","Barangay":"Malusak","Land_Class":"COMMERCIAL","PIN":"030-01-001-41-024","ALN":"024","Section":"41","Brgy_Code":"01","Owner":"CHI, VENCHITO L.","TaxDecNo":"01541"},"geometry":{"type":"Polygon","coordinates":[[[121.83964386313889,13.447596847473124],[121.83976965946408,13.447592113593451],[121.83975643461655,13.447444464270255],[121.83962509691045,13.447447430474401],[121.83964386313889,13.447596847473124]]]}},{"type":"Feature","properties":{"Id":0,"CLN":"74","PSGC":"174001035","Barangay":"Malusak","Land_Class":"RESIDENTIAL","PIN":"030-01-001-41-025","ALN":"025","Section":"41","Brgy_Code":"01","Owner":"MIRAFUENTE, JOSE","TaxDecNo":"01543"},"geometry":{"type":"Polygon","coordinates":[[[121.83975643461655,13.447444464270255],[121.83974841602759,13.447353822539288],[121.83974490602363,13.447342846465881],[121.83961206166737,13.4473432303124],[121.83962509691045,13.447447430474401],[121.83975643461655,13.447444464270255]]]}},{"type":"Feature","properties":{"Id":0,"CLN":"71","PSGC":"174001035","Barangay":"Malusak","Land_Class":"RESIDENTIAL","PIN":"030-01-001-41-026","ALN":"026","Section":"41","Brgy_Code":"01","Owner":"PRUDENCIO, DENISE ANGELO M.","TaxDecNo":"01545"},"geometry":{"type":"Polygon","coordinates":[[[121.83961206166734,13.447343230312386],[121.83974490602361,13.44734284646587],[121.83973161231988,13.447249626104204],[121.8395982806312,13.447245524109068],[121.83961206166734,13.447343230312386]]]}},{"type":"Feature","properties":{"Id":0,"CLN":"69","PSGC":"174001035","Barangay":"Malusak","Land_Class":"COMMERCIAL","PIN":"030-01-001-41-021","ALN":"021","Section":"41","Brgy_Code":"01","Owner":"LABAGUIS, FRANCISCO M. & LABAGUIS, LEILANIE S.","TaxDecNo":"01535"},"geometry":{"type":"Polygon","coordinates":[[[121.83974285986555,13.447239216246473],[121.83979218378931,13.44724890900627],[121.83979109560306,13.447157737623174],[121.83973155167313,13.447156466752611],[121.83974285986555,13.447239216246473]]]}},{"type":"Feature","properties":{"Id":0,"CLN":"68","PSGC":"174001035","Barangay":"Malusak","Land_Class":"RESIDENTIAL","PIN":"030-01-001-41-020","ALN":"020","Section":"41","Brgy_Code":"01","Owner":"GERONIMO, MALVAR","TaxDecNo":"01533"},"geometry":{"type":"Polygon","coordinates":[[[121.83979218378931,13.44724890900627],[121.83985660467599,13.447240572611406],[121.83984762650583,13.447150525582826],[121.83979109560306,13.447157737623174],[121.83979218378931,13.44724890900627]]]}},{"type":"Feature","properties":{"Id":0,"CLN":"70","PSGC":"174001035","Barangay":"Malusak","Land_Class":"COMMERCIAL","PIN":"030-01-001-41-027","ALN":"027","Section":"41","Brgy_Code":"01","Owner":"SANTOS, REALINO NEPOMUCENO","TaxDecNo":"01547"},"geometry":{"type":"Polygon","coordinates":[[[121.83973161231988,13.447249626104204],[121.83974285986555,13.447239216246473],[121.83973155167313,13.447156466752611],[121.83960053960283,13.447168778877622],[121.8395982806312,13.447245524109068],[121.83973161231988,13.447249626104204]]]}},{"type":"Feature","properties":{"Id":0,"CLN":"72","PSGC":"174001035","Barangay":"Malusak","Land_Class":"RESIDENTIAL","PIN":"030-01-001-41-022","ALN":"022","Section":"41","Brgy_Code":"01","Owner":"DEMORET, ROSIE QUINDOZA","TaxDecNo":"01537"},"geometry":{"type":"Polygon","coordinates":[[[121.83973161231988,13.447249626104204],[121.83974490602361,13.44734284646587],[121.83974841602759,13.447353822539288],[121.83986573743104,13.44732867125955],[121.83985660467599,13.447240572611406],[121.83979218378931,13.44724890900627],[121.83974285986555,13.447239216246473],[121.83973161231988,13.447249626104204]]]}},{"type":"Feature","properties":{"Id":0,"CLN":"46 pt","PSGC":"174001035","Barangay":"Malusak","Land_Class":"RESIDENTIAL","PIN":"030-01-001-44-044","ALN":"044","Section":"44","Brgy_Code":"01","Owner":"MALUBAG, WILFREDO","TaxDecNo":"01688"},"geometry":{"type":"Polygon","coordinates":[[[121.83951310441383,13.446910778369393],[121.83950102851927,13.446817704522754],[121.83941315415352,13.446839440488612],[121.83942097268934,13.446922603040285],[121.83951310441383,13.446910778369393]]]}},{"type":"Feature","properties":{"Id":0,"CLN":"47","PSGC":"174001035","Barangay":"Malusak","Land_Class":"RESIDENTIAL","PIN":"030-01-001-44-023","ALN":"023","Section":"44","Brgy_Code":"01","Owner":"PITERO, AURORA M.","TaxDecNo":"30800"},"geometry":{"type":"Polygon","coordinates":[[[121.83942097268934,13.446922603040285],[121.83941315415352,13.446839440488612],[121.83931163495474,13.446876169502632],[121.83936755310454,13.44700679532343],[121.83942866507822,13.447000699895709],[121.83942097268934,13.446922603040285]]]}},{"type":"Feature","properties":{"Id":0,"CLN":"49","PSGC":"174001035","Barangay":"Malusak","Land_Class":"RESIDENTIAL","PIN":"030-01-001-44-022","ALN":"022","Section":"44","Brgy_Code":"01","Owner":"PAMPOLA, FEDERICO L.","TaxDecNo":"01671"},"geometry":{"type":"Polygon","coordinates":[[[121.83929709996626,13.44705451427407],[121.83930516461444,13.44705550910983],[121.83937068769096,13.44703533494085],[121.83936755310454,13.44700679532343],[121.83931163495474,13.446876169502632],[121.83927031786918,13.446925610638198],[121.83929709996626,13.44705451427407]]]}},{"type":"Feature","properties":{"Id":0,"CLN":"56 pt","PSGC":"174001035","Barangay":"Malusak","Land_Class":"RESIDENTIAL","PIN":"030-01-001-44-027","ALN":"027","Section":"44","Brgy_Code":"01","Owner":"PAMPOLA, FEDERICO L.","TaxDecNo":"01675"},"geometry":{"type":"Polygon","coordinates":[[[121.83923065514398,13.446973125559],[121.83925732582887,13.447070442871683],[121.83930516461444,13.44705550910983],[121.83929709996626,13.44705451427407],[121.83927031786918,13.446925610638198],[121.83923065514398,13.446973125559]]]}},{"type":"Feature","properties":{"Id":0,"CLN":"60","PSGC":"174001035","Barangay":"Malusak","Land_Class":"RESIDENTIAL","PIN":"030-01-001-44-019","ALN":"019","Section":"44","Brgy_Code":"01","Owner":"JALOTJOT, ALITA M.","TaxDecNo":"30402"},"geometry":{"type":"Polygon","coordinates":[[[121.83921200299743,13.447084722814575],[121.8391951439429,13.447015564538855],[121.83915478347019,13.44704409993854],[121.8391656639617,13.447147744166523],[121.83922438910834,13.447143232687111],[121.83921200299743,13.447084722814575]]]}},{"type":"Feature","properties":{"Id":0,"CLN":"62","PSGC":"174001035","Barangay":"Malusak","Land_Class":"RESIDENTIAL","PIN":"030-01-001-44-018","ALN":"018","Section":"44","Brgy_Code":"01","Owner":"MENDOZA, RODELITO M.","TaxDecNo":"01664"},"geometry":{"type":"Polygon","coordinates":[[[121.8391656639617,13.447147744166523],[121.83915478347019,13.44704409993854],[121.8391025321519,13.447081560915413],[121.83911040353549,13.447151997208863],[121.8391656639617,13.447147744166523]]]}},{"type":"Feature","properties":{"Id":0,"CLN":"64","PSGC":"174001035","Barangay":"Malusak","Land_Class":"COMMERCIAL","PIN":"030-01-001-44-017","ALN":"017","Section":"44","Brgy_Code":"01","Owner":"SOSA, LUNA","TaxDecNo":"01661"},"geometry":{"type":"Polygon","coordinates":[[[121.8391025321519,13.447081560915413],[121.83905713319368,13.447114120449363],[121.83906236170301,13.447155770004294],[121.83911040353549,13.447151997208863],[121.8391025321519,13.447081560915413]]]}},{"type":"Feature","properties":{"Id":0,"CLN":"65 RW","PSGC":"174001035","Barangay":"Malusak","Land_Class":null,"PIN":"030-01-001-44-","ALN":null,"Section":"44","Brgy_Code":"01"},"geometry":{"type":"Polygon","coordinates":[[[121.83906236170301,13.447155770004272],[121.83905713319368,13.447114120449342],[121.8390344443716,13.447128186143141],[121.83903248546271,13.447159174770535],[121.83906236170301,13.447155770004272]]]}},{"type":"Feature","properties":{"Id":0,"CLN":"83","PSGC":"174001035","Barangay":"Malusak","Land_Class":"COMMERCIAL","PIN":"030-01-001-44-004","ALN":"004","Section":"44","Brgy_Code":"01","Owner":"MARINDUQUE ELECTRIC COOPERATIVE, INC. (MARELCO)","TaxDecNo":"01644"},"geometry":{"type":"Polygon","coordinates":[[[121.8393477365679,13.447618748580494],[121.83941110846253,13.44761195566998],[121.83940695524964,13.447534885172304],[121.83933816721492,13.447538996160638],[121.8393477365679,13.447618748580494]]]}},{"type":"Feature","properties":{"Id":0,"CLN":"81 pt","PSGC":"174001035","Barangay":"Malusak","Land_Class":"RESIDENTIAL","PIN":"030-01-001-44-006","ALN":"006","Section":"44","Brgy_Code":"01","Owner":"MOLDOGO, MIGUEL","TaxDecNo":"01-01295"},"geometry":{"type":"Polygon","coordinates":[[[121.83955095091079,13.447344687811485],[121.83948950039755,13.447348504133933],[121.83948557413527,13.447299605897955],[121.83942345425734,13.447302921580523],[121.83938721012255,13.447313382201951],[121.839388844973,13.447349701294863],[121.83940695524964,13.447534885172304],[121.83941110846253,13.44761195566998],[121.8395794699561,13.447599447358328],[121.83955095091079,13.447344687811485]]]}},{"type":"Feature","properties":{"Id":0,"CLN":"82","PSGC":"174001035","Barangay":"Malusak","Land_Class":"COMMERCIAL","PIN":"030-01-001-44-005","ALN":"005","Section":"44","Brgy_Code":"01","Owner":"ASUNCION, REMEDIOS L.","TaxDecNo":"01646"},"geometry":{"type":"Polygon","coordinates":[[[121.83933816721492,13.447538996160638],[121.83940695524964,13.447534885172304],[121.839388844973,13.447349701294847],[121.83931280986803,13.447355550152931],[121.83933816721492,13.447538996160638]]]}},{"type":"Feature","properties":{"Id":0,"CLN":"80 pt","PSGC":"174001035","Barangay":"Malusak","Land_Class":"COMMERCIAL","PIN":"030-01-001-44-033","ALN":"033","Section":"44","Brgy_Code":"01","Owner":"SPS. MICHAEL MAGAHIS AND AIREEN MAGAHIS","TaxDecNo":"31684"},"geometry":{"type":"Polygon","coordinates":[[[121.83941721442469,13.447277016384778],[121.8393825738247,13.447282835146801],[121.83938458080009,13.447302740196552],[121.83930755274008,13.44731402849991],[121.83931280986805,13.447355550152931],[121.839388844973,13.447349701294863],[121.83938721012255,13.447313382201951],[121.83942345425734,13.447302921580523],[121.83941721442469,13.447277016384778]]]}},{"type":"Feature","properties":{"Id":0,"CLN":"77","PSGC":"174001035","Barangay":"Malusak","Land_Class":"RESIDENTIAL","PIN":"030-01-001-44-008","ALN":"008","Section":"44","Brgy_Code":"01","Owner":"ABIN, AGUSTIN","TaxDecNo":"01-01296"},"geometry":{"type":"Polygon","coordinates":[[[121.83942345425734,13.447302921580482],[121.83954563965169,13.447296399853368],[121.83954055172893,13.447225524576897],[121.83941293316296,13.447232906895671],[121.83941192175733,13.447255043422578],[121.83942345425734,13.447302921580482]]]}},{"type":"Feature","properties":{"Id":0,"CLN":"79","PSGC":"174001035","Barangay":"Malusak","Land_Class":"COMMERCIAL","PIN":"030-01-001-44-011","ALN":"011","Section":"44","Brgy_Code":"01","Owner":"MALVAR, MARCOS","TaxDecNo":"01656"},"geometry":{"type":"Polygon","coordinates":[[[121.83930147778179,13.447266047478005],[121.8393422119246,13.447262692757674],[121.8393275295296,13.447189652666713],[121.83929096951499,13.44719337590703],[121.83930147778179,13.447266047478005]]]}},{"type":"Feature","properties":{"Id":0,"CLN":"78","PSGC":"174001035","Barangay":"Malusak","Land_Class":"COMMERCIAL","PIN":"030-01-001-44-010","ALN":"010","Section":"44","Brgy_Code":"01","Owner":"CASTILLO, ROBERT N.","TaxDecNo":"01654"},"geometry":{"type":"Polygon","coordinates":[[[121.8393422119246,13.447262692757674],[121.83941192175733,13.447255043422578],[121.83941293316296,13.447232906895671],[121.83940232254427,13.447181490398346],[121.8393275295296,13.447189652666713],[121.8393422119246,13.447262692757674]]]}},{"type":"Feature","properties":{"Id":0,"CLN":"76","PSGC":"174001035","Barangay":"Malusak","Land_Class":"RESIDENTIAL","PIN":"030-01-001-44-009","ALN":"009","Section":"44","Brgy_Code":"01","Owner":"ROBLES, LYDIA","TaxDecNo":"01652"},"geometry":{"type":"Polygon","coordinates":[[[121.83941293316296,13.447232906895671],[121.83954055172893,13.447225524576897],[121.8395326683429,13.447171463715778],[121.83940232254427,13.447181490398346],[121.83941293316296,13.447232906895671]]]}},{"type":"Feature","properties":{"Id":0,"CLN":"85","PSGC":"174001035","Barangay":"Malusak","Land_Class":"COMMERCIAL","PIN":"030-01-001-44-016","ALN":"016","Section":"44","Brgy_Code":"01","Owner":"BUHAIN, FE MADRIGAL","TaxDecNo":"01660"},"geometry":{"type":"Polygon","coordinates":[[[121.83915844307262,13.447280443743377],[121.83914979140337,13.447198038610459],[121.83906286860862,13.447210036706549],[121.8390705727785,13.447301293944744],[121.8391592711412,13.447296389219465],[121.83915844307262,13.447280443743377]]]}},{"type":"Feature","properties":{"Id":0,"CLN":"86 RW","PSGC":"174001035","Barangay":"Malusak","Land_Class":null,"PIN":"030-01-001-44-","ALN":null,"Section":"44","Brgy_Code":"01"},"geometry":{"type":"Polygon","coordinates":[[[121.83903618519271,13.447302020956007],[121.8390705727785,13.447301293944744],[121.83906286860862,13.447210036706549],[121.83902394412253,13.44721339973048],[121.83903618519271,13.447302020956007]]]}},{"type":"Feature","properties":{"Id":0,"CLN":"88 pt","PSGC":"174001035","Barangay":"Malusak","Land_Class":"COMMERCIAL","PIN":"030-01-001-44-030","ALN":"030","Section":"44","Brgy_Code":"01","Owner":"LOZANO, LALAINE M.","TaxDecNo":"29793"},"geometry":{"type":"Polygon","coordinates":[[[121.83917698737275,13.447346714739798],[121.83917586831562,13.447331062294516],[121.83917311086486,13.447279345197318],[121.83915844307265,13.447280443743393],[121.8391592711412,13.44729638921948],[121.8390705727785,13.447301293944786],[121.8390758689565,13.447352306254544],[121.83917698737275,13.447346714739798]]]}},{"type":"Feature","properties":{"Id":0,"CLN":"91 RW","PSGC":"174001035","Barangay":"Malusak","Land_Class":null,"PIN":"030-01-001-44-","ALN":null,"Section":"44","Brgy_Code":"01"},"geometry":{"type":"Polygon","coordinates":[[[121.83905759464665,13.447553643623351],[121.83909561009837,13.447551162052537],[121.83908354384702,13.447426230086037],[121.83904372303037,13.447427817680401],[121.83905759464665,13.447553643623351]]]}},{"type":"Feature","properties":{"Id":0,"CLN":"94 RW","PSGC":"174001035","Barangay":"Malusak","Land_Class":null,"PIN":"030-01-001-44-","ALN":null,"Section":"44","Brgy_Code":"01"},"geometry":{"type":"Polygon","coordinates":[[[121.83906359151543,13.447623637443176],[121.83910070215279,13.447621151698316],[121.83909561009837,13.447551162052537],[121.83905759464665,13.447553643623351],[121.83906359151543,13.447623637443176]]]}},{"type":"Feature","properties":{"Id":0,"CLN":"93","PSGC":"174001035","Barangay":"Malusak","Land_Class":"COMMERCIAL","PIN":"030-01-001-44-001","ALN":"001","Section":"44","Brgy_Code":"01","Owner":"LUZ M., AIDA M., VILMA M. & OSCAR M. JANDUSAY","TaxDecNo":"01639"},"geometry":{"type":"Polygon","coordinates":[[[121.83910070215279,13.447621151698316],[121.83920478266701,13.447616317924945],[121.83918128623915,13.447422252725017],[121.83912120251955,13.44742492966365],[121.83912525569268,13.447487439314717],[121.83911767966649,13.447489173036542],[121.83912185855785,13.447549511842714],[121.83909561009837,13.447551162052537],[121.83910070215279,13.447621151698316]]]}},{"type":"Feature","properties":{"Id":0,"CLN":"90","PSGC":"174001035","Barangay":"Malusak","Land_Class":null,"PIN":"030-01-001-44-002","ALN":"002","Section":"44","Brgy_Code":"01"},"geometry":{"type":"Polygon","coordinates":[[[121.83912525569268,13.447487439314717],[121.83912120251955,13.44742492966365],[121.83908354384702,13.447426230086037],[121.83909561009837,13.447551162052537],[121.83912185855785,13.447549511842714],[121.83911767966649,13.447489173036542],[121.83912525569268,13.447487439314717]]]}},{"type":"Feature","properties":{"Id":0,"CLN":"92","PSGC":"174001035","Barangay":"Malusak","Land_Class":"COMMERCIAL","PIN":"030-01-001-44-003","ALN":"003","Section":"44","Brgy_Code":"01","Owner":"HRS. OF PRESENTACION MAGTURO","TaxDecNo":"01641"},"geometry":{"type":"Polygon","coordinates":[[[121.83920478266701,13.447616317924945],[121.83928896981156,13.447608735411075],[121.83926639519565,13.447411131875121],[121.8392118718481,13.447416526017667],[121.83918128623915,13.447422252725017],[121.83920478266701,13.447616317924945]]]}},{"type":"Feature","properties":{"Id":0,"CLN":"84","PSGC":"174001035","Barangay":"Malusak","Land_Class":"COMMERCIAL","PIN":"030-01-001-44-013","ALN":"013","Section":"44","Brgy_Code":"01","Owner":"MAYANGITAN, KIM JOEMER L.","TaxDecNo":"01658"},"geometry":{"type":"Polygon","coordinates":[[[121.83915844307262,13.447280443743377],[121.83917311086486,13.447279345197318],[121.839239110441,13.447274282326546],[121.83922974715014,13.4471939645166],[121.83914979140337,13.447198038610459],[121.83915844307262,13.447280443743377]]]}},{"type":"Feature","properties":{"Id":0,"CLN":"42 pt","PSGC":"174001035","Barangay":"Malusak","Land_Class":"RESIDENTIAL","PIN":"030-01-001-42-012","ALN":"012","Section":"42","Brgy_Code":"01","Owner":"BRIONES, ADAM & BRIONES, MARIE JOY MABUNGA","TaxDecNo":"01594"},"geometry":{"type":"Polygon","coordinates":[[[121.83971528756835,13.446896647100095],[121.83970535594278,13.446785657758975],[121.83955264603219,13.446809086061618],[121.83956432410575,13.446910781030727],[121.83966359581261,13.446901496115231],[121.83971528756835,13.446896647100095]]]}},{"type":"Feature","properties":{"Id":0,"CLN":"37","PSGC":"174001035","Barangay":"Malusak","Land_Class":"RESIDENTIAL","PIN":"030-01-001-42-005","ALN":"005","Section":"42","Brgy_Code":"01","Owner":"VARUA, LETICIA LAZARTE","TaxDecNo":"30585"},"geometry":{"type":"Polygon","coordinates":[[[121.8398309691579,13.446885649330385],[121.8398417602123,13.447087626772369],[121.8399168733638,13.44708531608808],[121.83992066647093,13.446860898222189],[121.83983222343102,13.446813031993294],[121.8398309691579,13.446885649330385]]]}},{"type":"Feature","properties":{"Id":0,"CLN":"36","PSGC":"174001035","Barangay":"Malusak","Land_Class":"RESIDENTIAL","PIN":"030-01-001-42-006","ALN":"006","Section":"42","Brgy_Code":"01","Owner":"JULIETA, ROSIE & SUSAN QUINDOZA","TaxDecNo":"01583"},"geometry":{"type":"Polygon","coordinates":[[[121.8399168733638,13.44708531608808],[121.8400136852412,13.44708664798939],[121.84003603375179,13.446923176916165],[121.83992066647093,13.446860898222189],[121.8399168733638,13.44708531608808]]]}},{"type":"Feature","properties":{"Id":0,"CLN":"35","PSGC":"174001035","Barangay":"Malusak","Land_Class":"RESIDENTIAL","PIN":"030-01-001-42-007","ALN":"007","Section":"42","Brgy_Code":"01","Owner":"LUTAO, MAXIMO","TaxDecNo":"01585"},"geometry":{"type":"Polygon","coordinates":[[[121.8400136852412,13.44708664798939],[121.84013585775205,13.447082782850085],[121.84013636475515,13.446977393090393],[121.84003603375179,13.446923176916165],[121.8400136852412,13.44708664798939]]]}},{"type":"Feature","properties":{"Id":0,"CLN":"58 pt","PSGC":"174001035","Barangay":"Malusak","Land_Class":"RESIDENTIAL","PIN":"030-01-001-43-007","ALN":"007","Section":"43","Brgy_Code":"01","Owner":"MARINDUQUE NATIONAL HIGH SCHOOL., A PUBLIC INSTITUTION","TaxDecNo":"32796"},"geometry":{"type":"Polygon","coordinates":[[[121.83893561595072,13.446035426331173],[121.83981869518384,13.446109346891335],[121.84011459557975,13.446129064404792],[121.84008739607881,13.445062498967477],[121.84005233779448,13.44503015622045],[121.83991233830048,13.445032281799223],[121.83884916012215,13.445060633338448],[121.83893561595072,13.446035426331173]]]}},{"type":"Feature","properties":{"Id":0,"CLN":"108 RW","PSGC":"174001035","Barangay":"Malusak","Land_Class":null,"PIN":"030-01-001-45-","ALN":null,"Section":"45","Brgy_Code":"01"},"geometry":{"type":"Polygon","coordinates":[[[121.83907859897832,13.447889400932656],[121.83914013144242,13.447888799143497],[121.83913852221956,13.44784716628611],[121.83911498394183,13.447849714645077],[121.83910705193122,13.447745224678016],[121.83907656684814,13.447747687955001],[121.83907859897832,13.447889400932656]]]}},{"type":"Feature","properties":{"Id":0,"CLN":"104 RW","PSGC":"174001035","Barangay":"Malusak","Land_Class":null,"PIN":"030-01-001-45-","ALN":null,"Section":"45","Brgy_Code":"01"},"geometry":{"type":"Polygon","coordinates":[[[121.83914013144242,13.447888799143497],[121.83920530027034,13.44788467152281],[121.83920187285507,13.44784480157315],[121.83913852221956,13.44784716628611],[121.83914013144242,13.447888799143497]]]}},{"type":"Feature","properties":{"Id":0,"CLN":"102 RW","PSGC":"174001035","Barangay":"Malusak","Land_Class":null,"PIN":"030-01-001-45-","ALN":null,"Section":"45","Brgy_Code":"01"},"geometry":{"type":"Polygon","coordinates":[[[121.83920530027034,13.44788467152281],[121.8393130257893,13.447874540641315],[121.83930688814097,13.447833772543659],[121.83920187285507,13.44784480157315],[121.83920530027034,13.44788467152281]]]}},{"type":"Feature","properties":{"Id":0,"CLN":"101 pt","PSGC":"174001035","Barangay":"Malusak","Land_Class":"COMMERCIAL","PIN":"030-01-001-45-011","ALN":"011","Section":"45","Brgy_Code":"01","Owner":"ZENCO SALES INC.","TaxDecNo":"01717"},"geometry":{"type":"Polygon","coordinates":[[[121.83929854087862,13.447764486320294],[121.83919639200009,13.447763339565041],[121.83920187285509,13.447844801573172],[121.839306888141,13.44783377254366],[121.83929854087862,13.447764486320294]]]}},{"type":"Feature","properties":{"Id":0,"CLN":"103 pt","PSGC":"174001035","Barangay":"Malusak","Land_Class":"COMMERCIAL","PIN":"030-01-001-45-009","ALN":"009","Section":"45","Brgy_Code":"01","Owner":"SURLA, SOFIA MIRAFUENTE","TaxDecNo":"01713"},"geometry":{"type":"Polygon","coordinates":[[[121.83915693857482,13.447780827674844],[121.83919749984582,13.447779805490562],[121.83919173986054,13.4476941947477],[121.83913260368467,13.447692151189443],[121.83914898277361,13.447741822483373],[121.83915712620693,13.447741860048442],[121.83915693857482,13.447780827674844]]]}},{"type":"Feature","properties":{"Id":0,"CLN":"105","PSGC":"174001035","Barangay":"Malusak","Land_Class":"COMMERCIAL","PIN":"030-01-001-45-001","ALN":"001","Section":"45","Brgy_Code":"01","Owner":"MIRAFUENTE, MOISES","TaxDecNo":"01699"},"geometry":{"type":"Polygon","coordinates":[[[121.83910705193122,13.447745224678016],[121.83911498394183,13.447849714645077],[121.83913852221956,13.44784716628611],[121.83913701960795,13.447783392731981],[121.83915693857482,13.447780827674844],[121.83915712620693,13.447741860048426],[121.83914898277361,13.447741822483357],[121.83910705193122,13.447745224678016]]]}},{"type":"Feature","properties":{"Id":0,"CLN":"106","PSGC":"174001035","Barangay":"Malusak","Land_Class":"COMMERCIAL","PIN":"030-01-001-45-010","ALN":"010","Section":"45","Brgy_Code":"01","Owner":"MELENDEZ, LAURO","TaxDecNo":"01715"},"geometry":{"type":"Polygon","coordinates":[[[121.83910705193122,13.447745224678016],[121.83914898277361,13.447741822483357],[121.83913260368467,13.447692151189443],[121.8391012523711,13.447691070259648],[121.83910705193122,13.447745224678016]]]}},{"type":"Feature","properties":{"Id":0,"CLN":"107 RW","PSGC":"174001035","Barangay":"Malusak","Land_Class":null,"PIN":"030-01-001-45-","ALN":null,"Section":"45","Brgy_Code":"01"},"geometry":{"type":"Polygon","coordinates":[[[121.839076686082,13.447747688505055],[121.83910705193122,13.447745224678016],[121.8391012523711,13.447691070259648],[121.83907412957313,13.447690109622195],[121.83907656684814,13.447747687955001],[121.839076686082,13.447747688505055]]]}},{"type":"Feature","properties":{"Id":0,"CLN":"100 RW","PSGC":"174001035","Barangay":"Malusak","Land_Class":"COMMERCIAL","PIN":"030-01-001-45-","ALN":null,"Section":"45","Brgy_Code":"01","Owner":"ORLINA, EDUARDO","TaxDecNo":"28939"},"geometry":{"type":"Polygon","coordinates":[[[121.83949793796735,13.447823822076842],[121.83937713857344,13.447833321529055],[121.83938091335723,13.447869539866677],[121.83949859622274,13.447858569180664],[121.83949831151826,13.44784354058164],[121.83949793796735,13.447823822076842]]]}},{"type":"Feature","properties":{"Id":0,"CLN":"99","PSGC":"174001035","Barangay":"Malusak","Land_Class":"COMMERCIAL","PIN":"030-01-001-45-004","ALN":"004","Section":"45","Brgy_Code":"01","Owner":"ORLINA, EDUARDO","TaxDecNo":"28940"},"geometry":{"type":"Polygon","coordinates":[[[121.83937713857344,13.447833321529055],[121.83949793796732,13.447823822076844],[121.83949811770951,13.447770002210268],[121.83947548426646,13.447772554776561],[121.8394754245816,13.44778495356817],[121.83937312379751,13.447795995189786],[121.83937713857344,13.447833321529055]]]}},{"type":"Feature","properties":{"Id":0,"CLN":"20546 RW","PSGC":"174001035","Barangay":"Malusak","Land_Class":null,"PIN":"030-01-001-45-","ALN":null,"Section":"45","Brgy_Code":"01"},"geometry":{"type":"Polygon","coordinates":[[[121.83949831151828,13.447843540581642],[121.83949859622277,13.44785856918066],[121.83960723508027,13.447846671087907],[121.83960582593689,13.447835136516623],[121.83949831151828,13.447843540581642]]]}},{"type":"Feature","properties":{"Id":0,"CLN":"98 RW","PSGC":"174001035","Barangay":"Malusak","Land_Class":null,"PIN":"030-01-001-45-","ALN":null,"Section":"45","Brgy_Code":"01"},"geometry":{"type":"Polygon","coordinates":[[[121.83960347235524,13.44781555090535],[121.83949793796732,13.447823822076844],[121.83949831151828,13.447843540581642],[121.83960582593689,13.447835136516623],[121.83960347235524,13.44781555090535]]]}},{"type":"Feature","properties":{"Id":0,"CLN":"97","PSGC":"174001035","Barangay":"Malusak","Land_Class":"COMMERCIAL","PIN":"030-01-001-45-005","ALN":"005","Section":"45","Brgy_Code":"01","Owner":"ISABELO JAMILLA & AMELITA MARIPOSQUE","TaxDecNo":"01705"},"geometry":{"type":"Polygon","coordinates":[[[121.83949793796735,13.447823822076842],[121.83960347235524,13.44781555090535],[121.83959679065102,13.447760715103291],[121.83949811770951,13.447770002210268],[121.83949793796735,13.447823822076842]]]}},{"type":"Feature","properties":{"Id":0,"CLN":"95","PSGC":"174001035","Barangay":"Malusak","Land_Class":"COMMERCIAL","PIN":"030-01-001-45-006","ALN":"006","Section":"45","Brgy_Code":"01","Owner":"SILVINO LUARCA (1/6); CARIDAD LUARCA MAGALANG (1/6); GERARDO N. LUARCA (1/6); JOSE N. LUARCA (1/6); MANUEL L. QUIAZON (2/6)","TaxDecNo":"30306"},"geometry":{"type":"Polygon","coordinates":[[[121.83947548426646,13.447772554776561],[121.83949811770951,13.447770002210268],[121.83959679065102,13.447760715103291],[121.8395899612672,13.447675661435476],[121.83947320463395,13.447682208204828],[121.83947548426646,13.447772554776561]]]}},{"type":"Feature","properties":{"Id":0,"CLN":"96","PSGC":"174001035","Barangay":"Malusak","Land_Class":"COMMERCIAL","PIN":"030-01-001-45-007","ALN":"007","Section":"45","Brgy_Code":"01","Owner":"LEAÑO, NESTOR","TaxDecNo":"01711"},"geometry":{"type":"Polygon","coordinates":[[[121.83937312379751,13.447795995189786],[121.8394754245816,13.44778495356817],[121.83947548426646,13.447772554776561],[121.83947320463395,13.447682208204828],[121.83936641813688,13.447685258312118],[121.83937312379751,13.447795995189786]]]}},{"type":"Feature","properties":{"Id":0,"CLN":"20543 RW","PSGC":"174001035","Barangay":"Malusak","Land_Class":null,"PIN":"030-01-001-40-","ALN":null,"Section":"40","Brgy_Code":"01"},"geometry":{"type":"Polygon","coordinates":[[[121.84077303435781,13.44815852747421],[121.8407533141851,13.447994296539257],[121.84073172892667,13.44796703723154],[121.84075493779767,13.448158444109568],[121.84077303435781,13.44815852747421]]]}},{"type":"Feature","properties":{"Id":0,"CLN":"20411 pt","PSGC":"174001035","Barangay":"Malusak","Land_Class":"COMMERCIAL","PIN":"030-01-001-40-030","ALN":"030","Section":"40","Brgy_Code":"01","Owner":"SPS. FAUSTINO, GIL M. & FAUSTINO, AGNES M.","TaxDecNo":"01499"},"geometry":{"type":"Polygon","coordinates":[[[121.84086105559828,13.447926448412025],[121.8407841726847,13.44792844241807],[121.84079002160485,13.447990172151197],[121.84086436880003,13.447981818600057],[121.84086105559828,13.447926448412025]]]}},{"type":"Feature","properties":{"Id":0,"CLN":"20409","PSGC":"174001035","Barangay":"Malusak","Land_Class":"COMMERCIAL","PIN":"030-01-001-40-011","ALN":"011","Section":"40","Brgy_Code":"01","Owner":"JACINTO, PATRIA N.","TaxDecNo":"01-28192"},"geometry":{"type":"Polygon","coordinates":[[[121.84076532768081,13.447734757160005],[121.84077688376685,13.447859786620711],[121.84101609433571,13.44784104466673],[121.84099987175303,13.44775893920245],[121.84086210073802,13.447700762515058],[121.8408643887045,13.447726752062549],[121.84076532768081,13.447734757160005]]]}},{"type":"Feature","properties":{"Id":0,"CLN":"20410 RW","PSGC":"174001035","Barangay":"Malusak","Land_Class":null,"PIN":"030-01-001-40-","ALN":null,"Section":"40","Brgy_Code":"01"},"geometry":{"type":"Polygon","coordinates":[[[121.84072377787707,13.447864265438087],[121.84077688376685,13.447859786620679],[121.84076532768081,13.447734757160005],[121.84071231541041,13.447739041052435],[121.84072377787707,13.447864265438087]]]}},{"type":"Feature","properties":{"Id":0,"CLN":"20407 pt","PSGC":"174001035","Barangay":"Malusak","Land_Class":"RESIDENTIAL","PIN":"030-01-001-40-012","ALN":"012","Section":"40","Brgy_Code":"01","Owner":"NEPOMUCENO, ALLAN","TaxDecNo":"01-01155"},"geometry":{"type":"Polygon","coordinates":[[[121.84076532768081,13.447734757160005],[121.8408643887045,13.447726752062549],[121.84086210073802,13.447700762515058],[121.84099987175303,13.44775893920245],[121.84108249427668,13.447742634251684],[121.84101196483165,13.447647063504174],[121.84075744619207,13.447646369737173],[121.84076532768081,13.447734757160005]]]}},{"type":"Feature","properties":{"Id":0,"CLN":"20397 pt","PSGC":"174001035","Barangay":"Malusak","Land_Class":"RESIDENTIAL","PIN":"030-01-001-40-020","ALN":"020","Section":"40","Brgy_Code":"01","Owner":"INFINITE MIRACLES 888 CORPORATION","TaxDecNo":"31298"},"geometry":{"type":"Polygon","coordinates":[[[121.84119683037117,13.447646573837147],[121.84112157857759,13.447575056746748],[121.84097053377934,13.447476288555551],[121.84093328886192,13.447448385494116],[121.84088333683039,13.447549709731613],[121.84101196483165,13.447647063504174],[121.84105718127682,13.447708333945101],[121.84119683037117,13.447646573837147]]]}},{"type":"Feature","properties":{"Id":0,"CLN":"20398","PSGC":"174001035","Barangay":"Malusak","Land_Class":"RESIDENTIAL","PIN":"030-01-001-40-015","ALN":"015","Section":"40","Brgy_Code":"01","Owner":"LAND BANK OF THE PHILIPPINES","TaxDecNo":"29760"},"geometry":{"type":"Polygon","coordinates":[[[121.84077232783935,13.447552740992927],[121.84088333683039,13.44754970973158],[121.84093328886192,13.447448385494116],[121.84077451084966,13.4473496424363],[121.84077171189597,13.447429928297367],[121.84077232783935,13.447552740992927]]]}},{"type":"Feature","properties":{"Id":0,"CLN":"20404","PSGC":"174001035","Barangay":"Malusak","Land_Class":"RESIDENTIAL","PIN":"030-01-001-40-017","ALN":"017","Section":"40","Brgy_Code":"01","Owner":"DR. CEREZO, REYNALDO & CEREZO, FLOR L.","TaxDecNo":"01483"},"geometry":{"type":"Polygon","coordinates":[[[121.8407373448897,13.44743421938538],[121.84077171189597,13.447429928297367],[121.84077451084966,13.4473496424363],[121.8407264011448,13.447318718356648],[121.8407373448897,13.44743421938538]]]}},{"type":"Feature","properties":{"Id":0,"CLN":"PSU-210533","PSGC":"174001035","Barangay":"Malusak","Land_Class":"RESIDENTIAL","PIN":"030-01-001-40-031","ALN":"031","Section":"40","Brgy_Code":"01","Owner":"LAND BANK OF THE PHILIPPINES","TaxDecNo":"29761"},"geometry":{"type":"Polygon","coordinates":[[[121.84083419382239,13.44723183094409],[121.84083764875034,13.447218244315243],[121.8407448678049,13.447186782272047],[121.8407264011448,13.447318718356673],[121.84077451084966,13.4473496424363],[121.84093328886192,13.447448385494116],[121.84097053377934,13.447476288555551],[121.8410648653875,13.447307169812099],[121.84101759372041,13.44729147173831],[121.84083419382239,13.44723183094409]]]}},{"type":"Feature","properties":{"Id":0,"CLN":"20402 RW","PSGC":"174001035","Barangay":"Malusak","Land_Class":"RESIDENTIAL","PIN":"030-01-001-40-032","ALN":"032","Section":"40","Brgy_Code":"01","Owner":"HIDALGO, NELLIE M.","TaxDecNo":"01502"},"geometry":{"type":"Polygon","coordinates":[[[121.84068550733795,13.447292550966225],[121.8407264011448,13.447318718356648],[121.8407448678049,13.447186782272047],[121.84070345634348,13.447172739621138],[121.84068550733795,13.447292550966225]]]}},{"type":"Feature","properties":{"Id":0,"CLN":"20544","PSGC":"174001035","Barangay":"Malusak","Land_Class":"COMMERCIAL","PIN":"030-01-001-40-019","ALN":"019","Section":"40","Brgy_Code":"01","Owner":"JINANG, ANDREA","TaxDecNo":"01485"},"geometry":{"type":"Polygon","coordinates":[[[121.8407448678049,13.447186782272047],[121.84083764875034,13.447218244315243],[121.84085878801055,13.447135113371033],[121.84077446266126,13.447108745948851],[121.8407448678049,13.447186782272047]]]}},{"type":"Feature","properties":{"Id":0,"CLN":"20401 RW","PSGC":"174001035","Barangay":"Malusak","Land_Class":null,"PIN":"030-01-001-40-","ALN":null,"Section":"40","Brgy_Code":"01"},"geometry":{"type":"Polygon","coordinates":[[[121.84070345634348,13.447172739621138],[121.8407448678049,13.447186782272047],[121.84077446266126,13.447108745948851],[121.84073350074847,13.447096748622961],[121.84070345634348,13.447172739621138]]]}},{"type":"Feature","properties":{"Id":0,"CLN":"20392 RW","PSGC":"174001035","Barangay":"Malusak","Land_Class":null,"PIN":"030-01-001-40-","ALN":null,"Section":"40","Brgy_Code":"01"},"geometry":{"type":"Polygon","coordinates":[[[121.8411658843951,13.448157715453029],[121.84127112592174,13.448164444926201],[121.84126537238227,13.448120341952391],[121.84116156264146,13.448119931982166],[121.8411658843951,13.448157715453029]]]}},{"type":"Feature","properties":{"Id":0,"CLN":"20395","PSGC":"174001035","Barangay":"Malusak","Land_Class":"RESIDENTIAL","PIN":"030-01-001-40-005","ALN":"005","Section":"40","Brgy_Code":"01","Owner":"ANGKING, JOSEFA","TaxDecNo":"28799"},"geometry":{"type":"Polygon","coordinates":[[[121.84105676703344,13.448055148647562],[121.84115298823131,13.448044969107851],[121.8411415724152,13.447958060970487],[121.84113893991322,13.447945754295846],[121.84104006640453,13.447983060790168],[121.84105676703344,13.448055148647562]]]}},{"type":"Feature","properties":{"Id":0,"CLN":"20391","PSGC":"174001035","Barangay":"Malusak","Land_Class":"RESIDENTIAL","PIN":"030-01-001-40-006","ALN":"006","Section":"40","Brgy_Code":"01","Owner":"QUINTO, MA. JOSEPHINE L.","TaxDecNo":"01465"},"geometry":{"type":"Polygon","coordinates":[[[121.84116156264146,13.448119931982166],[121.84126537238227,13.448120341952391],[121.84124300243217,13.447948868039413],[121.84114157241518,13.447958060970453],[121.84115298823131,13.448044969107844],[121.84116156264146,13.448119931982166]]]}},{"type":"Feature","properties":{"Id":0,"CLN":"20390 RW","PSGC":"174001035","Barangay":"Malusak","Land_Class":null,"PIN":"030-01-001-40-","ALN":null,"Section":"40","Brgy_Code":"01"},"geometry":{"type":"Polygon","coordinates":[[[121.84126537237839,13.448120341922815],[121.84127112592174,13.448164444926201],[121.84144297080564,13.448158796147977],[121.84144013959762,13.448121028544644],[121.84126537237839,13.448120341922815]]]}},{"type":"Feature","properties":{"Id":0,"CLN":"20389","PSGC":"174001035","Barangay":"Malusak","Land_Class":"RESIDENTIAL","PIN":"030-01-001-40-007","ALN":"007","Section":"40","Brgy_Code":"01","Owner":"SARTILLO, CELESTINO","TaxDecNo":"01467"},"geometry":{"type":"Polygon","coordinates":[[[121.84124300243217,13.447948868039413],[121.84126537238227,13.448120341952391],[121.84144013959762,13.448121028544644],[121.84142864262733,13.447966408250194],[121.8414181167813,13.447916303396205],[121.84124300243217,13.447948868039413]]]}},{"type":"Feature","properties":{"Id":0,"CLN":"20396 pt","PSGC":"174001035","Barangay":"Malusak","Land_Class":"RESIDENTIAL","PIN":"030-01-001-40-010","ALN":"010","Section":"40","Brgy_Code":"01","Owner":"BENJAMIN M. MACUTONG JR. AND ANTHONY M. MACUTONG","TaxDecNo":"32877"},"geometry":{"type":"Polygon","coordinates":[[[121.8411151168389,13.447860026822093],[121.84108249427668,13.447742634251684],[121.84099987175303,13.44775893920245],[121.84102001762078,13.44786090112477],[121.84102232835986,13.447874980742448],[121.8411151168389,13.447860026822093]]]}},{"type":"Feature","properties":{"Id":0,"CLN":"20 pt","PSGC":"174001035","Barangay":"Malusak","Land_Class":"SCIENTIFIC","PIN":"030-01-001-43-006","ALN":"006","Section":"43","Brgy_Code":"01","Owner":"GIRL SCOUT OF THE PHILIPPINES","TaxDecNo":"01624"},"geometry":{"type":"Polygon","coordinates":[[[121.84017685870762,13.445584763857093],[121.84044146256358,13.445584655498832],[121.84050536196867,13.445583837212114],[121.84025306461774,13.44519423959418],[121.84016949542354,13.445130061558755],[121.84017685870762,13.445584763857093]]]}},{"type":"Feature","properties":{"Id":0,"CLN":"28 pt","PSGC":"174001035","Barangay":"Malusak","Land_Class":"RESIDENTIAL","PIN":"030-01-001-41-035","ALN":"035","Section":"41","Brgy_Code":"01","Owner":"MUNICIPALITY OF BOAC","TaxDecNo":"01559"},"geometry":{"type":"Polygon","coordinates":[[[121.84016843855504,13.447421671795146],[121.84016036196901,13.447315808436175],[121.84008031125714,13.4473204406703],[121.84006010630006,13.447321609851226],[121.84003859169658,13.447322854814397],[121.84001334671392,13.447324315637175],[121.83993181011726,13.447329033805413],[121.83994089627659,13.447435169067765],[121.84016843855504,13.447421671795146]]]}},{"type":"Feature","properties":{"Id":0,"CLN":"29 pt","PSGC":"174001035","Barangay":"Malusak","Land_Class":"RESIDENTIAL","PIN":"030-01-001-41-028","ALN":"028","Section":"41","Brgy_Code":"01","Owner":"OLIVAR, ROY H.","TaxDecNo":"01549"},"geometry":{"type":"Polygon","coordinates":[[[121.84001334671392,13.447324315637175],[121.84003859169658,13.447322854814397],[121.84002036564118,13.447202698646832],[121.84000405750065,13.447207051716102],[121.84000574783904,13.447231857646468],[121.84000976727577,13.447281205379083],[121.84001334671392,13.447324315637175]]]}},{"type":"Feature","properties":{"Id":0,"CLN":"29 pt","PSGC":"174001035","Barangay":"Malusak","Land_Class":"RESIDENTIAL","PIN":"030-01-001-41-039","ALN":"039","Section":"41","Brgy_Code":"01","Owner":"OLIVAR, ROY .","TaxDecNo":"01564"},"geometry":{"type":"Polygon","coordinates":[[[121.83993181011726,13.447329033805413],[121.84001334671392,13.447324315637175],[121.84000976727577,13.447281205379083],[121.83992805916442,13.44728435003017],[121.83993181011726,13.447329033805413]]]}},{"type":"Feature","properties":{"Id":0,"CLN":"30 pt","PSGC":"174001035","Barangay":"Malusak","Land_Class":"RESIDENTIAL","PIN":"030-01-001-41-016","ALN":"016","Section":"41","Brgy_Code":"01","Owner":"VIRAY, ALFREDO","TaxDecNo":"01526"},"geometry":{"type":"Polygon","coordinates":[[[121.84006010630006,13.447321609851226],[121.84008031125711,13.447320440670302],[121.84007530534315,13.447263575195333],[121.84006926449487,13.447194953201455],[121.8400457777889,13.447198673433052],[121.84006010630006,13.447321609851226]]]}},{"type":"Feature","properties":{"Id":0,"CLN":"11 pt","PSGC":"174001035","Barangay":"Malusak","Land_Class":"COMMERCIAL","PIN":"030-01-001-41-032","ALN":"032","Section":"41","Brgy_Code":"01","Owner":"CHUACUCO, ARSENIO","TaxDecNo":"01556"},"geometry":{"type":"Polygon","coordinates":[[[121.8402379127265,13.447447004672528],[121.84032776052604,13.44744324027098],[121.84033257432753,13.447383038396655],[121.84023457336893,13.4473914747602],[121.8402379127265,13.447447004672528]]]}},{"type":"Feature","properties":{"Id":0,"CLN":"42 pt","PSGC":"174001035","Barangay":"Malusak","Land_Class":"RESIDENTIAL","PIN":"030-01-001-42-011","ALN":"011","Section":"42","Brgy_Code":"01","Owner":"BRIONES, ADAM & BRIONES, MARIE JOY MABUNGA","TaxDecNo":"01594"},"geometry":{"type":"Polygon","coordinates":[[[121.83970535594278,13.446785657758975],[121.83971528756835,13.446896647100095],[121.83976681064325,13.446891696394161],[121.83983096915793,13.446885649330397],[121.83983222343102,13.44681303199331],[121.8398024921339,13.446786325498541],[121.83976000809278,13.446777273163917],[121.83970535594278,13.446785657758975]]]}},{"type":"Feature","properties":{"Id":0,"CLN":"20 pt","PSGC":"174001035","Barangay":"Malusak","Land_Class":"RESIDENTIAL","PIN":"030-01-001-43-003","ALN":"003","Section":"43","Brgy_Code":"01","Owner":"BOY SCOUT OF THE PHIL.","TaxDecNo":"01618"},"geometry":{"type":"Polygon","coordinates":[[[121.84059653526096,13.44682683506156],[121.84034113576442,13.446825648179658],[121.84034004236241,13.447052973223986],[121.84034057970327,13.447051215632682],[121.8405599789752,13.44705343814204],[121.84059653526096,13.44682683506156]]]}},{"type":"Feature","properties":{"Id":0,"CLN":"88 pt","PSGC":"174001035","Barangay":"Malusak","Land_Class":"COMMERCIAL","PIN":"030-01-001-44-036","ALN":"036","Section":"44","Brgy_Code":"01","Owner":"APOSTOL, RAMON J.","TaxDecNo":"01685"},"geometry":{"type":"Polygon","coordinates":[[[121.83912120251955,13.44742492966365],[121.83911894971551,13.447399407897006],[121.83908089742519,13.447400740000118],[121.83908354384702,13.447426230086037],[121.83912120251955,13.44742492966365]]]}},{"type":"Feature","properties":{"Id":0,"CLN":"88 pt","PSGC":"174001035","Barangay":"Malusak","Land_Class":"COMMERCIAL","PIN":"030-01-001-44-029","ALN":"029","Section":"44","Brgy_Code":"01","Owner":"BUHAIN, FE MADRIGAL","TaxDecNo":"01676"},"geometry":{"type":"Polygon","coordinates":[[[121.8391798647808,13.44739727542071],[121.83917698737275,13.447346714739798],[121.8390758689565,13.447352306254544],[121.83908089742519,13.447400740000118],[121.8391798647808,13.44739727542071]]]}},{"type":"Feature","properties":{"Id":0,"CLN":"89 RW","PSGC":"174001035","Barangay":"Malusak","Land_Class":null,"PIN":"030-01-001-44-","ALN":null,"Section":"44","Brgy_Code":"01"},"geometry":{"type":"Polygon","coordinates":[[[121.83908089742519,13.447400740000118],[121.8390758689565,13.447352306254544],[121.8390705727785,13.447301293944786],[121.83903617422395,13.447302032070425],[121.83904372303037,13.44742781768038],[121.83908354384702,13.447426230086037],[121.83908089742519,13.447400740000118]]]}},{"type":"Feature","properties":{"Id":0,"CLN":"80 pt","PSGC":"174001035","Barangay":"Malusak","Land_Class":"COMMERCIAL","PIN":"030-01-001-44-034","ALN":"034","Section":"44","Brgy_Code":"01","Owner":"MERCADO, BERNADINE OPIS","TaxDecNo":"01682"},"geometry":{"type":"Polygon","coordinates":[[[121.83941721442469,13.447277016384778],[121.83941192175733,13.447255043422592],[121.8393422119246,13.447262692757688],[121.83930147778182,13.447266047478022],[121.83930755274008,13.44731402849991],[121.83938458080009,13.447302740196552],[121.8393825738247,13.447282835146801],[121.83941721442469,13.447277016384778]]]}},{"type":"Feature","properties":{"Id":0,"CLN":"81 pt","PSGC":"174001035","Barangay":"Malusak","Land_Class":"RESIDENTIAL","PIN":"030-01-001-44-007","ALN":"007","Section":"44","Brgy_Code":"01","Owner":"MOLDOGO, MIGUEL","TaxDecNo":"01648"},"geometry":{"type":"Polygon","coordinates":[[[121.83955095091079,13.447344687811485],[121.83954563965169,13.447296399853368],[121.83948557413527,13.447299605897955],[121.83948950039755,13.447348504133933],[121.83955095091079,13.447344687811485]]]}},{"type":"Feature","properties":{"Id":0,"CLN":"46 pt","PSGC":"174001035","Barangay":"Malusak","Land_Class":"RESIDENTIAL","PIN":"030-01-001-44-045","ALN":"045","Section":"44","Brgy_Code":"01","Owner":"PAMPOLA, FEDERICO L.","TaxDecNo":"01690"},"geometry":{"type":"Polygon","coordinates":[[[121.83951310441383,13.446910778369393],[121.83942097268934,13.446922603040285],[121.83942866507822,13.447000699895709],[121.83952100394009,13.446991383583715],[121.83951310441383,13.446910778369393]]]}},{"type":"Feature","properties":{"Id":0,"CLN":"56 pt","PSGC":"174001035","Barangay":"Malusak","Land_Class":"COMMERCIAL","PIN":"030-01-001-44-035","ALN":"035","Section":"44","Brgy_Code":"01","Owner":"HRS. OF MADRIGAL, JOVENTINO","TaxDecNo":"01684"},"geometry":{"type":"Polygon","coordinates":[[[121.83925732582887,13.447070442871683],[121.83923065514398,13.446973125559],[121.8391951439429,13.447015564538855],[121.83921200299743,13.447084722814575],[121.83925732582887,13.447070442871683]]]}},{"type":"Feature","properties":{"Id":0,"CLN":"103 pt","PSGC":"174001035","Barangay":"Malusak","Land_Class":"COMMERCIAL","PIN":"030-01-001-45-002","ALN":"002","Section":"45","Brgy_Code":"01","Owner":"TRINIDAD, EMMA DE MESA","TaxDecNo":"01701"},"geometry":{"type":"Polygon","coordinates":[[[121.83919749984582,13.447779805490562],[121.83915693857482,13.447780827674844],[121.83913701960795,13.447783392731981],[121.83913852221956,13.447847166286126],[121.83920187285509,13.447844801573172],[121.83919749984582,13.447779805490562]]]}},{"type":"Feature","properties":{"Id":0,"CLN":"101 pt","PSGC":"174001035","Barangay":"Malusak","Land_Class":null,"PIN":"030-01-001-45-008","ALN":"008","Section":"45","Brgy_Code":"01"},"geometry":{"type":"Polygon","coordinates":[[[121.83919639200009,13.447763339565041],[121.83929854087862,13.447764486320294],[121.83928948662735,13.44768933172546],[121.83919173986054,13.4476941947477],[121.83919639200009,13.447763339565041]]]}},{"type":"Feature","properties":{"Id":0,"CLN":"20396 pt","PSGC":"174001035","Barangay":"Malusak","Land_Class":"RESIDENTIAL","PIN":"030-01-001-40-009","ALN":"009","Section":"40","Brgy_Code":"01","Owner":"OLIVAR, JOVITO A.","TaxDecNo":"01470"},"geometry":{"type":"Polygon","coordinates":[[[121.8411151168389,13.447860026822093],[121.84102232835986,13.447874980742448],[121.84104006640453,13.447983060790168],[121.84113893991322,13.447945754295846],[121.8411151168389,13.447860026822093]]]}},{"type":"Feature","properties":{"Id":0,"CLN":"20407 pt","PSGC":"174001035","Barangay":"Malusak","Land_Class":"RESIDENTIAL","PIN":"030-01-001-40-013","ALN":"013","Section":"40","Brgy_Code":"01","Owner":"NEPOMUCENO, ROLANDO","TaxDecNo":"01-32133"},"geometry":{"type":"Polygon","coordinates":[[[121.84075744619207,13.447646369737173],[121.84101196483165,13.447647063504174],[121.84088333683039,13.447549709731613],[121.84077232783935,13.447552740992927],[121.84074890910854,13.447556268870773],[121.84075744619207,13.447646369737173]]]}},{"type":"Feature","properties":{"Id":0,"CLN":"20397 pt","PSGC":"174001035","Barangay":"Malusak","Land_Class":"AGRICULTURAL","PIN":"030-01-001-40-023","ALN":"023","Section":"40","Brgy_Code":"01","Owner":"MONTEMAR, FRANCISCO","TaxDecNo":"01489"},"geometry":{"type":"Polygon","coordinates":[[[121.8411151168389,13.447860026822093],[121.84113893991322,13.447945754295846],[121.8411415724152,13.447958060970487],[121.84124300243217,13.447948868039413],[121.84120141970777,13.44785945926462],[121.84126681785544,13.447850166939697],[121.84135383780608,13.44783780237734],[121.84130099956641,13.44777327336613],[121.8411151168389,13.447860026822093]]]}},{"type":"Feature","properties":{"Id":0,"CLN":"20397 pt","PSGC":"174001035","Barangay":"Malusak","Land_Class":"RESIDENTIAL","PIN":"030-01-001-40-024","ALN":"024","Section":"40","Brgy_Code":"01","Owner":"MONTEMAR, GLORIA","TaxDecNo":"01490"},"geometry":{"type":"Polygon","coordinates":[[[121.84126681785544,13.447850166939697],[121.84120141970777,13.44785945926462],[121.84124262270836,13.447948902455087],[121.84124300243217,13.447948868039413],[121.84131214272237,13.447936010577362],[121.84126681785544,13.447850166939697]]]}},{"type":"Feature","properties":{"Id":0,"CLN":"20397 pt","PSGC":"174001035","Barangay":"Malusak","Land_Class":"AGRICULTURAL","PIN":"030-01-001-40-021","ALN":"021","Section":"40","Brgy_Code":"01","Owner":"BUENAVENTURA, CORNA M. & MONTEMAR, ANSELMO L.","TaxDecNo":"01488"},"geometry":{"type":"Polygon","coordinates":[[[121.84119683037117,13.447646573837147],[121.84105718127682,13.447708333945101],[121.84108249427668,13.447742634251684],[121.8411151168389,13.447860026822093],[121.84130099956641,13.44777327336613],[121.84119868882054,13.447648325643064],[121.84119683037117,13.447646573837147]]]}},{"type":"Feature","properties":{"Id":0,"CLN":"20 pt","PSGC":"174001035","Barangay":"Malusak","Land_Class":"RESIDENTIAL","PIN":"030-01-001-43-002","ALN":"002","Section":"43","Brgy_Code":"01","Owner":"BOAC NORTH CENTRAL II","TaxDecNo":"01609"},"geometry":{"type":"Polygon","coordinates":[[[121.84074004253125,13.4459412732824],[121.84043344088906,13.445929668635824],[121.84018242686261,13.445920058910465],[121.84019988938115,13.446983173777344],[121.84033713230188,13.447062491758121],[121.84034004236241,13.447052973223986],[121.84034113576442,13.446825648179658],[121.84059653526096,13.44682683506156],[121.84066009054443,13.446433351799447],[121.8406737049696,13.446349330204782],[121.84068694809235,13.446267595702604],[121.84071949196071,13.446063289716538],[121.84074004253125,13.4459412732824]]]}},{"type":"Feature","properties":{"Id":0,"CLN":"58 pt","PSGC":"174001035","Barangay":"Malusak","Land_Class":"RESIDENTIAL","PIN":"030-01-001-43-001","ALN":"001","Section":"43","Brgy_Code":"01","Owner":"BOAC NORTH CENTRAL I","TaxDecNo":"01599"},"geometry":{"type":"Polygon","coordinates":[[[121.840135986713,13.44694998494268],[121.84011459557975,13.446129064404792],[121.83981869518384,13.446109346891335],[121.83893561595072,13.446035426331173],[121.83902920215692,13.447066127992995],[121.8393488172562,13.44682744585433],[121.83950716199494,13.446781015327815],[121.83970788060695,13.446748263284075],[121.83975868454716,13.44674306210249],[121.83980324940697,13.446752597602064],[121.83984095107789,13.446775728898963],[121.840135986713,13.44694998494268]]]}},{"type":"Feature","properties":{"Id":0,"CLN":"20 pt","PSGC":"174001035","Barangay":"Malusak","Land_Class":"RESIDENTIAL","PIN":"030-01-001-43-005","ALN":"005","Section":"43","Brgy_Code":"01","Owner":"PROVINCE OF MARINDUQUE","TaxDecNo":"01621"},"geometry":{"type":"Polygon","coordinates":[[[121.84043344088906,13.445929668635824],[121.84044146256358,13.445584655498832],[121.84017685870762,13.445584763857093],[121.84018242686261,13.445920058910465],[121.84043344088906,13.445929668635824]]]}},{"type":"Feature","properties":{"Id":0,"CLN":"20 pt","PSGC":"174001035","Barangay":"Malusak","Land_Class":"RESIDENTIAL","PIN":"030-01-001-43-004","ALN":"004","Section":"43","Brgy_Code":"01","Owner":"PUERICULTURE CENTER","TaxDecNo":"01619"},"geometry":{"type":"Polygon","coordinates":[[[121.84073954883377,13.445941254500331],[121.84074004253125,13.4459412732824],[121.84050536196867,13.445583837212114],[121.84044146256358,13.445584655498832],[121.84043344088906,13.445929668635824],[121.84073954883377,13.445941254500331]]]}},{"type":"Feature","properties":{"Id":0,"CLN":"20412 RW","PSGC":"174001035","Barangay":"Malusak","Land_Class":null,"PIN":"030-01-001-40-","ALN":null,"Section":"40","Brgy_Code":"01"},"geometry":{"type":"Polygon","coordinates":[[[121.8407533141851,13.447994296539257],[121.84079002160485,13.447990172151197],[121.84078034041478,13.447887996480938],[121.84072550970475,13.44788553607018],[121.84073172892667,13.44796703723154],[121.8407533141851,13.447994296539257]]]}},{"type":"Feature","properties":{"Id":0,"CLN":"20403 RW","PSGC":"174001035","Barangay":"Malusak","Land_Class":null,"PIN":"030-01-001-40-","ALN":null,"Section":"40","Brgy_Code":"01"},"geometry":{"type":"Polygon","coordinates":[[[121.8407373448897,13.44743421938538],[121.8407264011448,13.447318718356648],[121.84068550733795,13.447292550966225],[121.84068962330208,13.447440177927469],[121.8407373448897,13.44743421938538]]]}},{"type":"Feature","properties":{"Id":0,"CLN":"20411 pt","PSGC":"174001035","Barangay":"Malusak","Land_Class":"COMMERCIAL","PIN":"030-01-001-40-029","ALN":"029","Section":"40","Brgy_Code":"01","Owner":"MARQUEZ, EMMANUEL M.","TaxDecNo":"29180"},"geometry":{"type":"Polygon","coordinates":[[[121.8407841726847,13.44792844241807],[121.84086105559828,13.447926448412025],[121.84085878514523,13.447888504623368],[121.84078034041478,13.447887996480938],[121.8407841726847,13.44792844241807]]]}},{"type":"Feature","properties":{"Id":0,"CLN":"20413","PSGC":"174001035","Barangay":"Malusak","Land_Class":null,"PIN":"030-01-001-40-001","ALN":"001","Section":"40","Brgy_Code":"01"},"geometry":{"type":"Polygon","coordinates":[[[121.8409707576319,13.448119178334524],[121.84095353723724,13.448004665728902],[121.84104006640453,13.447983060790168],[121.84102001762078,13.44786090112477],[121.84085878514523,13.44788850462338],[121.84086436880003,13.447981818600057],[121.84079002160485,13.447990172151197],[121.84080218190388,13.448118512368426],[121.8409707576319,13.448119178334524]]]}},{"type":"Feature","properties":{"Id":0,"CLN":"20414 RW","PSGC":"174001035","Barangay":"Malusak","Land_Class":null,"PIN":"030-01-001-40-","ALN":null,"Section":"40","Brgy_Code":"01"},"geometry":{"type":"Polygon","coordinates":[[[121.8409757499022,13.448152376041934],[121.8409707576319,13.448119178334533],[121.84080218190392,13.448118512369058],[121.84080218190388,13.448118512368426],[121.84079002160485,13.447990172151197],[121.8407533141851,13.447994296539257],[121.84077303435781,13.44815852747421],[121.8409757499022,13.448152376041934]]]}},{"type":"Feature","properties":{"Id":0,"CLN":"20542 RW","PSGC":"174001035","Barangay":"Malusak","Land_Class":null,"PIN":"030-01-001-40-","ALN":null,"Section":"40","Brgy_Code":"01"},"geometry":{"type":"Polygon","coordinates":[[[121.84105579776738,13.448163453324922],[121.84105619098418,13.44811951579976],[121.8409707576319,13.448119178334524],[121.8409757499022,13.448152376041952],[121.84105579776738,13.448163453324922]]]}},{"type":"Feature","properties":{"Id":0,"CLN":"20415","PSGC":"174001035","Barangay":"Malusak","Land_Class":"RESIDENTIAL","PIN":"030-01-001-40-003","ALN":"003","Section":"40","Brgy_Code":"01","Owner":"MONTEALEGRE, BRAULIO","TaxDecNo":"01459"},"geometry":{"type":"Polygon","coordinates":[[[121.84105619098418,13.44811951579976],[121.84105676703344,13.448055148647562],[121.84104006640453,13.447983060790168],[121.84095353723724,13.448004665728902],[121.8409707576319,13.448119178334524],[121.84105619098418,13.44811951579976]]]}},{"type":"Feature","properties":{"Id":0,"CLN":"20394 RW","PSGC":"174001035","Barangay":"Malusak","Land_Class":null,"PIN":"030-01-001-40-","ALN":null,"Section":"40","Brgy_Code":"01"},"geometry":{"type":"Polygon","coordinates":[[[121.8411658843951,13.448157715453029],[121.84116156264146,13.448119931982166],[121.84105619098418,13.44811951579976],[121.84105579776738,13.448163453324922],[121.8411658843951,13.448157715453029]]]}},{"type":"Feature","properties":{"Id":0,"CLN":"20393","PSGC":"174001035","Barangay":"Malusak","Land_Class":"RESIDENTIAL","PIN":"030-01-001-40-004","ALN":"004","Section":"40","Brgy_Code":"01","Owner":"QUINDOZA, NARFE M.","TaxDecNo":"01462"},"geometry":{"type":"Polygon","coordinates":[[[121.84116156264146,13.448119931982166],[121.84115298823131,13.448044969107853],[121.84105676703344,13.448055148647562],[121.84105619098418,13.44811951579976],[121.84116156264146,13.448119931982166]]]}},{"type":"Feature","properties":{"Id":0,"CLN":"20397 pt","PSGC":"174001035","Barangay":"Malusak","Land_Class":"RESIDENTIAL","PIN":"030-01-001-40-025","ALN":"025","Section":"40","Brgy_Code":"01","Owner":"DANTA, BEATRIZ M.","TaxDecNo":"01492"},"geometry":{"type":"Polygon","coordinates":[[[121.84126681785544,13.447850166939697],[121.84131214272237,13.447936010577362],[121.8414181167813,13.447916303396205],[121.84135383780608,13.44783780237734],[121.84126681785544,13.447850166939697]]]}},{"type":"Feature","properties":{"Id":0,"CLN":"20408 RW","PSGC":"174001035","Barangay":"Malusak","Land_Class":null,"PIN":"030-01-001-40-","ALN":null,"Section":"40","Brgy_Code":"01"},"geometry":{"type":"Polygon","coordinates":[[[121.84075744619207,13.447646369737173],[121.84074890910854,13.447556268870773],[121.8406962656966,13.44756419924627],[121.84070378589584,13.447646122544215],[121.84071231541044,13.447739041052449],[121.84076532768081,13.447734757160005],[121.84075744619207,13.447646369737173]]]}},{"type":"Feature","properties":{"Id":0,"CLN":"20406","PSGC":"174001035","Barangay":"Malusak","Land_Class":"RESIDENTIAL","PIN":"030-01-001-40-016","ALN":"016","Section":"40","Brgy_Code":"01","Owner":"MALVAR, ANASTACIO","TaxDecNo":"01481"},"geometry":{"type":"Polygon","coordinates":[[[121.84077171189597,13.447429928297367],[121.8407373448897,13.44743421938538],[121.84074890910854,13.447556268870773],[121.84077232783935,13.447552740992927],[121.84077171189597,13.447429928297367]]]}},{"type":"Feature","properties":{"Id":0,"CLN":"20405 RW","PSGC":"174001035","Barangay":"Malusak","Land_Class":null,"PIN":"030-01-001-40-","ALN":null,"Section":"40","Brgy_Code":"01"},"geometry":{"type":"Polygon","coordinates":[[[121.8407373448897,13.44743421938538],[121.84068962330208,13.447440177927469],[121.8406962656966,13.44756419924627],[121.84074890910854,13.447556268870773],[121.8407373448897,13.44743421938538]]]}},{"type":"Feature","properties":{"Id":0,"CLN":"2 RW","PSGC":"174001035","Barangay":"Malusak","Land_Class":null,"PIN":"030-01-001-41-","ALN":null,"Section":"41","Brgy_Code":"01"},"geometry":{"type":"Polygon","coordinates":[[[121.84058374888711,13.447761098970117],[121.8405866728941,13.44779072230318],[121.84064188538423,13.447787444544641],[121.84062586308126,13.447546463316998],[121.84056376711146,13.447558661997396],[121.84058374888711,13.447761098970117]]]}},{"type":"Feature","properties":{"Id":0,"CLN":"11 pt","PSGC":"174001035","Barangay":"Malusak","Land_Class":"COMMERCIAL","PIN":"030-01-001-41-038","ALN":"038","Section":"41","Brgy_Code":"01","Owner":"SAN JOSE, BABY RONA S.","TaxDecNo":"01562"},"geometry":{"type":"Polygon","coordinates":[[[121.84034152964134,13.447443451830654],[121.84034737041519,13.447575072011137],[121.84040856436016,13.447574688506457],[121.8404100953592,13.447444505317845],[121.84034152964134,13.447443451830654]]]}},{"type":"Feature","properties":{"Id":0,"CLN":"11 pt","PSGC":"174001035","Barangay":"Malusak","Land_Class":"COMMERCIAL","PIN":"030-01-001-41-046","ALN":"046","Section":"41","Brgy_Code":"01","Owner":"SPS. GERARDO M. SANDOVAL & JOCELYN S. SANDOVAL","TaxDecNo":"28895"},"geometry":{"type":"Polygon","coordinates":[[[121.8402431636729,13.447533932640185],[121.8403453450558,13.447529431113002],[121.84034343928408,13.447486485088087],[121.8402405156477,13.447490095316423],[121.8402431636729,13.447533932640185]]]}},{"type":"Feature","properties":{"Id":0,"CLN":"11 pt","PSGC":"174001035","Barangay":"Malusak","Land_Class":"COMMERCIAL","PIN":"030-01-001-41-045","ALN":"045","Section":"41","Brgy_Code":"01","Owner":"SPS. MURILLO, MITZI GAY SAN JOSE & MURILLO, REGGIE MOGOL","TaxDecNo":"01570"},"geometry":{"type":"Polygon","coordinates":[[[121.8403453450558,13.447529431113002],[121.8402431636729,13.447533932640185],[121.84024568721829,13.4475757092305],[121.84034737041519,13.447575072011137],[121.8403453450558,13.447529431113002]]]}},{"type":"Feature","properties":{"Id":0,"CLN":"13","PSGC":"174001035","Barangay":"Malusak","Land_Class":"COMMERCIAL","PIN":"030-01-001-41-006","ALN":"006","Section":"41","Brgy_Code":"01","Owner":"KOBAYASHI, VIOLETA LEONIDA","TaxDecNo":"01510"},"geometry":{"type":"Polygon","coordinates":[[[121.84035465647212,13.447306974432804],[121.84034654373147,13.44720975652122],[121.84022476644832,13.447222239315872],[121.84022974294918,13.447310793218866],[121.84030305164585,13.447312936167048],[121.84035465647212,13.447306974432804]]]}},{"type":"Feature","properties":{"Id":0,"CLN":"14","PSGC":"174001035","Barangay":"Malusak","Land_Class":"COMMERCIAL","PIN":"030-01-001-41-010","ALN":"010","Section":"41","Brgy_Code":"01","Owner":"LEONIDA, VIOLETA B.","TaxDecNo":"01515"},"geometry":{"type":"Polygon","coordinates":[[[121.84034654373147,13.44720975652122],[121.8403426790208,13.447163444278525],[121.84034267902078,13.447163444278353],[121.84021855998382,13.447167587570247],[121.84022476644832,13.447222239315872],[121.84034654373147,13.44720975652122]]]}},{"type":"Feature","properties":{"Id":0,"CLN":"15","PSGC":"174001035","Barangay":"Malusak","Land_Class":"RESIDENTIAL","PIN":"030-01-001-41-011","ALN":"011","Section":"41","Brgy_Code":"01","Owner":"LEONIDA, GLORIA","TaxDecNo":"01518"},"geometry":{"type":"Polygon","coordinates":[[[121.84021284424605,13.447120456578574],[121.84021855998382,13.447167587570247],[121.84034267902078,13.447163444278353],[121.84034570480458,13.44712093190798],[121.84034753114506,13.44709527174707],[121.84020042402324,13.447015771176268],[121.84021284424605,13.447120456578574]]]}},{"type":"Feature","properties":{"Id":0,"CLN":"124130","PSGC":"174001035","Barangay":"Malusak","Land_Class":"COMMERCIAL","PIN":"030-01-001-41-047","ALN":"023","Section":"41","Brgy_Code":"01","Owner":"JANDA, MA. LUISA O.","TaxDecNo":"01573"},"geometry":{"type":"Polygon","coordinates":[[[121.83989058276136,13.447572287551946],[121.83987488019083,13.447418318934226],[121.8397552705702,13.447431305950428],[121.83975643461655,13.447444464270278],[121.83976854996632,13.447579726566763],[121.83989058276136,13.447572287551946]]]}},{"type":"Feature","properties":{"Id":0,"CLN":"40","PSGC":"174001035","Barangay":"Malusak","Land_Class":"COMMERCIAL","PIN":"030-01-001-42-001","ALN":"001","Section":"42","Brgy_Code":"01","Owner":"OCAMPO, JUAN SR. & OCAMPO, BERNARDO & OCAMPO, MA. ROSARIO L.","TaxDecNo":"01577"},"geometry":{"type":"Polygon","coordinates":[[[121.83964448514733,13.446987938598193],[121.83957397518326,13.446994230125199],[121.83958739394038,13.447109480860114],[121.83965800002544,13.447103606880836],[121.83964448514733,13.446987938598193]]]}},{"type":"Feature","properties":{"Id":0,"CLN":"39 pt","PSGC":"174001035","Barangay":"Malusak","Land_Class":"COMMERCIAL","PIN":"030-01-001-42-008","ALN":"008","Section":"42","Brgy_Code":"01","Owner":"JALOTJOT, RUBEN M.","TaxDecNo":"31772"},"geometry":{"type":"Polygon","coordinates":[[[121.83972537036792,13.44698067862282],[121.83967250442079,13.446985804317299],[121.83964448514733,13.446987938598193],[121.83965800002544,13.447103606880868],[121.83973493987456,13.447097762082802],[121.83972537036792,13.44698067862282]]]}},{"type":"Feature","properties":{"Id":0,"CLN":"39 pt","PSGC":"174001035","Barangay":"Malusak","Land_Class":"RESIDENTIAL","PIN":"030-01-001-42-010","ALN":"010","Section":"42","Brgy_Code":"01","Owner":"JALOTJOT, JUANITA & HRS. OF JALOTJOT, GALICANO","TaxDecNo":"01593"},"geometry":{"type":"Polygon","coordinates":[[[121.83976681064328,13.446891696394161],[121.83971528756835,13.446896647100095],[121.83966359581261,13.446901496115231],[121.83967250442079,13.446985804317299],[121.83972537036792,13.44698067862282],[121.83976990279074,13.446977475177684],[121.83976990279074,13.446977475177684],[121.83976681064328,13.446891696394161]]]}},{"type":"Feature","properties":{"Id":0,"CLN":"38","PSGC":"174001035","Barangay":"Malusak","Land_Class":"COMMERCIAL","PIN":"030-01-001-42-003","ALN":"003","Section":"42","Brgy_Code":"01","Owner":"MANDIA, PURITA M. & MANDIA, HILARION M.","TaxDecNo":"01579"},"geometry":{"type":"Polygon","coordinates":[[[121.8398309691579,13.446885649330397],[121.83976681064325,13.446891696394161],[121.83976990279074,13.446977475177684],[121.83972537036792,13.44698067862282],[121.83973493987456,13.447097762082786],[121.8398417602123,13.447087626772369],[121.8398309691579,13.446885649330397]]]}},{"type":"Feature","properties":{"Id":0,"CLN":"39 pt","PSGC":"174001035","Barangay":"Malusak","Land_Class":"COMMERCIAL","PIN":"030-01-001-42-009","ALN":"009","Section":"42","Brgy_Code":"01","Owner":"JALOTJOT, EMELIANA & JALOTJOT, CANDELARIA","TaxDecNo":"01590"},"geometry":{"type":"Polygon","coordinates":[[[121.83966359581261,13.446901496115231],[121.83956432410575,13.446910781030727],[121.83957397518326,13.446994230125199],[121.83964448514733,13.446987938598193],[121.83967250442079,13.446985804317299],[121.83966359581261,13.446901496115231]]]}},{"type":"Feature","properties":{"Id":0,"CLN":"87","PSGC":"174001035","Barangay":"Malusak","Land_Class":"COMMERCIAL","PIN":"030-01-001-44-038","ALN":"038","Section":"44","Brgy_Code":"01","Owner":"NONITA M. MILAMBILING, ANA MARIE M. NEPOMUCENO AND MARIVIC M. MILAMBILING","TaxDecNo":"30492"},"geometry":{"type":"Polygon","coordinates":[[[121.83917586831562,13.447331062294516],[121.83917698737275,13.447346714739798],[121.8391798647808,13.447397275420713],[121.83918128623915,13.447422252725017],[121.8392118718481,13.447416526017667],[121.83926639519565,13.447411131875137],[121.83925022378595,13.447330022488927],[121.839239110441,13.447274282326546],[121.83917311086486,13.447279345197318],[121.83917586831562,13.447331062294516]]]}},{"type":"Feature","properties":{"Id":0,"CLN":"88 pt","PSGC":"174001035","Barangay":"Malusak","Land_Class":null,"PIN":"030-01-001-44-037","ALN":"037","Section":"44","Brgy_Code":"01"},"geometry":{"type":"Polygon","coordinates":[[[121.83911894971551,13.447399407897006],[121.83912120251955,13.44742492966365],[121.83918128623915,13.447422252725017],[121.8391798647808,13.447397275420713],[121.83911894971551,13.447399407897006]]]}},{"type":"Feature","properties":{"Id":0,"CLN":"55","PSGC":"174001035","Barangay":"Malusak","Land_Class":"RESIDENTIAL","PIN":"030-01-001-44-021","ALN":"021","Section":"44","Brgy_Code":"01","Owner":"MORALES, CARMEN ROCA","TaxDecNo":"01668"},"geometry":{"type":"Polygon","coordinates":[[[121.83937068769096,13.44703533494085],[121.83930516461444,13.44705550910983],[121.83931672802683,13.44713391645521],[121.8394525155308,13.447121257966996],[121.83943566493043,13.447050328445753],[121.8393727439253,13.44705622756486],[121.83937068769096,13.44703533494085]]]}},{"type":"Feature","properties":{"Id":0,"CLN":"56 pt","PSGC":"174001035","Barangay":"Malusak","Land_Class":"COMMERCIAL","PIN":"030-01-001-44-026","ALN":"026","Section":"44","Brgy_Code":"01","Owner":"DE GUZMAN, MARIE VIC","TaxDecNo":"01673"},"geometry":{"type":"Polygon","coordinates":[[[121.83930516461444,13.44705550910983],[121.83925732582887,13.447070442871683],[121.83921200299743,13.447084722814575],[121.83922438910834,13.44714323268708],[121.83931672802683,13.447133916455197],[121.83930516461444,13.44705550910983]]]}},{"type":"Feature","properties":{"Id":0,"CLN":"54","PSGC":"174001035","Barangay":"Malusak","Land_Class":"RESIDENTIAL","PIN":"030-01-001-44-024","ALN":"024","Section":"44","Brgy_Code":"01","Owner":"HIDALGO, ERNESTO","TaxDecNo":"01-01317"},"geometry":{"type":"Polygon","coordinates":[[[121.8393727439253,13.44705622756486],[121.83943566493043,13.447050328445753],[121.8394525155308,13.447121257966996],[121.83953307468002,13.447115429922023],[121.83952100394009,13.446991383583715],[121.83942866507822,13.447000699895709],[121.83936755310454,13.44700679532343],[121.83937068769096,13.44703533494085],[121.8393727439253,13.44705622756486]]]}},{"type":"Feature","properties":{"Id":0,"CLN":"73-C","PSGC":"174001035","Barangay":"Malusak","Land_Class":"COMMERCIAL","PIN":"030-01-001-41-048","ALN":"023","Section":"41","Brgy_Code":"01","Owner":"MALVAR, GENARO","TaxDecNo":"01576"},"geometry":{"type":"Polygon","coordinates":[[[121.83989058276136,13.447572287551946],[121.83976854996632,13.447579726566763],[121.8397696594641,13.44759211359347],[121.83989184927215,13.447584706081411],[121.83989058276136,13.447572287551946]]]}},{"type":"Feature","properties":{"Id":0,"CLN":"73-A","PSGC":"174001035","Barangay":"Malusak","Land_Class":"COMMERCIAL","PIN":"030-01-001-41-041","ALN":"023","Section":"41","Brgy_Code":"01","Owner":"ANGELES, NOEL & ANGELES, BELLA P.","TaxDecNo":"01567"},"geometry":{"type":"Polygon","coordinates":[[[121.83987488019083,13.447418318934226],[121.83986573743104,13.447328671259548],[121.83974841602759,13.447353822539288],[121.8397552705702,13.447431305950428],[121.83987488019083,13.447418318934226]]]}}]}