{"type":"FeatureCollection","name":"old files buck up","crs":{"type":"name","properties":{"name":"urn:ogc:def:crs:OGC:1.3:CRS84"}},"features":[{"type":"Feature","properties":{"Barangay":"old files buck up"},"geometry":null},{"type":"Feature","properties":{"Barangay":"old files buck up"},"geometry":null},{"type":"Feature","properties":{"Barangay":"old files buck up"},"geometry":null},{"type":"Feature","properties":{"Barangay":"old files buck up"},"geometry":null},{"type":"Feature","properties":{"Barangay":"old files buck up"},"geometry":null},{"type":"Feature","properties":{"Barangay":"old files buck up"},"geometry":null},{"type":"Feature","properties":{"Barangay":"old files buck up"},"geometry":null},{"type":"Feature","properties":{"Barangay":"old files buck up"},"geometry":null},{"type":"Feature","properties":{"Barangay":"old files buck up"},"geometry":null},{"type":"Feature","properties":{"Barangay":"old files buck up"},"geometry":null},{"type":"Feature","properties":{"Barangay":"old files buck up"},"geometry":null},{"type":"Feature","properties":{"Barangay":"old files buck up"},"geometry":null},{"type":"Feature","properties":{"Barangay":"old files buck up"},"geometry":null},{"type":"Feature","properties":{"Barangay":"old files buck up"},"geometry":null},{"type":"Feature","properties":{"Barangay":"old files buck up"},"geometry":null},{"type":"Feature","properties":{"Barangay":"old files buck up"},"geometry":null},{"type":"Feature","properties":{"Barangay":"old files buck up"},"geometry":null},{"type":"Feature","properties":{"Barangay":"old files buck up"},"geometry":null},{"type":"Feature","properties":{"Barangay":"old files buck up"},"geometry":null},{"type":"Feature","properties":{"Barangay":"old files buck up"},"geometry":null},{"type":"Feature","properties":{"Barangay":"old files buck up"},"geometry":null},{"type":"Feature","properties":{"Barangay":"old files buck up"},"geometry":null},{"type":"Feature","properties":{"Barangay":"old files buck up"},"geometry":null},{"type":"Feature","properties":{"Barangay":"old files buck up"},"geometry":null},{"type":"Feature","properties":{"Barangay":"old files buck up"},"geometry":null},{"type":"Feature","properties":{"Barangay":"old files buck up"},"geometry":null},{"type":"Feature","properties":{"Barangay":"old files buck up"},"geometry":null},{"type":"Feature","properties":{"Barangay":"old files buck up"},"geometry":null},{"type":"Feature","properties":{"Barangay":"old files buck up"},"geometry":null},{"type":"Feature","properties":{"Barangay":"old files buck up"},"geometry":null},{"type":"Feature","properties":{"Barangay":"old files buck up"},"geometry":null},{"type":"Feature","properties":{"Barangay":"old files buck up"},"geometry":null},{"type":"Feature","properties":{"Barangay":"old files buck up"},"geometry":null},{"type":"Feature","properties":{"Barangay":"old files buck up"},"geometry":null},{"type":"Feature","properties":{"Barangay":"old files buck up"},"geometry":null},{"type":"Feature","properties":{"Barangay":"old files buck up"},"geometry":null},{"type":"Feature","properties":{"Barangay":"old files buck up"},"geometry":null},{"type":"Feature","properties":{"Barangay":"old files buck up"},"geometry":null},{"type":"Feature","properties":{"Barangay":"old files buck up"},"geometry":null},{"type":"Feature","properties":{"Barangay":"old files buck up"},"geometry":null},{"type":"Feature","properties":{"Barangay":"old files buck up"},"geometry":null},{"type":"Feature","properties":{"Barangay":"old files buck up"},"geometry":null},{"type":"Feature","properties":{"Barangay":"old files buck up"},"geometry":null},{"type":"Feature","properties":{"Barangay":"old files buck up"},"geometry":null},{"type":"Feature","properties":{"Barangay":"old files buck up"},"geometry":null},{"type":"Feature","properties":{"Barangay":"old files buck up"},"geometry":null},{"type":"Feature","properties":{"Barangay":"old files buck up"},"geometry":null},{"type":"Feature","properties":{"Barangay":"old files buck up"},"geometry":null},{"type":"Feature","properties":{"Barangay":"old files buck up"},"geometry":null},{"type":"Feature","properties":{"Barangay":"old files buck up"},"geometry":null},{"type":"Feature","properties":{"Barangay":"old files buck up"},"geometry":null},{"type":"Feature","properties":{"Barangay":"old files buck up"},"geometry":null},{"type":"Feature","properties":{"Barangay":"old files buck up"},"geometry":null},{"type":"Feature","properties":{"Barangay":"old files buck up"},"geometry":null},{"type":"Feature","properties":{"Barangay":"old files buck up"},"geometry":null},{"type":"Feature","properties":{"Barangay":"old files buck up"},"geometry":null},{"type":"Feature","properties":{"Barangay":"old files buck up"},"geometry":null},{"type":"Feature","properties":{"Barangay":"old files buck up"},"geometry":null},{"type":"Feature","properties":{"Barangay":"old files buck up"},"geometry":null},{"type":"Feature","properties":{"Barangay":"old files buck up"},"geometry":null},{"type":"Feature","properties":{"Barangay":"old files buck up"},"geometry":null},{"type":"Feature","properties":{"Barangay":"old files buck up"},"geometry":null},{"type":"Feature","properties":{"Barangay":"old files buck up"},"geometry":null},{"type":"Feature","properties":{"Barangay":"old files buck up"},"geometry":null},{"type":"Feature","properties":{"Barangay":"old files buck up"},"geometry":null},{"type":"Feature","properties":{"Barangay":"old files buck up"},"geometry":null},{"type":"Feature","properties":{"Barangay":"old files buck up"},"geometry":null},{"type":"Feature","properties":{"Barangay":"old files buck up"},"geometry":null},{"type":"Feature","properties":{"Barangay":"old files buck up"},"geometry":null},{"type":"Feature","properties":{"Barangay":"old files buck up"},"geometry":null},{"type":"Feature","properties":{"Barangay":"old files buck up"},"geometry":null},{"type":"Feature","properties":{"Barangay":"old files buck up"},"geometry":null},{"type":"Feature","properties":{"Barangay":"old files buck up"},"geometry":null},{"type":"Feature","properties":{"Barangay":"old files buck up"},"geometry":null},{"type":"Feature","properties":{"Barangay":"old files buck up"},"geometry":null},{"type":"Feature","properties":{"Barangay":"old files buck up"},"geometry":null},{"type":"Feature","properties":{"Barangay":"old files buck up"},"geometry":null},{"type":"Feature","properties":{"Barangay":"old files buck up"},"geometry":null},{"type":"Feature","properties":{"Barangay":"old files buck up"},"geometry":null},{"type":"Feature","properties":{"Barangay":"old files buck up"},"geometry":null},{"type":"Feature","properties":{"Barangay":"old files buck up"},"geometry":null},{"type":"Feature","properties":{"Barangay":"old files buck up"},"geometry":null},{"type":"Feature","properties":{"Barangay":"old files buck up"},"geometry":null},{"type":"Feature","properties":{"Barangay":"old files buck up"},"geometry":null},{"type":"Feature","properties":{"Barangay":"old files buck up"},"geometry":null},{"type":"Feature","properties":{"Barangay":"old files buck up"},"geometry":null},{"type":"Feature","properties":{"Barangay":"old files buck up"},"geometry":null},{"type":"Feature","properties":{"Barangay":"old files buck up"},"geometry":null},{"type":"Feature","properties":{"Barangay":"old files buck up"},"geometry":null},{"type":"Feature","properties":{"Barangay":"old files buck up"},"geometry":null},{"type":"Feature","properties":{"Barangay":"old files buck up"},"geometry":null},{"type":"Feature","properties":{"Barangay":"old files buck up"},"geometry":null},{"type":"Feature","properties":{"Barangay":"old files buck up"},"geometry":null},{"type":"Feature","properties":{"Barangay":"old files buck up"},"geometry":null},{"type":"Feature","properties":{"Barangay":"old files buck up"},"geometry":null},{"type":"Feature","properties":{"Barangay":"old files buck up"},"geometry":null},{"type":"Feature","properties":{"Barangay":"old files buck up"},"geometry":null},{"type":"Feature","properties":{"Barangay":"old files buck up"},"geometry":null},{"type":"Feature","properties":{"Barangay":"old files buck up"},"geometry":null},{"type":"Feature","properties":{"Barangay":"old files buck up"},"geometry":null},{"type":"Feature","properties":{"Barangay":"old files buck up"},"geometry":null},{"type":"Feature","properties":{"Barangay":"old files buck up"},"geometry":null},{"type":"Feature","properties":{"Barangay":"old files buck up"},"geometry":null},{"type":"Feature","properties":{"Barangay":"old files buck up"},"geometry":null},{"type":"Feature","properties":{"Barangay":"old files buck up"},"geometry":null},{"type":"Feature","properties":{"Barangay":"old files buck up"},"geometry":null},{"type":"Feature","properties":{"Barangay":"old files buck up"},"geometry":null},{"type":"Feature","properties":{"Barangay":"old files buck up"},"geometry":null},{"type":"Feature","properties":{"Barangay":"old files buck up"},"geometry":null},{"type":"Feature","properties":{"Barangay":"old files buck up"},"geometry":null},{"type":"Feature","properties":{"Barangay":"old files buck up"},"geometry":null},{"type":"Feature","properties":{"Barangay":"old files buck up"},"geometry":null},{"type":"Feature","properties":{"Barangay":"old files buck up"},"geometry":null},{"type":"Feature","properties":{"Barangay":"old files buck up"},"geometry":null},{"type":"Feature","properties":{"Barangay":"old files buck up"},"geometry":null},{"type":"Feature","properties":{"Barangay":"old files buck up"},"geometry":null},{"type":"Feature","properties":{"Barangay":"old files buck up"},"geometry":null},{"type":"Feature","properties":{"Barangay":"old files buck up"},"geometry":null},{"type":"Feature","properties":{"Barangay":"old files buck up"},"geometry":null},{"type":"Feature","properties":{"Barangay":"old files buck up"},"geometry":null},{"type":"Feature","properties":{"Barangay":"old files buck up"},"geometry":null},{"type":"Feature","properties":{"Barangay":"old files buck up"},"geometry":null},{"type":"Feature","properties":{"Barangay":"old files buck up"},"geometry":null},{"type":"Feature","properties":{"Barangay":"old files buck up"},"geometry":null},{"type":"Feature","properties":{"Barangay":"old files buck up"},"geometry":null},{"type":"Feature","properties":{"Barangay":"old files buck up"},"geometry":null},{"type":"Feature","properties":{"Barangay":"old files buck up"},"geometry":null},{"type":"Feature","properties":{"Barangay":"old files buck up"},"geometry":null},{"type":"Feature","properties":{"Barangay":"old files buck up"},"geometry":null},{"type":"Feature","properties":{"Barangay":"old files buck up"},"geometry":null},{"type":"Feature","properties":{"Barangay":"old files buck up"},"geometry":null},{"type":"Feature","properties":{"Barangay":"old files buck up"},"geometry":null},{"type":"Feature","properties":{"Barangay":"old files buck up"},"geometry":null},{"type":"Feature","properties":{"Barangay":"old files buck up"},"geometry":null},{"type":"Feature","properties":{"Barangay":"old files buck up"},"geometry":null},{"type":"Feature","properties":{"Barangay":"old files buck up"},"geometry":null},{"type":"Feature","properties":{"Barangay":"old files buck up"},"geometry":null},{"type":"Feature","properties":{"Barangay":"old files buck up"},"geometry":null},{"type":"Feature","properties":{"Barangay":"old files buck up"},"geometry":null},{"type":"Feature","properties":{"Barangay":"old files buck up"},"geometry":null},{"type":"Feature","properties":{"Barangay":"old files buck up"},"geometry":null},{"type":"Feature","properties":{"Barangay":"old files buck up"},"geometry":null},{"type":"Feature","properties":{"Barangay":"old files buck up"},"geometry":null},{"type":"Feature","properties":{"Barangay":"old files buck up"},"geometry":null},{"type":"Feature","properties":{"Barangay":"old files buck up"},"geometry":null},{"type":"Feature","properties":{"Barangay":"old files buck up"},"geometry":null},{"type":"Feature","properties":{"Barangay":"old files buck up"},"geometry":null},{"type":"Feature","properties":{"Barangay":"old files buck up"},"geometry":null},{"type":"Feature","properties":{"Barangay":"old files buck up"},"geometry":null},{"type":"Feature","properties":{"Barangay":"old files buck up"},"geometry":null},{"type":"Feature","properties":{"Barangay":"old files buck up"},"geometry":null},{"type":"Feature","properties":{"Barangay":"old files buck up"},"geometry":null},{"type":"Feature","properties":{"Barangay":"old files buck up"},"geometry":null},{"type":"Feature","properties":{"Barangay":"old files buck up"},"geometry":null},{"type":"Feature","properties":{"Barangay":"old files buck up"},"geometry":null},{"type":"Feature","properties":{"Barangay":"old files buck up"},"geometry":null},{"type":"Feature","properties":{"Barangay":"old files buck up"},"geometry":null},{"type":"Feature","properties":{"Barangay":"old files buck up"},"geometry":null},{"type":"Feature","properties":{"Barangay":"old files buck up"},"geometry":null},{"type":"Feature","properties":{"Barangay":"old files buck up"},"geometry":null},{"type":"Feature","properties":{"Barangay":"old files buck up"},"geometry":null},{"type":"Feature","properties":{"Barangay":"old files buck up"},"geometry":null},{"type":"Feature","properties":{"Barangay":"old files buck up"},"geometry":null},{"type":"Feature","properties":{"Barangay":"old files buck up"},"geometry":null},{"type":"Feature","properties":{"Barangay":"old files buck up"},"geometry":null},{"type":"Feature","properties":{"Barangay":"old files buck up"},"geometry":null},{"type":"Feature","properties":{"Barangay":"old files buck up"},"geometry":null},{"type":"Feature","properties":{"Barangay":"old files buck up"},"geometry":null},{"type":"Feature","properties":{"Barangay":"old files buck up"},"geometry":null},{"type":"Feature","properties":{"Barangay":"old files buck up"},"geometry":null},{"type":"Feature","properties":{"Barangay":"old files buck up"},"geometry":null},{"type":"Feature","properties":{"Barangay":"old files buck up"},"geometry":null},{"type":"Feature","properties":{"Barangay":"old files buck up"},"geometry":null},{"type":"Feature","properties":{"Barangay":"old files buck up"},"geometry":null},{"type":"Feature","properties":{"Barangay":"old files buck up"},"geometry":null},{"type":"Feature","properties":{"Barangay":"old files buck up"},"geometry":null},{"type":"Feature","properties":{"Barangay":"old files buck up"},"geometry":null},{"type":"Feature","properties":{"Barangay":"old files buck up"},"geometry":null},{"type":"Feature","properties":{"Barangay":"old files buck up"},"geometry":null},{"type":"Feature","properties":{"Barangay":"old files buck up"},"geometry":null},{"type":"Feature","properties":{"Barangay":"old files buck up"},"geometry":null},{"type":"Feature","properties":{"Barangay":"old files buck up"},"geometry":null},{"type":"Feature","properties":{"Barangay":"old files buck up"},"geometry":null},{"type":"Feature","properties":{"Barangay":"old files buck up"},"geometry":null},{"type":"Feature","properties":{"Barangay":"old files buck up"},"geometry":null},{"type":"Feature","properties":{"Barangay":"old files buck up"},"geometry":null},{"type":"Feature","properties":{"Barangay":"old files buck up"},"geometry":null},{"type":"Feature","properties":{"Barangay":"old files buck up"},"geometry":null},{"type":"Feature","properties":{"Barangay":"old files buck up"},"geometry":null},{"type":"Feature","properties":{"Barangay":"old files buck up"},"geometry":null},{"type":"Feature","properties":{"Barangay":"old files buck up"},"geometry":null},{"type":"Feature","properties":{"Barangay":"old files buck up"},"geometry":null},{"type":"Feature","properties":{"Barangay":"old files buck up"},"geometry":null},{"type":"Feature","properties":{"Barangay":"old files buck up"},"geometry":null},{"type":"Feature","properties":{"Barangay":"old files buck up"},"geometry":null}]}