{"type":"FeatureCollection","name":"Pili","crs":{"type":"name","properties":{"name":"urn:ogc:def:crs:OGC:1.3:CRS84"}},"features":[{"type":"Feature","properties":{"Id":0,"CLN":"5940 RW","PSGC":"174001043","Barangay":"Pili","Land_Class":null,"PIN":"030-01-040-01-","ALN":null,"Section":"01","Brgy_Code":"040"},"geometry":{"type":"Polygon","coordinates":[[[121.82258772232728,13.46445285162457],[121.82250976674968,13.464326696407328],[121.8224806985557,13.464338981146179],[121.82255673389739,13.464469511499248],[121.82274499220176,13.46479269506933],[121.82278138172423,13.4647662492685],[121.82258772232728,13.46445285162457]]]}},{"type":"Feature","properties":{"Id":0,"CLN":"5907 RW","PSGC":"174001043","Barangay":"Pili","Land_Class":null,"PIN":"030-01-040-02-","ALN":null,"Section":"02","Brgy_Code":"040"},"geometry":{"type":"Polygon","coordinates":[[[121.8224806985557,13.464338981146147],[121.82250976674968,13.464326696407309],[121.82242704721084,13.464187904497832],[121.8224088568188,13.464200240188532],[121.8224806985557,13.464338981146147]]]}},{"type":"Feature","properties":{"Id":0,"CLN":"5949 RW","PSGC":"174001043","Barangay":"Pili","Land_Class":null,"PIN":"030-01-040-02-","ALN":null,"Section":"02","Brgy_Code":"040"},"geometry":{"type":"Polygon","coordinates":[[[121.82236046218951,13.46408645088014],[121.82238030933088,13.464106062431501],[121.82269496718047,13.463899929737018],[121.82266792023273,13.4638696379946],[121.82236046218951,13.46408645088014]]]}},{"type":"Feature","properties":{"Id":0,"CLN":"5911","PSGC":"174001043","Barangay":"Pili","Land_Class":"AGRICULTURAL","PIN":"030-01-040-02-002","ALN":"002","Section":"02","Brgy_Code":"040","Owner":"MARMOL, LUISITO","TaxDecNo":"01-25556"},"geometry":{"type":"Polygon","coordinates":[[[121.82315094958767,13.464453908265478],[121.82383540139509,13.46524267225899],[121.82410801998128,13.464881883430396],[121.82374820017723,13.464513818204006],[121.82372844880962,13.464386613774266],[121.82355163267667,13.464452235075225],[121.82347420397447,13.464343633296707],[121.82339317542129,13.464229691400401],[121.82334223029174,13.464266715662504],[121.82324751380405,13.464356767478709],[121.82315094958767,13.464453908265478]]]}},{"type":"Feature","properties":{"Id":0,"CLN":"5912","PSGC":"174001043","Barangay":"Pili","Land_Class":"RESIDENTIAL","PIN":"030-01-040-02-003","ALN":"003","Section":"02","Brgy_Code":"040","Owner":"DELOS REYES, EDNA MAGO","TaxDecNo":"21681"},"geometry":{"type":"Polygon","coordinates":[[[121.82347420397444,13.464343633296709],[121.82355163267667,13.464452235075234],[121.82372844880963,13.464386613774257],[121.82370084212585,13.464341145161539],[121.82358706737615,13.464250117485946],[121.82347420397444,13.464343633296709]]]}},{"type":"Feature","properties":{"Id":0,"CLN":"5913","PSGC":"174001043","Barangay":"Pili","Land_Class":"RESIDENTIAL","PIN":"030-01-040-02-004","ALN":"004","Section":"02","Brgy_Code":"040","Owner":"JANDA, FELISA","TaxDecNo":"21682"},"geometry":{"type":"Polygon","coordinates":[[[121.82339317542129,13.464229691400401],[121.82347420397447,13.464343633296723],[121.82358706737615,13.464250117485946],[121.82351683855481,13.46415219591487],[121.82339317542129,13.464229691400401]]]}},{"type":"Feature","properties":{"Id":0,"CLN":"5939 RW","PSGC":"174001043","Barangay":"Pili","Land_Class":null,"PIN":"030-01-040-02-","ALN":null,"Section":"02","Brgy_Code":"040"},"geometry":{"type":"Polygon","coordinates":[[[121.82279445423337,13.464688236207909],[121.82283443497018,13.464668904879005],[121.82273905039031,13.464524730492407],[121.8227009086679,13.464538747174446],[121.82279445423337,13.464688236207909]]]}},{"type":"Feature","properties":{"Id":0,"CLN":"5938","PSGC":"174001043","Barangay":"Pili","Land_Class":"RESIDENTIAL","PIN":"030-01-040-02-009","ALN":"009","Section":"02","Brgy_Code":"040","Owner":"MAHAGUAY, URSULA","TaxDecNo":"21687"},"geometry":{"type":"Polygon","coordinates":[[[121.82273905039031,13.464524730492407],[121.82283443497018,13.464668904879005],[121.82290719660087,13.464619561990283],[121.822849650074,13.464523474053735],[121.82282087682701,13.464475430081668],[121.82273905039031,13.464524730492407]]]}},{"type":"Feature","properties":{"Id":0,"CLN":"5926","PSGC":"174001043","Barangay":"Pili","Land_Class":"RESIDENTIAL","PIN":"030-01-040-02-008","ALN":"008","Section":"02","Brgy_Code":"040","Owner":"MATINING, FRANCISCO","TaxDecNo":"21686"},"geometry":{"type":"Polygon","coordinates":[[[121.82290719660087,13.464619561990283],[121.82315094958767,13.464453908265474],[121.82307527332979,13.464357735493072],[121.82296970493304,13.464442413135183],[121.822849650074,13.464523474053735],[121.82290719660087,13.464619561990283]]]}},{"type":"Feature","properties":{"Id":0,"CLN":"5927","PSGC":"174001043","Barangay":"Pili","Land_Class":"RESIDENTIAL","PIN":"030-01-040-02-011","ALN":"011","Section":"02","Brgy_Code":"040","Owner":"MATINING, FRANCISCO","TaxDecNo":"21689"},"geometry":{"type":"Polygon","coordinates":[[[121.82282087682701,13.464475430081668],[121.822849650074,13.464523474053735],[121.82296970493304,13.464442413135183],[121.82289943295557,13.464353363284319],[121.82280113372279,13.464434526060412],[121.82282087682701,13.464475430081668]]]}},{"type":"Feature","properties":{"Id":0,"CLN":"5928","PSGC":"174001043","Barangay":"Pili","Land_Class":"RESIDENTIAL","PIN":"030-01-040-02-012","ALN":"012","Section":"02","Brgy_Code":"040","Owner":"MATINING, FRANCISCO","TaxDecNo":"21690"},"geometry":{"type":"Polygon","coordinates":[[[121.82289943295557,13.464353363284319],[121.82296970493304,13.464442413135183],[121.82307527332979,13.464357735493072],[121.82300865328499,13.464263379522714],[121.82289943295557,13.464353363284319]]]}},{"type":"Feature","properties":{"Id":0,"CLN":"5936 RW","PSGC":"174001043","Barangay":"Pili","Land_Class":null,"PIN":"030-01-040-02-","ALN":null,"Section":"02","Brgy_Code":"040"},"geometry":{"type":"Polygon","coordinates":[[[121.8227009086679,13.464538747174446],[121.82273905039031,13.464524730492407],[121.82267789537266,13.464425076791143],[121.82263794069719,13.464439084973197],[121.8227009086679,13.464538747174446]]]}},{"type":"Feature","properties":{"Id":0,"CLN":"5937","PSGC":"174001043","Barangay":"Pili","Land_Class":"RESIDENTIAL","PIN":"030-01-040-02-010","ALN":"010","Section":"02","Brgy_Code":"040","Owner":"MAHAGUAY, URSULA","TaxDecNo":"21688"},"geometry":{"type":"Polygon","coordinates":[[[121.82267789537266,13.464425076791143],[121.82273905039031,13.464524730492407],[121.82282087682701,13.464475430081668],[121.82280113372279,13.464434526060412],[121.82275613923022,13.46436688754148],[121.82267789537266,13.464425076791143]]]}},{"type":"Feature","properties":{"Id":0,"CLN":"5935 RW","PSGC":"174001043","Barangay":"Pili","Land_Class":null,"PIN":"030-01-040-02-","ALN":null,"Section":"02","Brgy_Code":"040"},"geometry":{"type":"Polygon","coordinates":[[[121.82263794069719,13.464439084973197],[121.82267789537266,13.464425076791143],[121.82259528850072,13.464263218053919],[121.82255708607543,13.464289655341084],[121.82263794069719,13.464439084973197]]]}},{"type":"Feature","properties":{"Id":0,"CLN":"5934","PSGC":"174001043","Barangay":"Pili","Land_Class":"RESIDENTIAL","PIN":"030-01-040-02-018","ALN":"018","Section":"02","Brgy_Code":"040","Owner":"MAHAGUAY, URSULA","TaxDecNo":"21697"},"geometry":{"type":"Polygon","coordinates":[[[121.82259528850072,13.464263218053919],[121.82267789537266,13.464425076791143],[121.82275613923022,13.46436688754148],[121.82272910090256,13.464334821426887],[121.8226498423088,13.46422975968572],[121.82259528850072,13.464263218053919]]]}},{"type":"Feature","properties":{"Id":0,"CLN":"5929","PSGC":"174001043","Barangay":"Pili","Land_Class":"RESIDENTIAL","PIN":"030-01-040-02-013","ALN":"013","Section":"02","Brgy_Code":"040","Owner":"MAAS, JOSE","TaxDecNo":"21692"},"geometry":{"type":"Polygon","coordinates":[[[121.82272910090256,13.464334821426887],[121.82275613923022,13.46436688754148],[121.82280113372279,13.464434526060412],[121.82289943295557,13.464353363284319],[121.82300865328499,13.464263379522714],[121.8229365857222,13.464170772444959],[121.82281099667433,13.464271326013442],[121.82272910090256,13.464334821426887]]]}},{"type":"Feature","properties":{"Id":0,"CLN":"5930","PSGC":"174001043","Barangay":"Pili","Land_Class":"RESIDENTIAL","PIN":"030-01-040-02-017","ALN":"017","Section":"02","Brgy_Code":"040","Owner":"BUSTAMANTE, SILVESTRE","TaxDecNo":"21696"},"geometry":{"type":"Polygon","coordinates":[[[121.8226498423088,13.46422975968572],[121.82272910090256,13.464334821426887],[121.82281099667433,13.464271326013442],[121.82274258982211,13.46417163836702],[121.8226498423088,13.46422975968572]]]}},{"type":"Feature","properties":{"Id":0,"CLN":"5931","PSGC":"174001043","Barangay":"Pili","Land_Class":"RESIDENTIAL","PIN":"030-01-040-02-016","ALN":"016","Section":"02","Brgy_Code":"040","Owner":"MAAS, ISABEL","TaxDecNo":"21695"},"geometry":{"type":"Polygon","coordinates":[[[121.82274258982211,13.46417163836702],[121.82281099667433,13.464271326013442],[121.8229365857222,13.464170772444959],[121.82287716558933,13.464087096655316],[121.82284263252348,13.464104679095598],[121.82274258982211,13.46417163836702]]]}},{"type":"Feature","properties":{"Id":0,"CLN":"5932","PSGC":"174001043","Barangay":"Pili","Land_Class":"AGRICULTURAL","PIN":"030-01-040-02-019","ALN":"019","Section":"02","Brgy_Code":"040","Owner":"MARTILLANO, ALLAN","TaxDecNo":"21731"},"geometry":{"type":"Polygon","coordinates":[[[121.82259528850072,13.464263218053919],[121.8226498423088,13.46422975968572],[121.82274258982211,13.46417163836702],[121.82284263252348,13.464104679095598],[121.82275976536816,13.463996051659127],[121.82253244211783,13.464138714585689],[121.82259528850072,13.464263218053919]]]}},{"type":"Feature","properties":{"Id":0,"CLN":"5933 RW","PSGC":"174001043","Barangay":"Pili","Land_Class":null,"PIN":"030-01-040-02-","ALN":null,"Section":"02","Brgy_Code":"040"},"geometry":{"type":"Polygon","coordinates":[[[121.82259528850072,13.464263218053919],[121.82253244211783,13.464138714585689],[121.82275976536816,13.463996051659127],[121.82273091411433,13.463963977056528],[121.82250717342274,13.464115528817773],[121.82255708607543,13.464289655341084],[121.82259528850072,13.464263218053919]]]}},{"type":"Feature","properties":{"Id":0,"CLN":"5925","PSGC":"174001043","Barangay":"Pili","Land_Class":"AGRICULTURAL","PIN":"030-01-040-02-007","ALN":"007","Section":"02","Brgy_Code":"040","Owner":"BUSTAMANTE, SILVESTRE","TaxDecNo":"21685"},"geometry":{"type":"Polygon","coordinates":[[[121.82300865328499,13.464263379522714],[121.82307527332979,13.464357735493072],[121.82315094958767,13.464453908265474],[121.82324751380405,13.464356767478709],[121.82311414352984,13.464194671232526],[121.82300865328499,13.464263379522714]]]}},{"type":"Feature","properties":{"Id":0,"CLN":"5924 pt","PSGC":"174001043","Barangay":"Pili","Land_Class":"RESIDENTIAL","PIN":"030-01-040-02-087","ALN":"087","Section":"02","Brgy_Code":"040","Owner":"MATINING, RAMIL L.","TaxDecNo":"21763"},"geometry":{"type":"Polygon","coordinates":[[[121.82304171060858,13.464097779079797],[121.82311414352984,13.464194671232526],[121.82322511597046,13.4641171164785],[121.82315488733924,13.46401919482058],[121.82304171060858,13.464097779079797]]]}},{"type":"Feature","properties":{"Id":0,"CLN":"5923","PSGC":"174001043","Barangay":"Pili","Land_Class":"RESIDENTIAL","PIN":"030-01-040-02-015","ALN":"015","Section":"02","Brgy_Code":"040","Owner":"MATINING, ALEJANDRO","TaxDecNo":"21693"},"geometry":{"type":"Polygon","coordinates":[[[121.82287716558933,13.464087096655316],[121.8229365857222,13.464170772444959],[121.82315488733924,13.464019194820564],[121.82308998490525,13.463944365489825],[121.82303187467794,13.463963611985735],[121.82293362770028,13.464034128582053],[121.82287716558933,13.464087096655316]]]}},{"type":"Feature","properties":{"Id":0,"CLN":"5922","PSGC":"174001043","Barangay":"Pili","Land_Class":"RESIDENTIAL","PIN":"030-01-040-02-020","ALN":"020","Section":"02","Brgy_Code":"040","Owner":"MATINING, BELEN","TaxDecNo":"21699"},"geometry":{"type":"Polygon","coordinates":[[[121.82275976536816,13.463996051659127],[121.82284263252348,13.464104679095598],[121.82287716558933,13.464087096655316],[121.82293362770028,13.464034128582053],[121.82286335584325,13.46394507872921],[121.82275976536816,13.463996051659127]]]}},{"type":"Feature","properties":{"Id":0,"CLN":"5921","PSGC":"174001043","Barangay":"Pili","Land_Class":"RESIDENTIAL","PIN":"030-01-040-02-021","ALN":"021","Section":"02","Brgy_Code":"040","Owner":"MATINING, ALVARO","TaxDecNo":"21700"},"geometry":{"type":"Polygon","coordinates":[[[121.82286335584325,13.46394507872921],[121.82293362770028,13.464034128582053],[121.82303187467794,13.463963611985735],[121.82296522005194,13.463876353512049],[121.82286335584325,13.46394507872921]]]}},{"type":"Feature","properties":{"Id":0,"CLN":"5920","PSGC":"174001043","Barangay":"Pili","Land_Class":"RESIDENTIAL","PIN":"030-01-040-02-022","ALN":"022","Section":"02","Brgy_Code":"040","Owner":"MATINING, SERGIO","TaxDecNo":"21702"},"geometry":{"type":"Polygon","coordinates":[[[121.82296522005194,13.463876353512049],[121.82303187467794,13.463963611985735],[121.82308998490525,13.463944365489825],[121.82313360009233,13.463923276701335],[121.82305802806665,13.463805811431245],[121.82296522005194,13.463876353512049]]]}},{"type":"Feature","properties":{"Id":0,"CLN":"5914","PSGC":"174001043","Barangay":"Pili","Land_Class":"RESIDENTIAL","PIN":"030-01-040-02-005","ALN":"005","Section":"02","Brgy_Code":"040","Owner":"MAHAGUAY, URSULA","TaxDecNo":"21683"},"geometry":{"type":"Polygon","coordinates":[[[121.82334223029174,13.464266715662506],[121.82339317542129,13.464229691400401],[121.82351683855481,13.464152195914853],[121.82343024975863,13.4640630698329],[121.82326645861598,13.464190061073399],[121.82334223029174,13.464266715662506]]]}},{"type":"Feature","properties":{"Id":0,"CLN":"5919","PSGC":"174001043","Barangay":"Pili","Land_Class":"RESIDENTIAL","PIN":"030-01-040-02-023","ALN":"023","Section":"02","Brgy_Code":"040","Owner":"MATINING, WILFREDO","TaxDecNo":"21704"},"geometry":{"type":"Polygon","coordinates":[[[121.82305802806665,13.463805811431245],[121.82313360009233,13.463923276701335],[121.82322640808235,13.463852734556074],[121.82314897103277,13.463745907075472],[121.82305802806665,13.463805811431245]]]}},{"type":"Feature","properties":{"Id":0,"CLN":"5916","PSGC":"174001043","Barangay":"Pili","Land_Class":"RESIDENTIAL","PIN":"030-01-040-02-024","ALN":"024","Section":"02","Brgy_Code":"040","Owner":"RIZALDY S. & CLEOTILDE M. CRUZ","TaxDecNo":"21705"},"geometry":{"type":"Polygon","coordinates":[[[121.82314897103277,13.463745907075472],[121.82322640808235,13.463852734556074],[121.82327550548662,13.463822799325172],[121.82333371971599,13.463782260263356],[121.82324536151071,13.463684253768424],[121.82314897103277,13.463745907075472]]]}},{"type":"Feature","properties":{"Id":0,"CLN":"5918","PSGC":"174001043","Barangay":"Pili","Land_Class":"RESIDENTIAL","PIN":"030-01-040-02-045","ALN":"045","Section":"02","Brgy_Code":"040","Owner":"MARSONIA, EMELITA M.","TaxDecNo":"21725"},"geometry":{"type":"Polygon","coordinates":[[[121.82275976536816,13.463996051659127],[121.82286335584325,13.46394507872921],[121.82296522005194,13.463876353512049],[121.82305802806665,13.463805811431245],[121.82314897103277,13.463745907075472],[121.82324536151071,13.463684253768424],[121.8232237273787,13.463659310668582],[121.82303839771629,13.4637418405497],[121.82275976536816,13.463996051659127]]]}},{"type":"Feature","properties":{"Id":0,"CLN":"5917 RW","PSGC":"174001043","Barangay":"Pili","Land_Class":null,"PIN":"030-01-040-02-","ALN":null,"Section":"02","Brgy_Code":"040"},"geometry":{"type":"Polygon","coordinates":[[[121.82275976536816,13.463996051659127],[121.82303839771629,13.4637418405497],[121.8232237273787,13.463659310668582],[121.82319848467303,13.463630801841921],[121.82301497666096,13.463711565819155],[121.82273091411433,13.463963977056528],[121.82275976536816,13.463996051659127]]]}},{"type":"Feature","properties":{"Id":0,"CLN":"5958","PSGC":"174001043","Barangay":"Pili","Land_Class":"RESIDENTIAL","PIN":"030-01-040-02-026","ALN":"026","Section":"02","Brgy_Code":"040","Owner":"MAAÑO, ENGRACIO","TaxDecNo":"21706"},"geometry":{"type":"Polygon","coordinates":[[[121.82338345951779,13.463991874178873],[121.82351992597361,13.463891371201555],[121.8234064983139,13.463729368445353],[121.82333371971599,13.463782260263356],[121.82327550548662,13.463822799325172],[121.82338345951779,13.463991874178873]]]}},{"type":"Feature","properties":{"Id":0,"CLN":"5960 pt","PSGC":"174001043","Barangay":"Pili","Land_Class":"AGRICULTURAL","PIN":"030-01-040-02-077","ALN":"077","Section":"02","Brgy_Code":"040","Owner":"SADIWA, GUMERSINDO S. & SADIWA, MARILOU DELOS REYES","TaxDecNo":"21755"},"geometry":{"type":"Polygon","coordinates":[[[121.82400047460972,13.463737755873252],[121.82384499445226,13.46385281169797],[121.8236828399959,13.463572738710678],[121.82363954565167,13.463528175705482],[121.82349198495004,13.463672987249158],[121.82386707885028,13.464084632685406],[121.82412356475488,13.46391016541027],[121.82400047460972,13.463737755873252]]]}},{"type":"Feature","properties":{"Id":0,"CLN":"5957 pt","PSGC":"174001043","Barangay":"Pili","Land_Class":"AGRICULTURAL","PIN":"030-01-040-02-070","ALN":"070","Section":"02","Brgy_Code":"040","Owner":"MAHAGUAY, BERNARDO","TaxDecNo":"01-30838"},"geometry":{"type":"Polygon","coordinates":[[[121.82354364651226,13.463622288209137],[121.82345674260655,13.463503112371683],[121.82336007230458,13.463583649021901],[121.8232237273787,13.463659310668582],[121.82324536151071,13.463684253768424],[121.82333371971599,13.46378226026339],[121.8234064983139,13.463729368445353],[121.82349198495004,13.463672987249158],[121.82354364651226,13.463622288209137]]]}},{"type":"Feature","properties":{"Id":0,"CLN":"5956 RW","PSGC":"174001043","Barangay":"Pili","Land_Class":null,"PIN":"030-01-040-02-","ALN":null,"Section":"02","Brgy_Code":"040"},"geometry":{"type":"Polygon","coordinates":[[[121.8232237273787,13.463659310668582],[121.82336007230458,13.463583649021883],[121.82358034212223,13.46340014068026],[121.82356229921844,13.463382312079457],[121.82333300795752,13.463556906097262],[121.82319848467303,13.463630801841921],[121.8232237273787,13.463659310668582]]]}},{"type":"Feature","properties":{"Id":0,"CLN":"5961","PSGC":"174001043","Barangay":"Pili","Land_Class":"RESIDENTIAL","PIN":"030-01-040-02-029","ALN":"029","Section":"02","Brgy_Code":"040","Owner":"MATINING, MARCIAL","TaxDecNo":"21707"},"geometry":{"type":"Polygon","coordinates":[[[121.82358034212223,13.46340014068026],[121.82363954565166,13.463528175705465],[121.82368283999587,13.463572738710678],[121.82380650269273,13.463495243043281],[121.82366944584902,13.463345550753663],[121.82358034212223,13.46340014068026]]]}},{"type":"Feature","properties":{"Id":0,"CLN":"5962 RW","PSGC":"174001043","Barangay":"Pili","Land_Class":null,"PIN":"030-01-040-02-","ALN":null,"Section":"02","Brgy_Code":"040"},"geometry":{"type":"Polygon","coordinates":[[[121.82358034212223,13.46340014068026],[121.82366944584902,13.463345550753663],[121.82364782036574,13.463318833312877],[121.82356229921844,13.463382312079457],[121.82358034212223,13.46340014068026]]]}},{"type":"Feature","properties":{"Id":0,"CLN":"5966 pt","PSGC":"174001043","Barangay":"Pili","Land_Class":"AGRICULTURAL","PIN":"030-01-040-02-093","ALN":"093","Section":"02","Brgy_Code":"040","Owner":"MAGO, LOPE","TaxDecNo":"21769"},"geometry":{"type":"Polygon","coordinates":[[[121.82403159146098,13.463328496623197],[121.82389608773404,13.463158324137463],[121.82378840347484,13.463247281102538],[121.82386725586245,13.463332882612834],[121.82392492077717,13.46327698192387],[121.82401516244826,13.463369237427406],[121.82403562448691,13.463356882819452],[121.82413017143696,13.463299797045346],[121.82412496650937,13.46325186345237],[121.82403159146098,13.463328496623197]]]}},{"type":"Feature","properties":{"Id":0,"CLN":"5968","PSGC":"174001043","Barangay":"Pili","Land_Class":"AGRICULTURAL","PIN":"030-01-040-02-032","ALN":"032","Section":"02","Brgy_Code":"040","Owner":"JABAT, NORMA","TaxDecNo":"21710"},"geometry":{"type":"Polygon","coordinates":[[[121.824221661962,13.46349895964343],[121.82431445216632,13.463431965806596],[121.82417412433874,13.463209507393069],[121.82412496650937,13.46325186345237],[121.82413017143696,13.463299797045346],[121.824221661962,13.46349895964343]]]}},{"type":"Feature","properties":{"Id":0,"CLN":"5969","PSGC":"174001043","Barangay":"Pili","Land_Class":"AGRICULTURAL","PIN":"030-01-040-02-048","ALN":"048","Section":"02","Brgy_Code":"040","Owner":"MANGGOL, ANITA M.","TaxDecNo":"32590"},"geometry":{"type":"Polygon","coordinates":[[[121.82417412433874,13.463209507393069],[121.82431445216632,13.463431965806596],[121.8244034518076,13.463398668121053],[121.82424871554696,13.463156623779405],[121.82417412433874,13.463209507393069]]]}},{"type":"Feature","properties":{"Id":0,"CLN":"5970","PSGC":"174001043","Barangay":"Pili","Land_Class":"AGRICULTURAL","PIN":"030-01-040-02-047","ALN":"047","Section":"02","Brgy_Code":"040","Owner":"MANGGOL, ANITA M.","TaxDecNo":"32589"},"geometry":{"type":"Polygon","coordinates":[[[121.82424871554696,13.463156623779405],[121.8244034518076,13.463398668121053],[121.82447254351874,13.463358179640473],[121.82434698779237,13.463080783474634],[121.82424871554696,13.463156623779405]]]}},{"type":"Feature","properties":{"Id":0,"CLN":"5965 RW","PSGC":"174001043","Barangay":"Pili","Land_Class":"RESIDENTIAL","PIN":"030-01-040-02-","ALN":null,"Section":"02","Brgy_Code":"040","Owner":"NITORAL, FELINO M.","TaxDecNo":"21757"},"geometry":{"type":"Polygon","coordinates":[[[121.82398982652377,13.463080887298828],[121.82396819235798,13.463055944260029],[121.8238977654549,13.463113734862159],[121.82364782036574,13.463318833312877],[121.82366944584905,13.463345550753662],[121.82389608773404,13.463158324137463],[121.82398982652377,13.463080887298828]]]}},{"type":"Feature","properties":{"Id":0,"CLN":"5950 RW","PSGC":"174001043","Barangay":"Pili","Land_Class":null,"PIN":"030-01-040-02-","ALN":null,"Section":"02","Brgy_Code":"040"},"geometry":{"type":"Polygon","coordinates":[[[121.82266792023273,13.4638696379946],[121.82269496718047,13.463899929737018],[121.8229863866794,13.463662099496776],[121.82296519550678,13.463616087263128],[121.82266792023273,13.4638696379946]]]}},{"type":"Feature","properties":{"Id":0,"CLN":"5951","PSGC":"174001043","Barangay":"Pili","Land_Class":"AGRICULTURAL","PIN":"030-01-040-02-037","ALN":"037","Section":"02","Brgy_Code":"040","Owner":"MANGGOL, MELISANDY M.","TaxDecNo":"31808"},"geometry":{"type":"Polygon","coordinates":[[[121.8225742969357,13.4637361183116],[121.82266792023273,13.463869637994614],[121.82296519550678,13.463616087263128],[121.8229024369016,13.463519974943365],[121.82271165275,13.463645643156875],[121.8225742969357,13.4637361183116]]]}},{"type":"Feature","properties":{"Id":0,"CLN":"5947","PSGC":"174001043","Barangay":"Pili","Land_Class":"RESIDENTIAL","PIN":"030-01-040-02-041","ALN":"041","Section":"02","Brgy_Code":"040","Owner":"DE LOS REYES, ANTONIO","TaxDecNo":"21722"},"geometry":{"type":"Polygon","coordinates":[[[121.82240694044728,13.46385067136862],[121.82253427295873,13.463764321486071],[121.8223193896822,13.463461516356903],[121.82219312387573,13.463535716762948],[121.82240694044728,13.46385067136862]]]}},{"type":"Feature","properties":{"Id":0,"CLN":"5952 pt","PSGC":"174001043","Barangay":"Pili","Land_Class":"AGRICULTURAL","PIN":"030-01-040-02-095","ALN":"095","Section":"02","Brgy_Code":"040","Owner":"MAGO, ANGELO J","TaxDecNo":"21771"},"geometry":{"type":"Polygon","coordinates":[[[121.82237190021287,13.463425151004715],[121.82249112352281,13.463601972995162],[121.82259102120744,13.463526667738293],[121.82292790197481,13.463224820300939],[121.82282329691468,13.463112542281351],[121.82237190021287,13.463425151004715]]]}},{"type":"Feature","properties":{"Id":0,"CLN":"5946","PSGC":"174001043","Barangay":"Pili","Land_Class":"AGRICULTURAL","PIN":"030-01-040-02-040","ALN":"040","Section":"02","Brgy_Code":"040","Owner":"JABAT, VICENTE","TaxDecNo":"21721"},"geometry":{"type":"Polygon","coordinates":[[[121.82282329691468,13.463112542281351],[121.82264203594919,13.463104595748032],[121.8224695274208,13.463160569044446],[121.82223918644345,13.463179008545062],[121.82187602635653,13.463228105379057],[121.82153945947582,13.463681935996714],[121.8208769250135,13.464312178095522],[121.82091316156999,13.464778311954737],[121.82101204202318,13.464722980746748],[121.82132918514708,13.464460572673085],[121.82206792938605,13.463999579587638],[121.82240694044728,13.463850671368636],[121.82219312387573,13.463535716762948],[121.8223193896822,13.463461516356917],[121.82282329691468,13.463112542281351]]]}},{"type":"Feature","properties":{"Id":0,"CLN":"5953","PSGC":"174001043","Barangay":"Pili","Land_Class":"AGRICULTURAL","PIN":"030-01-040-02-043","ALN":"043","Section":"02","Brgy_Code":"040","Owner":"JABAT, VICENTE","TaxDecNo":"21723"},"geometry":{"type":"Polygon","coordinates":[[[121.82292790197481,13.463224820300919],[121.82259102120744,13.46352666773828],[121.82271165275,13.463645643156843],[121.8229024369016,13.463519974943365],[121.82315030608126,13.463346521873246],[121.82292790197481,13.463224820300919]]]}},{"type":"Feature","properties":{"Id":0,"CLN":"5954","PSGC":"174001043","Barangay":"Pili","Land_Class":"RESIDENTIAL","PIN":"030-01-040-02-036","ALN":"036","Section":"02","Brgy_Code":"040","Owner":"MATINING, TOMASA","TaxDecNo":"21714"},"geometry":{"type":"Polygon","coordinates":[[[121.8229024369016,13.463519974943365],[121.82296519550678,13.463616087263128],[121.82312395336423,13.463545133084327],[121.8232984917974,13.463444808450973],[121.82350957535907,13.463286098989263],[121.82349154113824,13.463266496008767],[121.82315030608126,13.463346521873246],[121.8229024369016,13.463519974943365]]]}},{"type":"Feature","properties":{"Id":0,"CLN":"5955 RW","PSGC":"174001043","Barangay":"Pili","Land_Class":null,"PIN":"030-01-040-02-","ALN":null,"Section":"02","Brgy_Code":"040"},"geometry":{"type":"Polygon","coordinates":[[[121.82296519550678,13.463616087263128],[121.8229863866794,13.463662099496776],[121.82322367484844,13.463543825516906],[121.82332187818419,13.46348218065836],[121.82352387963455,13.46332697750645],[121.82350957535907,13.463286098989263],[121.8232984917974,13.463444808450973],[121.82312395336423,13.463545133084327],[121.82296519550678,13.463616087263128]]]}},{"type":"Feature","properties":{"Id":0,"CLN":"5963 RW","PSGC":"174001043","Barangay":"Pili","Land_Class":null,"PIN":"030-01-040-02-","ALN":null,"Section":"02","Brgy_Code":"040"},"geometry":{"type":"Polygon","coordinates":[[[121.82350957535907,13.463286098989263],[121.82352387963455,13.46332697750645],[121.82392981605138,13.462991737864725],[121.82391369009765,13.46295262525978],[121.82350957535907,13.463286098989263]]]}},{"type":"Feature","properties":{"Id":0,"CLN":"5973 RW","PSGC":"174001043","Barangay":"Pili","Land_Class":null,"PIN":"030-01-040-02-","ALN":null,"Section":"02","Brgy_Code":"040"},"geometry":{"type":"Polygon","coordinates":[[[121.82391369009765,13.46295262525978],[121.82392981605138,13.462991737864725],[121.82423296968379,13.462913307188913],[121.82422228255092,13.46287422003795],[121.82391369009765,13.46295262525978]]]}},{"type":"Feature","properties":{"Id":0,"CLN":"5976 RW","PSGC":"174001043","Barangay":"Pili","Land_Class":null,"PIN":"030-01-040-02-","ALN":null,"Section":"02","Brgy_Code":"040"},"geometry":{"type":"Polygon","coordinates":[[[121.82422228255092,13.46287422003795],[121.82423296968379,13.462913307188913],[121.82430740484592,13.462892362318986],[121.8246463554709,13.462537289499958],[121.82461929973744,13.462508772333205],[121.82429308312653,13.462855032588559],[121.82422228255092,13.46287422003795]]]}},{"type":"Feature","properties":{"Id":0,"CLN":"5974","PSGC":"174001043","Barangay":"Pili","Land_Class":"RESIDENTIAL","PIN":"030-01-040-02-034","ALN":"034","Section":"02","Brgy_Code":"040","Owner":"MATINING, FACUNDO","TaxDecNo":"21712"},"geometry":{"type":"Polygon","coordinates":[[[121.82391369009765,13.46295262525978],[121.82422228255092,13.46287422003795],[121.82422982894131,13.462813925167533],[121.82436810732797,13.462713430115935],[121.82458104832926,13.462360667839366],[121.8245782541088,13.46235770493307],[121.82424850264329,13.462705617537322],[121.82382706243645,13.462900546897046],[121.82391369009765,13.46295262525978]]]}},{"type":"Feature","properties":{"Id":0,"CLN":"5975","PSGC":"174001043","Barangay":"Pili","Land_Class":"RESIDENTIAL","PIN":"030-01-040-02-046","ALN":"046","Section":"02","Brgy_Code":"040","Owner":"MAAS, ISABEL","TaxDecNo":"21726"},"geometry":{"type":"Polygon","coordinates":[[[121.82461929973744,13.462508772333205],[121.82458104832926,13.462360667839366],[121.82436810732797,13.462713430115935],[121.82422982894131,13.462813925167533],[121.82422228255092,13.46287422003795],[121.82429308312653,13.462855032588559],[121.82461929973744,13.462508772333205]]]}},{"type":"Feature","properties":{"Id":0,"CLN":"5906","PSGC":"174001043","Barangay":"Pili","Land_Class":"AGRICULTURAL","PIN":"030-01-040-02-049","ALN":"049","Section":"02","Brgy_Code":"040","Owner":"MONTENEGRO, ANTONIO","TaxDecNo":"21729"},"geometry":{"type":"Polygon","coordinates":[[[121.82461929973744,13.462508772333205],[121.8250903991774,13.462111829196763],[121.82518071523933,13.46193244364793],[121.82518081911265,13.461911151125657],[121.82505166059659,13.4619164283157],[121.82461468110587,13.46194988251698],[121.8244529617044,13.462034272687186],[121.82436496186489,13.462239631419079],[121.82438083186005,13.46233017357796],[121.8245782541088,13.46235770493307],[121.82458104832926,13.462360667839366],[121.82461929973744,13.462508772333205]]]}},{"type":"Feature","properties":{"Id":0,"CLN":"5942 RW","PSGC":"174001043","Barangay":"Pili","Land_Class":null,"PIN":"030-01-040-02-","ALN":null,"Section":"02","Brgy_Code":"040"},"geometry":{"type":"Polygon","coordinates":[[[121.82461929973744,13.462508772333205],[121.8246463554709,13.462537289499958],[121.82511065797425,13.462147726438717],[121.82522996089162,13.461941675240318],[121.82523114134793,13.461908743134584],[121.82521112389342,13.461909700999714],[121.82518081911265,13.461911151125678],[121.82518071523933,13.461932443647942],[121.8250903991774,13.462111829196763],[121.82461929973744,13.462508772333205]]]}},{"type":"Feature","properties":{"Id":0,"CLN":"5971","PSGC":"174001043","Barangay":"Pili","Land_Class":"RESIDENTIAL","PIN":"030-01-040-02-033","ALN":"033","Section":"02","Brgy_Code":"040","Owner":"MAHAGUAY, BERNARDO","TaxDecNo":"01-33293"},"geometry":{"type":"Polygon","coordinates":[[[121.82434698779237,13.463080783474634],[121.824312515059,13.463003593992664],[121.82398982652377,13.463080887298828],[121.82412496650937,13.46325186345237],[121.82417412433874,13.4632095073931],[121.82424871554696,13.463156623779435],[121.82424916805225,13.46315627456469],[121.82434698779237,13.463080783474634]]]}},{"type":"Feature","properties":{"Id":0,"CLN":"5972 RW","PSGC":"174001043","Barangay":"Pili","Land_Class":null,"PIN":"030-01-040-02-","ALN":null,"Section":"02","Brgy_Code":"040"},"geometry":{"type":"Polygon","coordinates":[[[121.82431251505898,13.463003593992676],[121.82429490519303,13.462968141133047],[121.82417620548519,13.463000041393169],[121.82406879716275,13.463028907063785],[121.82396819235798,13.463055944260029],[121.82398982652377,13.463080887298828],[121.82431251505898,13.463003593992676]]]}},{"type":"Feature","properties":{"Id":0,"CLN":"5945 pt","PSGC":"174001043","Barangay":"Pili","Land_Class":"AGRICULTURAL","PIN":"030-01-040-01-004","ALN":"004","Section":"01","Brgy_Code":"040","Owner":"OSMILLO, CHRISTIAN PHILIP L.","TaxDecNo":"29569"},"geometry":{"type":"Polygon","coordinates":[[[121.82147461624179,13.46464550685693],[121.82132918514708,13.464460572673085],[121.82101204202318,13.464722980746748],[121.82091316156999,13.464778311954737],[121.8208597573338,13.464986161798546],[121.82107628677424,13.465026811359035],[121.82147461624179,13.46464550685693]]]}},{"type":"Feature","properties":{"Id":0,"CLN":"5902","PSGC":"174001043","Barangay":"Pili","Land_Class":"AGRICULTURAL","PIN":"030-01-040-01-007","ALN":"007","Section":"01","Brgy_Code":"040","Owner":"GO, MELECIO J.","TaxDecNo":"21658"},"geometry":{"type":"Polygon","coordinates":[[[121.82003564817573,13.46605309783488],[121.82058620604235,13.46669910689295],[121.820969431213,13.466216528124525],[121.82040325892834,13.465795274234114],[121.82029432079672,13.465998081592767],[121.82003564817573,13.46605309783488]]]}},{"type":"Feature","properties":{"Id":0,"CLN":"5903","PSGC":"174001043","Barangay":"Pili","Land_Class":"AGRICULTURAL","PIN":"030-01-040-01-006","ALN":"006","Section":"01","Brgy_Code":"040","Owner":"GO, MELECIO J.","TaxDecNo":"21657"},"geometry":{"type":"Polygon","coordinates":[[[121.82110476653646,13.467277609514188],[121.82137527645851,13.46652141644323],[121.820969431213,13.466216528124525],[121.82058620604235,13.46669910689295],[121.82110476653646,13.467277609514188]]]}},{"type":"Feature","properties":{"Id":0,"CLN":"5904","PSGC":"174001043","Barangay":"Pili","Land_Class":"AGRICULTURAL","PIN":"030-01-040-01-005","ALN":"005","Section":"01","Brgy_Code":"040","Owner":"LEONIDA, DOMINADOR","TaxDecNo":"21656"},"geometry":{"type":"Polygon","coordinates":[[[121.82086819230389,13.46526324594093],[121.82076491562572,13.46555777286564],[121.82141880718345,13.46636614155856],[121.82132852056554,13.465255438430777],[121.82086819230389,13.46526324594093]]]}},{"type":"Feature","properties":{"Id":0,"CLN":"5901","PSGC":"174001043","Barangay":"Pili","Land_Class":"AGRICULTURAL","PIN":"030-01-040-01-008","ALN":"008","Section":"01","Brgy_Code":"040","Owner":"REYES, CARMENCITA O.","TaxDecNo":"21659"},"geometry":{"type":"Polygon","coordinates":[[[121.82048332697683,13.465249480223513],[121.81990232667185,13.464796187777448],[121.81977707601942,13.464887586062314],[121.81925927098008,13.465251706296609],[121.81922652843376,13.465283445594876],[121.81986515641884,13.465880454271915],[121.82062533481586,13.46536376586254],[121.82048332697683,13.465249480223513]]]}},{"type":"Feature","properties":{"Id":0,"CLN":"5908 RW","PSGC":"174001043","Barangay":"Pili","Land_Class":null,"PIN":"030-01-040-01-","ALN":null,"Section":"01","Brgy_Code":"040"},"geometry":{"type":"Polygon","coordinates":[[[121.82302935093536,13.46522166091566],[121.82278138172423,13.4647662492685],[121.82274499220173,13.464792695069328],[121.822961911233,13.465178859422277],[121.8231050751521,13.465442572838775],[121.82320747419614,13.465586239590392],[121.82341980909274,13.465874252833787],[121.82352563300742,13.466011089200371],[121.82355786354631,13.465979845241144],[121.82337005965888,13.46572892875338],[121.82302935093536,13.46522166091566]]]}},{"type":"Feature","properties":{"Id":0,"CLN":"5944","PSGC":"174001043","Barangay":"Pili","Land_Class":"RESIDENTIAL","PIN":"030-01-040-02-039","ALN":"039","Section":"02","Brgy_Code":"040","Owner":"BARRIO SCHOOL SITE","TaxDecNo":"21719"},"geometry":{"type":"Polygon","coordinates":[[[121.82229792750007,13.464268922683443],[121.82226203272296,13.464194229061166],[121.82220242228404,13.464223390005449],[121.82206792938605,13.463999579587604],[121.82132918514708,13.46446057267307],[121.82161246489589,13.464820798680828],[121.82224059725878,13.46449932805969],[121.82239145535527,13.464421960590316],[121.8223770818012,13.464395277020355],[121.82229792750007,13.464268922683443]]]}},{"type":"Feature","properties":{"Id":0,"CLN":"5948","PSGC":"174001043","Barangay":"Pili","Land_Class":"RESIDENTIAL","PIN":"030-01-040-02-038","ALN":"038","Section":"02","Brgy_Code":"040","Owner":"MANSIA, ELIZABETH O.","TaxDecNo":"21716"},"geometry":{"type":"Polygon","coordinates":[[[121.82266792023273,13.4638696379946],[121.8225742969357,13.463736118311584],[121.82253427295873,13.463764321486071],[121.82240694044728,13.46385067136862],[121.82206792938605,13.463999579587604],[121.82220242228404,13.464223390005449],[121.82226203272296,13.464194229061166],[121.82238030933088,13.464106062431501],[121.82236046218951,13.46408645088014],[121.82266792023273,13.4638696379946]]]}},{"type":"Feature","properties":{"Id":0,"CLN":"5910 pt","PSGC":"174001043","Barangay":"Pili","Land_Class":"AGRICULTURAL","PIN":"030-01-040-02-054","ALN":"054","Section":"02","Brgy_Code":"040","Owner":"MAHAGUAY, EUSTAQUIO","TaxDecNo":"21735"},"geometry":{"type":"Polygon","coordinates":[[[121.82368985265738,13.465476653274916],[121.82334003156146,13.465056244858506],[121.82339156936514,13.465014618191454],[121.82299915784374,13.46455706549058],[121.82293763507458,13.464598876130703],[121.82305279439133,13.464793432671147],[121.82293879936921,13.464859649753615],[121.82313812062951,13.465223944636994],[121.82354064236506,13.465788383136621],[121.82368985265738,13.465476653274916]]]}},{"type":"Feature","properties":{"Id":0,"CLN":"5909 RW","PSGC":"174001043","Barangay":"Pili","Land_Class":"AGRICULTURAL","PIN":"030-01-040-02-","ALN":null,"Section":"02","Brgy_Code":"040","Owner":"MAHAGUAY, EUSTAQUIO","TaxDecNo":"21735"},"geometry":{"type":"Polygon","coordinates":[[[121.8229384735945,13.464859054341737],[121.82283443497018,13.46466890487906],[121.82279445423337,13.464688236207955],[121.82290171545068,13.464878454640582],[121.82309642225444,13.465223749393168],[121.82352094679742,13.465819373925457],[121.82354064236509,13.465788383136658],[121.82313812062951,13.465223944637012],[121.8229384735945,13.464859054341737]]]}},{"type":"Feature","properties":{"Id":0,"CLN":"5943","PSGC":"174001043","Barangay":"Pili","Land_Class":"RESIDENTIAL","PIN":"030-01-040-02-044","ALN":"044","Section":"02","Brgy_Code":"040","Owner":"MERCENE, PRIMO","TaxDecNo":"21724"},"geometry":{"type":"Polygon","coordinates":[[[121.8224088568188,13.46420024018855],[121.82229792750007,13.464268922683443],[121.8223770818012,13.464395277020389],[121.82248069855572,13.464338981146197],[121.8224088568188,13.46420024018855]]]}},{"type":"Feature","properties":{"Id":0,"CLN":"5945 pt","PSGC":"174001043","Barangay":"Pili","Land_Class":"AGRICULTURAL","PIN":"030-01-040-01-003","ALN":"003","Section":"01","Brgy_Code":"040","Owner":"MERCENE, PRIMO","TaxDecNo":"21654"},"geometry":{"type":"Polygon","coordinates":[[[121.82147461624179,13.46464550685693],[121.82107628677424,13.465026811359035],[121.82130463242525,13.465069678989616],[121.82161246489592,13.464820798680863],[121.82147461624179,13.46464550685693]]]}},{"type":"Feature","properties":{"Id":0,"CLN":"5941 pt","PSGC":"174001043","Barangay":"Pili","Land_Class":"RESIDENTIAL","PIN":"030-01-040-01-009","ALN":"009","Section":"01","Brgy_Code":"040","Owner":"MANSIA, JOEL J.","TaxDecNo":"30888"},"geometry":{"type":"Polygon","coordinates":[[[121.8225569346588,13.464469856147412],[121.8224806985557,13.464338981146179],[121.8223770818012,13.46439527702037],[121.82239145535527,13.464421960590316],[121.82224059725878,13.46449932805969],[121.82208779741084,13.46457752942439],[121.82215192074678,13.464679574950354],[121.8225569346588,13.464469856147412]]]}},{"type":"Feature","properties":{"Id":0,"CLN":"5905 pt","PSGC":"174001043","Barangay":"Pili","Land_Class":"RESIDENTIAL","PIN":"030-01-040-01-010","ALN":"010","Section":"01","Brgy_Code":"040","Owner":"JIMENA, JORGE & JIMENA, BRENDA","TaxDecNo":"21661"},"geometry":{"type":"Polygon","coordinates":[[[121.82255783216563,13.466843558219098],[121.82234310981252,13.466686193056688],[121.82215263967875,13.466756010713361],[121.82180315720028,13.46668366234493],[121.82151739283061,13.46618124892446],[121.82151415625023,13.466425495457063],[121.82127839622409,13.467078074457609],[121.82124622379082,13.467331324441398],[121.8212140916104,13.467342386154321],[121.82115447559963,13.467351076457932],[121.82122981180285,13.4674074919734],[121.82225560119049,13.467083777092057],[121.82251669261686,13.466873085527023],[121.82255783216563,13.466843558219098]]]}},{"type":"Feature","properties":{"Id":0,"CLN":"5905 pt","PSGC":"174001043","Barangay":"Pili","Land_Class":"RESIDENTIAL","PIN":"030-01-040-01-011","ALN":"011","Section":"01","Brgy_Code":"040","Owner":"STO. DOMINGO, EDGARDO","TaxDecNo":"21662"},"geometry":{"type":"Polygon","coordinates":[[[121.82283786742447,13.464958033882553],[121.82274499220176,13.46479269506933],[121.82235954000892,13.464998574797205],[121.82252305562093,13.465172348113676],[121.82283786742447,13.464958033882553]]]}},{"type":"Feature","properties":{"Id":0,"CLN":"5905 pt","PSGC":"174001043","Barangay":"Pili","Land_Class":"AGRICULTURAL","PIN":"030-01-040-01-013","ALN":"013","Section":"01","Brgy_Code":"040","Owner":"GUADAÑA, BENJAMIN SONDIA","TaxDecNo":"21663"},"geometry":{"type":"Polygon","coordinates":[[[121.82239917416771,13.465235109494863],[121.82226965107084,13.46504658660263],[121.82196175868971,13.465647012162552],[121.8221983555787,13.465642538598445],[121.82239917416771,13.465235109494863]]]}},{"type":"Feature","properties":{"Id":0,"CLN":"5905 pt","PSGC":"174001043","Barangay":"Pili","Land_Class":"AGRICULTURAL","PIN":"030-01-040-01-015","ALN":"015","Section":"01","Brgy_Code":"040","Owner":"GUADAÑA, BENJAMIN SONDIA","TaxDecNo":"21665"},"geometry":{"type":"Polygon","coordinates":[[[121.82251797571529,13.465408026707264],[121.82239917416771,13.465235109494863],[121.8221983555787,13.465642538598445],[121.82238100797554,13.465643394455972],[121.82251797571529,13.465408026707264]]]}},{"type":"Feature","properties":{"Id":0,"CLN":"5905 pt","PSGC":"174001043","Barangay":"Pili","Land_Class":"AGRICULTURAL","PIN":"030-01-040-01-020","ALN":"020","Section":"01","Brgy_Code":"040","Owner":"MANSIA, LIONEIL O.","TaxDecNo":"21669"},"geometry":{"type":"Polygon","coordinates":[[[121.82320747419614,13.465586239590392],[121.8231050751521,13.465442572838775],[121.8229456494196,13.465553929942098],[121.82278594583055,13.465553181986962],[121.82278556369032,13.465631333644513],[121.8227277987499,13.465779926787217],[121.82289510742604,13.465780710408373],[121.82320747419614,13.465586239590392]]]}},{"type":"Feature","properties":{"Id":0,"CLN":"5905 pt","PSGC":"174001043","Barangay":"Pili","Land_Class":"AGRICULTURAL","PIN":"030-01-040-01-019","ALN":"019","Section":"01","Brgy_Code":"040","Owner":"ALEXON M. MANGGOL, JOHN CCARLO M. MANGGOL, MELISANDY M. MANGGOL","TaxDecNo":"31806"},"geometry":{"type":"Polygon","coordinates":[[[121.82341980909274,13.465874252833787],[121.82320747419614,13.465586239590392],[121.82289510742604,13.465780710408373],[121.82289482919656,13.465780709105323],[121.82296284229115,13.465926169747497],[121.82312205494046,13.466027398322302],[121.82341980909274,13.465874252833787]]]}},{"type":"Feature","properties":{"Id":0,"CLN":"5952 pt","PSGC":"174001043","Barangay":"Pili","Land_Class":"RESIDENTIAL","PIN":"030-01-040-02-097","ALN":"097","Section":"02","Brgy_Code":"040","Owner":"MAGO, BONIFACIO & JABAT, LEONOR","TaxDecNo":"21773"},"geometry":{"type":"Polygon","coordinates":[[[121.82259102120744,13.46352666773828],[121.82249112352281,13.463601972995162],[121.82244421166783,13.463637410736494],[121.82253427295873,13.46376432148609],[121.8225742969357,13.4637361183116],[121.82271165275,13.463645643156875],[121.82259102120744,13.46352666773828]]]}},{"type":"Feature","properties":{"Id":0,"CLN":"5952 pt","PSGC":"174001043","Barangay":"Pili","Land_Class":"RESIDENTIAL","PIN":"030-01-040-02-096","ALN":"096","Section":"02","Brgy_Code":"040","Owner":"MAGO, BONIFACIO JR. J.","TaxDecNo":"21772"},"geometry":{"type":"Polygon","coordinates":[[[121.82249112352281,13.463601972995162],[121.82237190021287,13.463425151004715],[121.8223193896822,13.463461516356917],[121.82244421166783,13.463637410736494],[121.82249112352281,13.463601972995162]]]}},{"type":"Feature","properties":{"Id":0,"CLN":"5964","PSGC":"174001043","Barangay":"Pili","Land_Class":"RESIDENTIAL","PIN":"030-01-040-02-035","ALN":"035","Section":"02","Brgy_Code":"040","Owner":"MATINING, ISABELA","TaxDecNo":"21713"},"geometry":{"type":"Polygon","coordinates":[[[121.82391369009768,13.46295262525978],[121.8234915157809,13.463266648553226],[121.8235096543582,13.46328616642957],[121.82391369009768,13.46295262525978]]]}},{"type":"Feature","properties":{"Id":0,"CLN":"5910 pt","PSGC":"174001043","Barangay":"Pili","Land_Class":"RESIDENTIAL","PIN":"030-01-040-02-076","ALN":"076","Section":"02","Brgy_Code":"040","Owner":"MARMOL, CHITA MAAÑO","TaxDecNo":"21753"},"geometry":{"type":"Polygon","coordinates":[[[121.82293763507458,13.464598876130703],[121.82290719660087,13.464619561990283],[121.82283443497018,13.464668904879026],[121.82293879936921,13.464859649753615],[121.82305279439133,13.464793432671147],[121.82293763507458,13.464598876130703]]]}},{"type":"Feature","properties":{"Id":0,"CLN":"5910 pt","PSGC":"174001043","Barangay":"Pili","Land_Class":"AGRICULTURAL","PIN":"030-01-040-02-056","ALN":"056","Section":"02","Brgy_Code":"040","Owner":"MONTALBAN, SALLY MARSONIA","TaxDecNo":"21736"},"geometry":{"type":"Polygon","coordinates":[[[121.82299915784374,13.46455706549058],[121.82339156936514,13.465014618191454],[121.82334003156146,13.465056244858506],[121.82368985265738,13.465476653274916],[121.82373455107034,13.465383269241674],[121.82383540139509,13.465242672258992],[121.82315094958764,13.464453908265476],[121.82299915784374,13.46455706549058]]]}},{"type":"Feature","properties":{"Id":0,"CLN":"5924 pt","PSGC":"174001043","Barangay":"Pili","Land_Class":"RESIDENTIAL","PIN":"030-01-040-02-088","ALN":"088","Section":"02","Brgy_Code":"040","Owner":"MATINING, FRANCISCO","TaxDecNo":"21766"},"geometry":{"type":"Polygon","coordinates":[[[121.82311414352984,13.464194671232526],[121.82304171060858,13.464097779079797],[121.82293658572223,13.464170772444957],[121.82300865328496,13.464263379522697],[121.82311414352984,13.464194671232526]]]}},{"type":"Feature","properties":{"Id":0,"CLN":"5915 pt","PSGC":"174001043","Barangay":"Pili","Land_Class":"RESIDENTIAL","PIN":"030-01-040-02-057","ALN":"057","Section":"02","Brgy_Code":"040","Owner":"MATINING, WILFREDO","TaxDecNo":"21737"},"geometry":{"type":"Polygon","coordinates":[[[121.82326645861598,13.464190061073399],[121.82322511597046,13.4641171164785],[121.82322511597043,13.4641171164785],[121.82322511597046,13.464117116478533],[121.82311414352984,13.464194671232526],[121.82324751380405,13.46435676747874],[121.82334223029177,13.464266715662506],[121.82326645861598,13.464190061073399]]]}},{"type":"Feature","properties":{"Id":0,"CLN":"5915 pt","PSGC":"174001043","Barangay":"Pili","Land_Class":"RESIDENTIAL","PIN":"030-01-040-02-058","ALN":"058","Section":"02","Brgy_Code":"040","Owner":"MATINING, DELFIN","TaxDecNo":"21738"},"geometry":{"type":"Polygon","coordinates":[[[121.82335138844992,13.463941645316885],[121.82327550548662,13.463822799325188],[121.82322640808235,13.463852734556086],[121.8231843546738,13.463884698814422],[121.82313360009233,13.463923276701335],[121.82308998490525,13.463944365489823],[121.82315488733924,13.46401919482058],[121.82318215744567,13.464057218270012],[121.82335138844992,13.463941645316885]]]}},{"type":"Feature","properties":{"Id":0,"CLN":"5959 pt","PSGC":"174001043","Barangay":"Pili","Land_Class":"RESIDENTIAL","PIN":"030-01-040-02-061","ALN":"061","Section":"02","Brgy_Code":"040","Owner":"MAGO, BONIFACIO","TaxDecNo":"21742"},"geometry":{"type":"Polygon","coordinates":[[[121.82357910177839,13.463768593461486],[121.8234816885469,13.463836758725739],[121.82351992597361,13.463891371201555],[121.82355231843195,13.463931827179728],[121.82365544926147,13.463852380791963],[121.82357910177839,13.463768593461486]]]}},{"type":"Feature","properties":{"Id":0,"CLN":"5959 pt","PSGC":"174001043","Barangay":"Pili","Land_Class":"RESIDENTIAL","PIN":"030-01-040-02-060","ALN":"060","Section":"02","Brgy_Code":"040","Owner":"AVESTRUZ, ARTHUR & AVESTRUZ, SALVACIO","TaxDecNo":"21740"},"geometry":{"type":"Polygon","coordinates":[[[121.82357910177839,13.463768593461486],[121.82349198495004,13.463672987249158],[121.8234064983139,13.463729368445353],[121.8234816885469,13.463836758725739],[121.82357910177839,13.463768593461486]]]}},{"type":"Feature","properties":{"Id":0,"CLN":"5957 pt","PSGC":"174001043","Barangay":"Pili","Land_Class":"RESIDENTIAL","PIN":"030-01-040-02-069","ALN":"069","Section":"02","Brgy_Code":"040","Owner":"MATINING, ERLINDA","TaxDecNo":"21748"},"geometry":{"type":"Polygon","coordinates":[[[121.82345674260655,13.463503112371683],[121.82354364651226,13.463622288209137],[121.82363954565167,13.463528175705482],[121.82358034212223,13.463400140680235],[121.82345674260655,13.463503112371683]]]}},{"type":"Feature","properties":{"Id":0,"CLN":"5960 pt","PSGC":"174001043","Barangay":"Pili","Land_Class":"RESIDENTIAL","PIN":"030-01-040-02-078","ALN":"078","Section":"02","Brgy_Code":"040","Owner":"MATINING, ELENA","TaxDecNo":"21756"},"geometry":{"type":"Polygon","coordinates":[[[121.82400047460972,13.463737755873252],[121.8238210497108,13.46348643902661],[121.82380650269273,13.463495243043296],[121.8236828399959,13.463572738710678],[121.82384499445226,13.46385281169797],[121.82400047460972,13.463737755873252]]]}},{"type":"Feature","properties":{"Id":0,"CLN":"5966 pt","PSGC":"174001043","Barangay":"Pili","Land_Class":"RESIDENTIAL","PIN":"030-01-040-02-092","ALN":"092","Section":"02","Brgy_Code":"040","Owner":"NITORAL, FELINO M.","TaxDecNo":"21768"},"geometry":{"type":"Polygon","coordinates":[[[121.823956372242,13.463308947844341],[121.82392492077717,13.46327698192387],[121.82386725586245,13.463332882612834],[121.82389463324206,13.46336260325438],[121.823956372242,13.463308947844341]]]}},{"type":"Feature","properties":{"Id":0,"CLN":"5905 pt","PSGC":"174001043","Barangay":"Pili","Land_Class":"RESIDENTIAL","PIN":"030-01-040-01-018","ALN":"018","Section":"01","Brgy_Code":"040","Owner":"TAN, JOSELITO R. & UY, LOURDES T.","TaxDecNo":"01-28881"},"geometry":{"type":"Polygon","coordinates":[[[121.82151739283061,13.46618124892446],[121.82180315720028,13.46668366234493],[121.82215263967875,13.466756010713361],[121.82234310981252,13.466686193056688],[121.82255783216563,13.466843558219098],[121.8225787752031,13.466828526655334],[121.82316658532804,13.466340175138775],[121.82352563300742,13.466011089200371],[121.82341980909274,13.465874252833787],[121.82312205494046,13.466027398322302],[121.82296284229115,13.465926169747497],[121.82289482919656,13.465780709105323],[121.8227277987499,13.465779926787217],[121.82278556369032,13.465631333644513],[121.82278594583055,13.465553181986962],[121.8229456494196,13.465553929942098],[121.8231050751521,13.465442572838775],[121.822961911233,13.465178859422277],[121.8225190434721,13.46540958084003],[121.82251797571529,13.465408026707264],[121.82245166066156,13.465521983723134],[121.82238100797554,13.465643394455972],[121.8221983555787,13.465642538598445],[121.82196175868971,13.465647012162552],[121.82191039807444,13.46565235381637],[121.82176021986925,13.465453475103514],[121.82170151669337,13.465367781903955],[121.82152687367117,13.465465771042965],[121.82151739283061,13.46618124892446]]]}},{"type":"Feature","properties":{"Id":0,"CLN":"5905 pt","PSGC":"174001043","Barangay":"Pili","Land_Class":"AGRICULTURAL","PIN":"030-01-040-01-017","ALN":"017","Section":"01","Brgy_Code":"040","Owner":"MATINING, DELFIN","TaxDecNo":"21667"},"geometry":{"type":"Polygon","coordinates":[[[121.82220140388388,13.464935248018024],[121.82210099413726,13.46476912348297],[121.82166402099955,13.465308097969334],[121.82170151669337,13.465367781903955],[121.82176021986925,13.465453475103514],[121.82220140388388,13.464935248018024]]]}},{"type":"Feature","properties":{"Id":0,"CLN":"5905 pt","PSGC":"174001043","Barangay":"Pili","Land_Class":"AGRICULTURAL","PIN":"030-01-040-01-016","ALN":"016","Section":"01","Brgy_Code":"040","Owner":"MATINING, WILFREDO","TaxDecNo":"21666"},"geometry":{"type":"Polygon","coordinates":[[[121.82196175868971,13.465647012162552],[121.82226965107084,13.46504658660263],[121.82220140388388,13.464935248018024],[121.82176021986925,13.465453475103514],[121.82191039807444,13.46565235381637],[121.82196175868971,13.465647012162552]]]}},{"type":"Feature","properties":{"Id":0,"CLN":"5905 pt","PSGC":"174001043","Barangay":"Pili","Land_Class":"AGRICULTURAL","PIN":"030-01-040-01-014","ALN":"014","Section":"01","Brgy_Code":"040","Owner":"MATINING, BELEN MANSIA","TaxDecNo":"21664"},"geometry":{"type":"Polygon","coordinates":[[[121.822961911233,13.465178859422277],[121.82283786742447,13.464958033882553],[121.82252305562093,13.465172348113676],[121.82235954000892,13.464998574797205],[121.82219876801977,13.464751570272018],[121.82210099413726,13.46476912348297],[121.82226965107084,13.46504658660263],[121.8225190434721,13.46540958084003],[121.822961911233,13.465178859422277]]]}},{"type":"Feature","properties":{"Id":0,"CLN":"5941 pt","PSGC":"174001043","Barangay":"Pili","Land_Class":"AGRICULTURAL","PIN":"030-01-040-01-021","ALN":"021","Section":"01","Brgy_Code":"040","Owner":"HRS OF MAHAGUAY, URSULA","TaxDecNo":"21670"},"geometry":{"type":"Polygon","coordinates":[[[121.82219874186646,13.464751530079402],[121.82219876801977,13.464751570272018],[121.82235954000892,13.464998574797205],[121.82274499220176,13.46479269506933],[121.8225569346588,13.464469856147412],[121.82215192074678,13.464679574950354],[121.82208779741084,13.46457752942439],[121.82161246489592,13.464820798680863],[121.82130463242525,13.465069678989616],[121.82145356722208,13.46522884503301],[121.82149896890566,13.465315393631446],[121.82152687367117,13.465465771042965],[121.82170151669337,13.465367781903955],[121.82166402099955,13.465308097969334],[121.82210099413726,13.46476912348297],[121.82219874186646,13.464751530079402]]]}},{"type":"Feature","properties":{"Id":0,"CLN":"5915 pt","PSGC":"174001043","Barangay":"Pili","Land_Class":"RESIDENTIAL","PIN":"030-01-040-02-066","ALN":"066","Section":"02","Brgy_Code":"040","Owner":"MANSIA, BELEN MATINING","TaxDecNo":"21746"},"geometry":{"type":"Polygon","coordinates":[[[121.82322511597043,13.4641171164785],[121.82322511597046,13.4641171164785],[121.82326645861598,13.464190061073399],[121.82343024975863,13.464063069832937],[121.82338345951779,13.463991874178873],[121.82335138844992,13.463941645316885],[121.82318215744569,13.464057218270032],[121.82322511597043,13.4641171164785]]]}},{"type":"Feature","properties":{"Id":0,"CLN":"5959 pt","PSGC":"174001043","Barangay":"Pili","Land_Class":"RESIDENTIAL","PIN":"030-01-040-02-098","ALN":"098","Section":"02","Brgy_Code":"040","Owner":"AVESTRUZ, ARTHUR & AVESTRUZ, SALVACION","TaxDecNo":"21776"},"geometry":{"type":"Polygon","coordinates":[[[121.82363983528062,13.464031861453424],[121.82374829711254,13.46395427630092],[121.8236554492615,13.463852380791977],[121.82355231843195,13.463931827179728],[121.82363983528062,13.464031861453424]]]}},{"type":"Feature","properties":{"Id":0,"CLN":"5959 pt","PSGC":"174001043","Barangay":"Pili","Land_Class":"AGRICULTURAL","PIN":"030-01-040-02-099","ALN":"099","Section":"02","Brgy_Code":"040","Owner":"MAGO, LOPE","TaxDecNo":"21777"},"geometry":{"type":"Polygon","coordinates":[[[121.82378031836767,13.464192461055077],[121.82386706789973,13.46408464378833],[121.82374829711254,13.46395427630092],[121.82363983528062,13.464031861453424],[121.82355231843195,13.463931827179728],[121.82351992597361,13.463891371201555],[121.82338345951779,13.463991874178873],[121.82343024975863,13.464063069832937],[121.82351683855481,13.464152195914853],[121.82358706737615,13.464250117485946],[121.82370084212585,13.464341145161592],[121.82372844880963,13.464386613774314],[121.82378031836767,13.464192461055077]]]}},{"type":"Feature","properties":{"Id":0,"CLN":"5967","PSGC":"174001043","Barangay":"Pili","Land_Class":"RESIDENTIAL","PIN":"030-01-040-02-031","ALN":"031","Section":"02","Brgy_Code":"040","Owner":"NITORAL, RODOLFO","TaxDecNo":"21709"},"geometry":{"type":"Polygon","coordinates":[[[121.82423698342853,13.463849336415494],[121.82402391435971,13.463597796007495],[121.824009381919,13.463603357693096],[121.82392702488299,13.463634876392394],[121.82400047460972,13.463737755873252],[121.82412356475488,13.46391016541027],[121.82423698342853,13.463849336415494]]]}},{"type":"Feature","properties":{"Id":0,"CLN":"5966 pt","PSGC":"174001043","Barangay":"Pili","Land_Class":"AGRICULTURAL","PIN":"030-01-040-02-082","ALN":"082","Section":"02","Brgy_Code":"040","Owner":"NITORAL, RODOLFO","TaxDecNo":"21759"},"geometry":{"type":"Polygon","coordinates":[[[121.82402391435971,13.463597796007495],[121.82423698342853,13.463849336415494],[121.82427408662494,13.463829437115232],[121.82427408662494,13.46382943711518],[121.82427443928573,13.46382924797501],[121.82437638105812,13.463744552763306],[121.82422215106959,13.463499736028496],[121.82412528541687,13.463550206205955],[121.82412526072154,13.463550159864218],[121.82402391435971,13.463597796007495]]]}},{"type":"Feature","properties":{"Id":0,"CLN":"5966 pt","PSGC":"174001043","Barangay":"Pili","Land_Class":"AGRICULTURAL","PIN":"030-01-040-02-084","ALN":"084","Section":"02","Brgy_Code":"040","Owner":"MAGO, TRINIDAD","TaxDecNo":"21761"},"geometry":{"type":"Polygon","coordinates":[[[121.82403562448691,13.463356882819458],[121.8239289440963,13.463421294471527],[121.824009381919,13.463603357693096],[121.82402391435971,13.463597796007495],[121.82412526072154,13.463550159864218],[121.82403562448691,13.463356882819458]]]}},{"type":"Feature","properties":{"Id":0,"CLN":"5966 pt","PSGC":"174001043","Barangay":"Pili","Land_Class":"AGRICULTURAL","PIN":"030-01-040-02-085","ALN":"085","Section":"02","Brgy_Code":"040","Owner":"NITORAL, FELINO M.","TaxDecNo":"21762"},"geometry":{"type":"Polygon","coordinates":[[[121.82413017143696,13.463299797045346],[121.82403562448691,13.463356882819452],[121.82412528279174,13.463550207452823],[121.82422215106959,13.463499736028496],[121.82422166196203,13.463498959643482],[121.82413017143696,13.463299797045346]]]}},{"type":"Feature","properties":{"Id":0,"CLN":"5966 pt","PSGC":"174001043","Barangay":"Pili","Land_Class":"AGRICULTURAL","PIN":"030-01-040-02-083","ALN":"083","Section":"02","Brgy_Code":"040","Owner":"HRS. OF MAGO, ROMULO","TaxDecNo":"21760"},"geometry":{"type":"Polygon","coordinates":[[[121.8239289440963,13.463421294471527],[121.8238210497108,13.46348643902661],[121.82392702488299,13.463634876392394],[121.824009381919,13.463603357693096],[121.8239289440963,13.463421294471527]]]}},{"type":"Feature","properties":{"Id":0,"CLN":"5966 pt","PSGC":"174001043","Barangay":"Pili","Land_Class":"RESIDENTIAL","PIN":"030-01-040-02-081","ALN":"081","Section":"02","Brgy_Code":"040","Owner":"NITORAL, FELINO M.","TaxDecNo":"21757"},"geometry":{"type":"Polygon","coordinates":[[[121.82394128374537,13.463413844023309],[121.82378840347484,13.463247281102538],[121.82366944584905,13.463345550753662],[121.82380650269273,13.463495243043296],[121.8238210497108,13.46348643902661],[121.8239289440963,13.463421294471527],[121.82394128374537,13.463413844023309]]]}},{"type":"Feature","properties":{"Id":0,"CLN":"5966 pt","PSGC":"174001043","Barangay":"Pili","Land_Class":"RESIDENTIAL","PIN":"030-01-040-02-091","ALN":"091","Section":"02","Brgy_Code":"040","Owner":"NITORAL, FELINO M.","TaxDecNo":"21767"},"geometry":{"type":"Polygon","coordinates":[[[121.82394128374537,13.463413844023309],[121.82401516244826,13.463369237427406],[121.823956372242,13.463308947844341],[121.82389463324206,13.46336260325438],[121.82394128374537,13.463413844023309]]]}},{"type":"Feature","properties":{"Id":0,"CLN":"5966 pt","PSGC":"174001043","Barangay":"Pili","Land_Class":"RESIDENTIAL","PIN":"030-01-040-02-062","ALN":"062","Section":"02","Brgy_Code":"040","Owner":"DE LOS REYES, ROSENDA M.","TaxDecNo":"21743"},"geometry":{"type":"Polygon","coordinates":[[[121.82389608773404,13.463158324137463],[121.82403159146098,13.463328496623197],[121.82412496650937,13.46325186345237],[121.82398982652377,13.463080887298828],[121.82389608773404,13.463158324137463]]]}}]}