{"type":"FeatureCollection","name":"Tumapon","crs":{"type":"name","properties":{"name":"urn:ogc:def:crs:OGC:1.3:CRS84"}},"features":[{"type":"Feature","properties":{"Id":0,"CLN":"11090","PSGC":"174001060","Barangay":"Tumapon","Land_Class":"AGRICULTURAL","PIN":"030-01-055-01-036","ALN":"036","Section":"01","Brgy_Code":"055","Owner":"MASCAREÑAS, ATILANO","TaxDecNo":"28607"},"geometry":{"type":"Polygon","coordinates":[[[121.8562894145992,13.43158758678065],[121.85603014539153,13.431226875040313],[121.8558014214265,13.431865753985145],[121.85580011150194,13.43199400880771],[121.85582725785923,13.432210615700349],[121.85578286898124,13.43245547598332],[121.8561642412994,13.432560445594627],[121.85623788777846,13.43236854427864],[121.85650539067585,13.431905525329235],[121.85652494613858,13.431858306902923],[121.8562894145992,13.43158758678065]]]}},{"type":"Feature","properties":{"Id":0,"CLN":"11091","PSGC":"174001060","Barangay":"Tumapon","Land_Class":"AGRICULTURAL","PIN":"030-01-055-01-037","ALN":"037","Section":"01","Brgy_Code":"055","Owner":"LARDIZABAL, EMILIO","TaxDecNo":"28608"},"geometry":{"type":"Polygon","coordinates":[[[121.85654429990824,13.431853664028425],[121.85677191389968,13.431755351925073],[121.85692224713515,13.43164722753017],[121.85710670125351,13.431477758469073],[121.85721825954359,13.431393111567163],[121.85749979478315,13.431066482164656],[121.85744232836272,13.430997742614256],[121.85724913767544,13.430995871139354],[121.85675090876997,13.4310882251842],[121.85660641697424,13.430983493648537],[121.85643518401456,13.431422673339302],[121.8562894145992,13.43158758678065],[121.85652494613858,13.431858306902923],[121.85654429990824,13.431853664028425]]]}},{"type":"Feature","properties":{"Id":0,"CLN":"11092","PSGC":"174001060","Barangay":"Tumapon","Land_Class":"AGRICULTURAL","PIN":"030-01-055-01-056","ALN":"056","Section":"01","Brgy_Code":"055","Owner":"DONSTON, RITA MICHELE","TaxDecNo":"28627"},"geometry":{"type":"Polygon","coordinates":[[[121.85603014539153,13.431226875040313],[121.8562894145992,13.43158758678065],[121.85643518401456,13.431422673339302],[121.85660641697424,13.430983493648537],[121.85615985603759,13.430371203907075],[121.85584628394083,13.430251512167606],[121.85580430832921,13.43104476811287],[121.8558014214265,13.431865753985145],[121.85603014539153,13.431226875040313]]]}},{"type":"Feature","properties":{"Id":0,"CLN":"11102","PSGC":"174001060","Barangay":"Tumapon","Land_Class":"AGRICULTURAL","PIN":"030-01-055-01-055","ALN":"055","Section":"01","Brgy_Code":"055","Owner":"DE LA SANTA, RICARDO","TaxDecNo":"28626"},"geometry":{"type":"Polygon","coordinates":[[[121.85584628394083,13.430251512167606],[121.85584274984959,13.430147420314361],[121.85623080864123,13.42984641620608],[121.85626999596765,13.428828963800683],[121.85610655621359,13.42887027273598],[121.85618247886329,13.428962547213006],[121.85568170659408,13.430006902601715],[121.85566423253206,13.42999207389053],[121.85553905051893,13.430124115155264],[121.85584628394083,13.430251512167606]]]}},{"type":"Feature","properties":{"Id":0,"CLN":"11096","PSGC":"174001060","Barangay":"Tumapon","Land_Class":"AGRICULTURAL","PIN":"030-01-055-01-054","ALN":"054","Section":"01","Brgy_Code":"055","Owner":"DONSTON, RITA MICHELE","TaxDecNo":"28625"},"geometry":{"type":"Polygon","coordinates":[[[121.85626999596765,13.428828963800683],[121.85618555404436,13.42851740429419],[121.8562558405064,13.428189726766707],[121.85618822334838,13.427953935142487],[121.85624204989769,13.427840187262127],[121.85626678245673,13.427693576484174],[121.85619896619822,13.427499834803463],[121.85602844983865,13.427221525243835],[121.85587938016877,13.42722395039297],[121.85578012971563,13.427204050706385],[121.8556609923302,13.427187950491728],[121.85558942879558,13.427195405146374],[121.85572647031884,13.427489279607425],[121.85559500609033,13.428035343481126],[121.855608592786,13.428183615057627],[121.85573817802127,13.4281251352041],[121.85610655621359,13.42887027273598],[121.85626999596765,13.428828963800683]]]}},{"type":"Feature","properties":{"Id":0,"CLN":"11048","PSGC":"174001060","Barangay":"Tumapon","Land_Class":"AGRICULTURAL","PIN":"030-01-055-01-040","ALN":"040","Section":"01","Brgy_Code":"055","Owner":"DE LA SANTA, RICARDO","TaxDecNo":"28611"},"geometry":{"type":"Polygon","coordinates":[[[121.85317144651349,13.431457510156001],[121.8525698397812,13.430590627243305],[121.85223460956216,13.430707467782852],[121.85274621679325,13.431763894353677],[121.8528174048424,13.431793382276783],[121.85289510047342,13.431844859372637],[121.85317144651349,13.431457510156001]]]}},{"type":"Feature","properties":{"Id":0,"CLN":"11050 RW","PSGC":"174001060","Barangay":"Tumapon","Land_Class":null,"PIN":"030-01-055-01-","ALN":null,"Section":"01","Brgy_Code":"055"},"geometry":{"type":"Polygon","coordinates":[[[121.85163325733527,13.431996340232526],[121.85163325733527,13.431996340232528],[121.85166116414976,13.432029921719954],[121.85166116414976,13.432029921719954],[121.8519832191315,13.431948530626345],[121.85199331534812,13.431878427133075],[121.85198104611044,13.431815170675822],[121.85197811332345,13.431669687914091],[121.85203421164381,13.431627996997426],[121.85213436453792,13.431638351603768],[121.852227039238,13.43167476752066],[121.85222993680595,13.431619372545091],[121.85213801845886,13.431581715679062],[121.8520112579919,13.43155984989047],[121.85193475286364,13.431641106048318],[121.85191956251009,13.431786506219149],[121.8519430686199,13.431929750532724],[121.85173665508727,13.431948857595248],[121.85163325733527,13.431996340232523],[121.85163325733527,13.431996340232526]]]}},{"type":"Feature","properties":{"Id":0,"CLN":"11066","PSGC":"174001060","Barangay":"Tumapon","Land_Class":"AGRICULTURAL","PIN":"030-01-055-01-022","ALN":"022","Section":"01","Brgy_Code":"055","Owner":"DE LA SANTA, RICARDO","TaxDecNo":"28595"},"geometry":{"type":"Polygon","coordinates":[[[121.85214090073084,13.431737842319784],[121.85208651451941,13.431741142549141],[121.85207591478785,13.431825636484014],[121.85207620306441,13.431970394076785],[121.851931883779,13.43204640842323],[121.85198291437413,13.432192201974674],[121.85240914704583,13.432295403817143],[121.85282763840266,13.43198550006449],[121.85265059830954,13.431884053100573],[121.85216610437625,13.431773437496286],[121.85214090073084,13.431737842319784]]]}},{"type":"Feature","properties":{"Id":0,"CLN":"11034","PSGC":"174001060","Barangay":"Tumapon","Land_Class":"AGRICULTURAL","PIN":"030-01-055-01-050","ALN":"050","Section":"01","Brgy_Code":"055","Owner":"ASUNCION, GLORIA, PEDRO & PORFIRIO LUMUCSO","TaxDecNo":"28621"},"geometry":{"type":"Polygon","coordinates":[[[121.85236707779309,13.426929182567529],[121.85218375056016,13.426860177064498],[121.85149931463025,13.427643513583671],[121.85170820264035,13.428170884477412],[121.85220195872924,13.427926436019678],[121.852397660129,13.427725483530354],[121.85231800525139,13.427612985324565],[121.85236707779309,13.426929182567529]]]}},{"type":"Feature","properties":{"Id":0,"CLN":"11036","PSGC":"174001060","Barangay":"Tumapon","Land_Class":"AGRICULTURAL","PIN":"030-01-055-01-051","ALN":"051","Section":"01","Brgy_Code":"055","Owner":"DE LA SANTA, RICARDO","TaxDecNo":"28622"},"geometry":{"type":"Polygon","coordinates":[[[121.85380763380986,13.427530056717854],[121.85428854513354,13.428407601445539],[121.8548563676705,13.428246184321734],[121.8549968215872,13.42786219325505],[121.85487803201774,13.42775428812684],[121.85485327439176,13.42753971641426],[121.85451412674972,13.427371795088805],[121.85424897635843,13.427240511371739],[121.85418883757083,13.427264431914045],[121.85395844295957,13.427359035114288],[121.85380763380986,13.427530056717854]]]}},{"type":"Feature","properties":{"Id":0,"CLN":"11037","PSGC":"174001060","Barangay":"Tumapon","Land_Class":"AGRICULTURAL","PIN":"030-01-055-01-052","ALN":"052","Section":"01","Brgy_Code":"055","Owner":"DE LA SANTA, RICARDO","TaxDecNo":"28623"},"geometry":{"type":"Polygon","coordinates":[[[121.85502240797281,13.428562320009627],[121.85549375453921,13.428362617306979],[121.85545705334793,13.428015986704812],[121.85525930800551,13.427816708034285],[121.8549968215872,13.42786219325505],[121.8548563676705,13.428246184321734],[121.85502240797281,13.428562320009627]]]}},{"type":"Feature","properties":{"Id":0,"CLN":"11040","PSGC":"174001060","Barangay":"Tumapon","Land_Class":"AGRICULTURAL","PIN":"030-01-055-01-053","ALN":"053","Section":"01","Brgy_Code":"055","Owner":"DE LA SANTA, RICARDO","TaxDecNo":"28624"},"geometry":{"type":"Polygon","coordinates":[[[121.8556709791544,13.42903833804737],[121.85569111744495,13.428868123633084],[121.85564750628382,13.428552544336235],[121.85549375453921,13.428362617306979],[121.85502240797281,13.428562320009627],[121.85518113764189,13.429061343489153],[121.85538107204805,13.429024406041641],[121.8555802589553,13.429145155649277],[121.8556709791544,13.42903833804737]]]}},{"type":"Feature","properties":{"Id":0,"CLN":"11089","PSGC":"174001060","Barangay":"Tumapon","Land_Class":"AGRICULTURAL","PIN":"030-01-055-01-035","ALN":"035","Section":"01","Brgy_Code":"055","Owner":"MAYORGA, LORENZA","TaxDecNo":"28606"},"geometry":{"type":"Polygon","coordinates":[[[121.8558014214265,13.431865753985145],[121.85528891459407,13.43187562157385],[121.8552874950734,13.432002064819345],[121.8554621468129,13.432068405037516],[121.85580011150194,13.43199400880771],[121.8558014214265,13.431865753985145]]]}},{"type":"Feature","properties":{"Id":0,"CLN":"11086","PSGC":"174001060","Barangay":"Tumapon","Land_Class":"AGRICULTURAL","PIN":"030-01-055-01-032","ALN":"032","Section":"01","Brgy_Code":"055","Owner":"MARANDA, RAFAEL","TaxDecNo":"01-26325"},"geometry":{"type":"Polygon","coordinates":[[[121.85580011150194,13.43199400880771],[121.8554621468129,13.432068405037516],[121.85546186750081,13.432237992791277],[121.8553763571944,13.432520125038906],[121.85503072832763,13.4325470337268],[121.85494581819427,13.432435136454334],[121.85485146600793,13.432641941166375],[121.85487196309269,13.432647550056434],[121.85488221301063,13.432844339584339],[121.85569807127912,13.432721733199685],[121.85578286898124,13.43245547598332],[121.85582725785923,13.432210615700349],[121.85580011150194,13.43199400880771]]]}},{"type":"Feature","properties":{"Id":0,"CLN":"11087","PSGC":"174001060","Barangay":"Tumapon","Land_Class":"AGRICULTURAL","PIN":"030-01-055-01-069","ALN":"069","Section":"01","Brgy_Code":"055","Owner":"LAMANDO, DANTE L.","TaxDecNo":"31359"},"geometry":{"type":"Polygon","coordinates":[[[121.85546186750081,13.432237992791277],[121.85523901632114,13.432236492300978],[121.85518892663686,13.43237766766805],[121.8549625483943,13.43239562505208],[121.85494581819427,13.432435136454334],[121.85503072832763,13.4325470337268],[121.8553763571944,13.432520125038906],[121.85546186750081,13.432237992791277]]]}},{"type":"Feature","properties":{"Id":0,"CLN":"11088","PSGC":"174001060","Barangay":"Tumapon","Land_Class":"AGRICULTURAL","PIN":"030-01-055-01-034","ALN":"034","Section":"01","Brgy_Code":"055","Owner":"LAMANDO, DANTE L.","TaxDecNo":"31358"},"geometry":{"type":"Polygon","coordinates":[[[121.85546186750081,13.432237992791277],[121.8554621468129,13.432068405037516],[121.8552874950734,13.432002064819345],[121.85528686193727,13.432027694208255],[121.85523901632114,13.432236492300978],[121.85546186750081,13.432237992791277]]]}},{"type":"Feature","properties":{"Id":0,"CLN":"11082","PSGC":"174001060","Barangay":"Tumapon","Land_Class":"AGRICULTURAL","PIN":"030-01-055-01-007","ALN":"007","Section":"01","Brgy_Code":"055","Owner":"OLIVAR, TIMOTEO","TaxDecNo":"28580"},"geometry":{"type":"Polygon","coordinates":[[[121.85587821581035,13.43396807447211],[121.85588154755766,13.433570618579317],[121.85569369059813,13.433645710211376],[121.85569546091295,13.433272322249188],[121.85507505259613,13.433212544485409],[121.85472697212724,13.432989456143252],[121.8546750387739,13.433033521235952],[121.85465501192778,13.433166333803438],[121.85458359222703,13.433229296503537],[121.85461528851991,13.433362344245452],[121.85456326495749,13.433425395126916],[121.8543949541991,13.433468930931982],[121.85456672680857,13.434058285214956],[121.85463781639886,13.434064937219555],[121.85489490180727,13.434388872018733],[121.85494446325586,13.434844766882197],[121.85587821581035,13.43396807447211]]]}},{"type":"Feature","properties":{"Id":0,"CLN":"11077","PSGC":"174001060","Barangay":"Tumapon","Land_Class":"AGRICULTURAL","PIN":"030-01-055-01-006","ALN":"006","Section":"01","Brgy_Code":"055","Owner":"OLIVAR, JOSE","TaxDecNo":"28579"},"geometry":{"type":"Polygon","coordinates":[[[121.85494446325586,13.434844766882197],[121.85489490180727,13.434388872018733],[121.85463781639886,13.434064937219555],[121.85456672680857,13.434058285214956],[121.8538408866515,13.434415721781937],[121.85399407346279,13.434834115758012],[121.85494446325586,13.434844766882197]]]}},{"type":"Feature","properties":{"Id":0,"CLN":"11081","PSGC":"174001060","Barangay":"Tumapon","Land_Class":"AGRICULTURAL","PIN":"030-01-055-01-009","ALN":"009","Section":"01","Brgy_Code":"055","Owner":"OLIVAR, MARIA","TaxDecNo":"28582"},"geometry":{"type":"Polygon","coordinates":[[[121.85458359222703,13.433229296503537],[121.85429878330301,13.433388907935983],[121.8543949541991,13.433468930931982],[121.85456326495749,13.433425395126916],[121.85461528851991,13.433362344245452],[121.85458359222703,13.433229296503537]]]}},{"type":"Feature","properties":{"Id":0,"CLN":"11076","PSGC":"174001060","Barangay":"Tumapon","Land_Class":"AGRICULTURAL","PIN":"030-01-055-01-004","ALN":"004","Section":"01","Brgy_Code":"055","Owner":"MALAPAD, EFREN","TaxDecNo":"28577"},"geometry":{"type":"Polygon","coordinates":[[[121.85399407346279,13.434834115758012],[121.8538408866515,13.434415721781937],[121.85318072135533,13.434558277947486],[121.85326329842758,13.43486876219067],[121.85326113317807,13.435324421628868],[121.85367485097814,13.435341275830787],[121.85399407346279,13.434834115758012]]]}},{"type":"Feature","properties":{"Id":0,"CLN":"11075","PSGC":"174001060","Barangay":"Tumapon","Land_Class":null,"PIN":"030-01-055-01-003","ALN":"003","Section":"01","Brgy_Code":"055"},"geometry":{"type":"Polygon","coordinates":[[[121.85326113317807,13.435324421628868],[121.85326329842758,13.43486876219067],[121.85318072135533,13.434558277947486],[121.85241572877847,13.433630797847812],[121.85255944196234,13.433321344292551],[121.85252146196292,13.433150295315883],[121.85232070381313,13.433218996871425],[121.85214526537125,13.433401730933927],[121.85204127719723,13.433515174355005],[121.85187928093374,13.433590380906342],[121.85159386975948,13.433785270733454],[121.85194468035027,13.43479313920991],[121.85254437094126,13.435131295057891],[121.85282259565997,13.435088261249707],[121.85326113317807,13.435324421628868]]]}},{"type":"Feature","properties":{"Id":0,"CLN":"11074","PSGC":"174001060","Barangay":"Tumapon","Land_Class":"AGRICULTURAL","PIN":"030-01-055-01-002","ALN":"002","Section":"01","Brgy_Code":"055","Owner":"APOSTOL, XAVIER","TaxDecNo":"28576"},"geometry":{"type":"Polygon","coordinates":[[[121.85138058072698,13.434703993291421],[121.85167129765131,13.434743285175067],[121.85194468035027,13.43479313920991],[121.85159386975948,13.433785270733454],[121.85154004101041,13.4337933761499],[121.85139112583512,13.433836998314762],[121.85138058072698,13.434703993291421]]]}},{"type":"Feature","properties":{"Id":0,"CLN":"11078","PSGC":"174001060","Barangay":"Tumapon","Land_Class":"AGRICULTURAL","PIN":"030-01-055-01-005","ALN":"005","Section":"01","Brgy_Code":"055","Owner":"VDA. DE MONROYO, VIVENCIA MONTEAGUDO","TaxDecNo":"28578"},"geometry":{"type":"Polygon","coordinates":[[[121.85429878330301,13.433388907935983],[121.85418902270115,13.433265474524518],[121.8542734033425,13.433196242152237],[121.8542284760407,13.433126421632835],[121.85413158525982,13.43310699468468],[121.85400209709182,13.433144378090429],[121.85309597966774,13.433342773935696],[121.85296670179069,13.43333585656068],[121.85280524734611,13.43329714888437],[121.85252146196292,13.433150295315883],[121.85255944196234,13.433321344292551],[121.85241572877847,13.433630797847812],[121.85318072135533,13.434558277947486],[121.8538408866515,13.434415721781937],[121.85456672680857,13.434058285214956],[121.8543949541991,13.433468930931982],[121.85429878330301,13.433388907935983]]]}},{"type":"Feature","properties":{"Id":0,"CLN":"11060","PSGC":"174001060","Barangay":"Tumapon","Land_Class":"AGRICULTURAL","PIN":"030-01-055-01-016","ALN":"016","Section":"01","Brgy_Code":"055","Owner":"APOSTOL, MARIA","TaxDecNo":"28589"},"geometry":{"type":"Polygon","coordinates":[[[121.85190610589252,13.433387983544835],[121.85226314726545,13.433085831112708],[121.85221157463218,13.43305395243558],[121.85208104383645,13.4330758117767],[121.85199782551543,13.433135252017948],[121.85183026729027,13.433020571060695],[121.85180054612846,13.433124774927311],[121.85190610589252,13.433387983544835]]]}},{"type":"Feature","properties":{"Id":0,"CLN":"11064","PSGC":"174001060","Barangay":"Tumapon","Land_Class":"AGRICULTURAL","PIN":"030-01-055-01-015","ALN":"015","Section":"01","Brgy_Code":"055","Owner":"APOSTOL, SEVERO","TaxDecNo":"28588"},"geometry":{"type":"Polygon","coordinates":[[[121.85183026729027,13.433020571060695],[121.85199782551543,13.433135252017948],[121.85208104383645,13.4330758117767],[121.85221157463218,13.43305395243558],[121.8519666424449,13.432894617837118],[121.85188432806474,13.432956593775357],[121.85183026729027,13.433020571060695]]]}},{"type":"Feature","properties":{"Id":0,"CLN":"11058","PSGC":"174001060","Barangay":"Tumapon","Land_Class":"AGRICULTURAL","PIN":"030-01-055-01-017","ALN":"017","Section":"01","Brgy_Code":"055","Owner":"APOSTOL, SEVERO","TaxDecNo":"28590"},"geometry":{"type":"Polygon","coordinates":[[[121.8516313693301,13.432945502109483],[121.85183026729027,13.433020571060695],[121.85188432806474,13.432956593775357],[121.8519666424449,13.432894617837118],[121.85196811000114,13.432864700931193],[121.85170149852158,13.432789689272777],[121.8516313693301,13.432945502109483]]]}},{"type":"Feature","properties":{"Id":0,"CLN":"11057","PSGC":"174001060","Barangay":"Tumapon","Land_Class":"AGRICULTURAL","PIN":"030-01-055-01-019","ALN":"019","Section":"01","Brgy_Code":"055","Owner":"APOSTOL, SEVERO","TaxDecNo":"28592"},"geometry":{"type":"Polygon","coordinates":[[[121.85135362200549,13.432408505159726],[121.85126427609384,13.432371350126397],[121.85115031439281,13.432384169613567],[121.85109736250779,13.432515205743242],[121.85142625254478,13.432875713587032],[121.8515526809677,13.432723320612695],[121.85135362200549,13.432408505159726]]]}},{"type":"Feature","properties":{"Id":0,"CLN":"11080","PSGC":"174001060","Barangay":"Tumapon","Land_Class":"AGRICULTURAL","PIN":"030-01-055-01-010","ALN":"010","Section":"01","Brgy_Code":"055","Owner":"MONROYO, PABLO","TaxDecNo":"28583"},"geometry":{"type":"Polygon","coordinates":[[[121.85472697212724,13.432989456143252],[121.85455291712573,13.432881076113366],[121.85398381272861,13.432910131430111],[121.85400209709182,13.433144378090429],[121.85413158525982,13.43310699468468],[121.8542284760407,13.433126421632835],[121.8542734033425,13.433196242152237],[121.85418902270115,13.433265474524518],[121.85429878330301,13.433388907935983],[121.85458359222703,13.433229296503537],[121.85465501192778,13.433166333803438],[121.8546750387739,13.433033521235952],[121.85472697212724,13.432989456143252]]]}},{"type":"Feature","properties":{"Id":0,"CLN":"11061","PSGC":"174001060","Barangay":"Tumapon","Land_Class":"AGRICULTURAL","PIN":"030-01-055-01-014","ALN":"014","Section":"01","Brgy_Code":"055","Owner":"APOSTOL, SEVERO","TaxDecNo":"28587"},"geometry":{"type":"Polygon","coordinates":[[[121.8519666424449,13.432894617837118],[121.85221157463218,13.43305395243558],[121.85226314726545,13.433085831112708],[121.85249617207607,13.433029934060125],[121.85238167190019,13.432750268283794],[121.85226540430446,13.4326111859471],[121.85214238157731,13.432648597852964],[121.85196811000114,13.432864700931193],[121.8519666424449,13.432894617837118]]]}},{"type":"Feature","properties":{"Id":0,"CLN":"11062","PSGC":"174001060","Barangay":"Tumapon","Land_Class":"AGRICULTURAL","PIN":"030-01-055-01-021","ALN":"021","Section":"01","Brgy_Code":"055","Owner":"MONROYO, MAXIMIANO","TaxDecNo":"29038"},"geometry":{"type":"Polygon","coordinates":[[[121.85226540430446,13.432611185947094],[121.85226982092787,13.432557813253204],[121.85251150983122,13.432523704739802],[121.85240914704583,13.43229540381715],[121.85198291437413,13.432192201974676],[121.851931883779,13.432046408423231],[121.85177623345386,13.432146958863411],[121.85167218549329,13.43227305937496],[121.85160669581363,13.432422574490316],[121.85155736008879,13.432458859202432],[121.85135362200549,13.432408505159719],[121.8515526809677,13.432723320612695],[121.85170149852158,13.43278968927278],[121.85196811000114,13.432864700931193],[121.85214238157731,13.432648597852971],[121.85226540430446,13.432611185947094]]]}},{"type":"Feature","properties":{"Id":0,"CLN":"11072","PSGC":"174001060","Barangay":"Tumapon","Land_Class":"AGRICULTURAL","PIN":"030-01-055-01-013","ALN":"013","Section":"01","Brgy_Code":"055","Owner":"APOSTOL, XAVIER","TaxDecNo":"28586"},"geometry":{"type":"Polygon","coordinates":[[[121.85252849901671,13.433030081316215],[121.85264475566895,13.433055925815719],[121.85277370248188,13.433132457978727],[121.85285089615074,13.433215083147175],[121.85287155562902,13.432949370130704],[121.85283315433662,13.432866921631968],[121.85251150983122,13.432523704739783],[121.85226982092787,13.432557813253204],[121.85226540430446,13.432611185947083],[121.85238167190019,13.432750268283794],[121.85249617207604,13.433029934060109],[121.85252849901671,13.433030081316215]]]}},{"type":"Feature","properties":{"Id":0,"CLN":"11079","PSGC":"174001060","Barangay":"Tumapon","Land_Class":"AGRICULTURAL","PIN":"030-01-055-01-011","ALN":"011","Section":"01","Brgy_Code":"055","Owner":"MONROYO, PABLO","TaxDecNo":"28584"},"geometry":{"type":"Polygon","coordinates":[[[121.85309597966774,13.433342773935696],[121.85400209709182,13.433144378090429],[121.85398381272861,13.432910131430111],[121.853634471378,13.432952843111913],[121.8532973691744,13.433141171062463],[121.85309597966774,13.433342773935696]]]}},{"type":"Feature","properties":{"Id":0,"CLN":"11085","PSGC":"174001060","Barangay":"Tumapon","Land_Class":"AGRICULTURAL","PIN":"030-01-055-01-031","ALN":"031","Section":"01","Brgy_Code":"055","Owner":"OLIVAR, JOSE","TaxDecNo":"28604"},"geometry":{"type":"Polygon","coordinates":[[[121.85578286898124,13.43245547598332],[121.85604118696236,13.432724982562117],[121.85610566063285,13.432666625607965],[121.8561642412994,13.432560445594627],[121.85578286898124,13.43245547598332]]]}},{"type":"Feature","properties":{"Id":0,"CLN":"16195","PSGC":"174001060","Barangay":"Tumapon","Land_Class":"AGRICULTURAL","PIN":"030-01-055-01-008","ALN":"008","Section":"01","Brgy_Code":"055","Owner":"LAYLAY, LORENZO","TaxDecNo":"28581"},"geometry":{"type":"Polygon","coordinates":[[[121.85595200355085,13.433059094213828],[121.85569546091295,13.433272322249188],[121.85569369059813,13.433645710211376],[121.85588154755766,13.433570618579317],[121.85589576837917,13.433298547081383],[121.85595200355085,13.433059094213828]]]}},{"type":"Feature","properties":{"Id":0,"CLN":"11083","PSGC":"174001060","Barangay":"Tumapon","Land_Class":"AGRICULTURAL","PIN":"030-01-055-01-028","ALN":"028","Section":"01","Brgy_Code":"055","Owner":"LAMANDO, DANTE L.","TaxDecNo":"31360"},"geometry":{"type":"Polygon","coordinates":[[[121.85460518082027,13.432767396362696],[121.8551076797914,13.43314940532885],[121.85547617744798,13.433157408606547],[121.85561847622705,13.433145397606882],[121.8557157272389,13.433088880676886],[121.85569807127912,13.432721733199685],[121.85488221301063,13.432844339584339],[121.85487196309269,13.432647550056434],[121.85485146600793,13.432641941166375],[121.85459231011384,13.432754680353586],[121.85460518082027,13.432767396362696]]]}},{"type":"Feature","properties":{"Id":0,"CLN":"11084","PSGC":"174001060","Barangay":"Tumapon","Land_Class":"AGRICULTURAL","PIN":"030-01-055-01-030","ALN":"030","Section":"01","Brgy_Code":"055","Owner":"MAYORGA, PETRA","TaxDecNo":"28603"},"geometry":{"type":"Polygon","coordinates":[[[121.856008259901,13.432754785764237],[121.85604118696236,13.432724982562117],[121.85578286898124,13.43245547598332],[121.85569807127912,13.432721733199685],[121.856008259901,13.432754785764237]]]}},{"type":"Feature","properties":{"Id":0,"CLN":"11056","PSGC":"174001060","Barangay":"Tumapon","Land_Class":"AGRICULTURAL","PIN":"030-01-055-01-066","ALN":"066","Section":"01","Brgy_Code":"055","Owner":"APOSTOL, XAVIER","TaxDecNo":"28639"},"geometry":{"type":"Polygon","coordinates":[[[121.85142625254478,13.432875713587032],[121.85109736250779,13.432515205743242],[121.85106844951339,13.43258247846154],[121.85064255046012,13.43358420157255],[121.85045694448083,13.434110279162638],[121.85025977116705,13.434758177421411],[121.84949244303914,13.435692356254867],[121.84963619873221,13.435617420547212],[121.84994657165653,13.435487719780467],[121.8502374517797,13.43536276320184],[121.85045704387912,13.435306937456268],[121.8504896880198,13.435225001434508],[121.85064540522416,13.43503628511111],[121.8507753197143,13.43484745094188],[121.85084702815787,13.434689922301555],[121.85104786891519,13.434507725769762],[121.85109356423841,13.434394278007636],[121.85124370139204,13.434022422998874],[121.85128348687428,13.433795292023229],[121.85144196088524,13.43367323163298],[121.85155564949723,13.433664850468332],[121.8516140790264,13.433614486952948],[121.85190610589252,13.433387983544835],[121.85180054612846,13.433124774927311],[121.85183026729027,13.433020571060695],[121.8516313693301,13.432945502109483],[121.85142625254478,13.432875713587032]]]}},{"type":"Feature","properties":{"Id":0,"CLN":"11052","PSGC":"174001060","Barangay":"Tumapon","Land_Class":"AGRICULTURAL","PIN":"030-01-055-01-020","ALN":"020","Section":"01","Brgy_Code":"055","Owner":"HISTORILLO, CLAUDIO","TaxDecNo":"28593"},"geometry":{"type":"Polygon","coordinates":[[[121.851175468357,13.432221127876117],[121.85127944136092,13.432218775258233],[121.85145254588289,13.432253485425633],[121.85155644123817,13.432139628247352],[121.85163325733527,13.431996340232528],[121.85145681100435,13.431958115098086],[121.8510486619248,13.43155907433851],[121.85105907857272,13.431614889182805],[121.85089665759992,13.431900365325081],[121.85088462949224,13.431914842331777],[121.85066850032204,13.432174974553549],[121.85069558651138,13.43223635368615],[121.85061714530255,13.432281937479637],[121.85092901454665,13.432497754662718],[121.851016237608,13.432305203917897],[121.85108299259687,13.432234839849734],[121.851175468357,13.432221127876117]]]}},{"type":"Feature","properties":{"Id":0,"CLN":"11042 pt","PSGC":"174001060","Barangay":"Tumapon","Land_Class":"RESIDENTIAL","PIN":"030-01-055-01-058","ALN":"058","Section":"01","Brgy_Code":"055","Owner":"GIRLS SCOUT OF THE PHILIPPINES","TaxDecNo":"28629"},"geometry":{"type":"Polygon","coordinates":[[[121.85220195872924,13.427926436019675],[121.85220195872924,13.427926436019678],[121.85230591163594,13.428171183760048],[121.85428854513354,13.428407601445539],[121.85380763380986,13.427530056717854],[121.85356643145103,13.427663522117337],[121.85339598473395,13.427371194380902],[121.85299637753963,13.427089037198655],[121.85276801578118,13.426931008070612],[121.85250480866931,13.426873742010542],[121.85236707779309,13.426929182567536],[121.85231800525139,13.427612985324574],[121.852397660129,13.427725483530365],[121.85220195872924,13.42792643601967],[121.85220195872924,13.427926436019675]]]}},{"type":"Feature","properties":{"Id":0,"CLN":"11098","PSGC":"174001060","Barangay":"Tumapon","Land_Class":"AGRICULTURAL","PIN":"030-01-055-01-044","ALN":"044","Section":"01","Brgy_Code":"055","Owner":"MALUBAG, AZUCENA P. , OBEDOZA, MA. LUISA M. , MALUBAG, MA. VERONICA P. &","TaxDecNo":"28615"},"geometry":{"type":"Polygon","coordinates":[[[121.85104758366559,13.428669288278082],[121.85052209141674,13.428250031724987],[121.85042202379309,13.427922719147539],[121.85011821312781,13.427698691921366],[121.85000286155808,13.427532368990398],[121.84947395590801,13.42751841894742],[121.84920133283029,13.427778080486238],[121.84913256084742,13.427972260239073],[121.8491601902611,13.428275986534414],[121.84932991358703,13.428533512414212],[121.84957371711037,13.428780275351452],[121.84961467809225,13.428961775261566],[121.8498101251166,13.429325293310772],[121.84998878993443,13.429448933693058],[121.8506422738518,13.42943484112367],[121.85074023143484,13.42918896161034],[121.85072666074369,13.428989943830045],[121.85104758366559,13.428669288278082]]]}},{"type":"Feature","properties":{"Id":0,"CLN":"11099 pt","PSGC":"174001060","Barangay":"Tumapon","Land_Class":"AGRICULTURAL","PIN":"030-01-055-01-045","ALN":"045","Section":"01","Brgy_Code":"055","Owner":"HIDALGO, EULALIA","TaxDecNo":"28616"},"geometry":{"type":"Polygon","coordinates":[[[121.85142161976425,13.428190459045192],[121.85116204158078,13.42800662373479],[121.85071739667525,13.427886170076496],[121.85067870545575,13.42788125656832],[121.85042202379309,13.427922719147539],[121.85052209141674,13.428250031724987],[121.85104758366559,13.428669288278082],[121.85111513858189,13.428639325907145],[121.85142161976425,13.428190459045192]]]}},{"type":"Feature","properties":{"Id":0,"CLN":"11097 pt","PSGC":"174001060","Barangay":"Tumapon","Land_Class":"AGRICULTURAL","PIN":"030-01-055-01-047","ALN":"047","Section":"01","Brgy_Code":"055","Owner":"OLPOT, BRIGIDA","TaxDecNo":"28618"},"geometry":{"type":"Polygon","coordinates":[[[121.85118435088012,13.427386172412724],[121.85102020086734,13.427304894265855],[121.85071739667525,13.427886170076496],[121.85116204158078,13.42800662373479],[121.85142161976425,13.428190459045192],[121.8516142650116,13.428219731876647],[121.85170820264035,13.428170884477419],[121.85149931463025,13.427643513583678],[121.85144556644508,13.427640621554612],[121.85118435088012,13.427386172412724]]]}},{"type":"Feature","properties":{"Id":0,"CLN":"11097 pt","PSGC":"174001060","Barangay":"Tumapon","Land_Class":"AGRICULTURAL","PIN":"030-01-055-01-049","ALN":"049","Section":"01","Brgy_Code":"055","Owner":"JULAO, AMADOR","TaxDecNo":"28620"},"geometry":{"type":"Polygon","coordinates":[[[121.85211321186665,13.426733926301592],[121.85180976625784,13.426627140747797],[121.85118435088012,13.427386172412724],[121.85144556644508,13.427640621554612],[121.85149931463025,13.427643513583678],[121.85218375056016,13.426860177064496],[121.85211321186665,13.426733926301592]]]}},{"type":"Feature","properties":{"Id":0,"CLN":"11097 pt","PSGC":"174001060","Barangay":"Tumapon","Land_Class":"AGRICULTURAL","PIN":"030-01-055-01-048","ALN":"048","Section":"01","Brgy_Code":"055","Owner":"OLPOT, EUGENIO","TaxDecNo":"28619"},"geometry":{"type":"Polygon","coordinates":[[[121.85180976625784,13.426627140747797],[121.85157150424604,13.426503648826955],[121.85142215806302,13.426592676564985],[121.85097781262063,13.426973972337327],[121.85088076864012,13.42707787476331],[121.85102020086734,13.427304894265855],[121.85118435088012,13.427386172412724],[121.85180976625784,13.426627140747797]]]}},{"type":"Feature","properties":{"Id":0,"CLN":"11099 pt","PSGC":"174001060","Barangay":"Tumapon","Land_Class":"AGRICULTURAL","PIN":"030-01-055-01-046","ALN":"046","Section":"01","Brgy_Code":"055","Owner":"JULAO, AMADOR","TaxDecNo":"28617"},"geometry":{"type":"Polygon","coordinates":[[[121.85088076864012,13.42707787476331],[121.85056105479204,13.426379955147882],[121.8502420395439,13.426394510567965],[121.84969172662451,13.42603576335205],[121.8493336002179,13.426972326291983],[121.84947395590801,13.42751841894742],[121.85000286155808,13.427532368990398],[121.85011821312781,13.427698691921366],[121.85042202379309,13.427922719147539],[121.85067870545575,13.42788125656832],[121.85071739667525,13.427886170076496],[121.85102020086734,13.427304894265855],[121.85088076864012,13.42707787476331]]]}},{"type":"Feature","properties":{"Id":0,"CLN":"11053 RW","PSGC":"174001060","Barangay":"Tumapon","Land_Class":null,"PIN":"030-01-055-01-","ALN":null,"Section":"01","Brgy_Code":"055"},"geometry":{"type":"Polygon","coordinates":[[[121.85094700323201,13.432515146229363],[121.85104507490365,13.432313815663761],[121.85109149443791,13.432268799515045],[121.85123018791526,13.432252471558037],[121.85128214079351,13.432258361943216],[121.85145336578131,13.432292300351866],[121.85154172712838,13.432224924249374],[121.85166116414977,13.43202992171996],[121.85163325733527,13.431996340232528],[121.85155644123817,13.432139628247352],[121.85145254588289,13.432253485425633],[121.85127944136092,13.432218775258233],[121.851175468357,13.432221127876117],[121.85108299259687,13.432234839849734],[121.851016237608,13.432305203917897],[121.85092901454665,13.432497754662718],[121.85094700323201,13.432515146229363]]]}},{"type":"Feature","properties":{"Id":0,"CLN":"11054 RW","PSGC":"174001060","Barangay":"Tumapon","Land_Class":null,"PIN":"030-01-055-01-","ALN":null,"Section":"01","Brgy_Code":"055"},"geometry":{"type":"Polygon","coordinates":[[[121.8510045119414,13.432550357621764],[121.85103194984649,13.43255722033913],[121.85107533459477,13.432521842467466],[121.85113118193362,13.432396567026961],[121.85115031439281,13.432384169613567],[121.85126427609384,13.432371350126397],[121.85135362200549,13.432408505159726],[121.85130483935622,13.432343267678709],[121.85124709747255,13.432340177640048],[121.85116904704846,13.432356782162508],[121.85112615226936,13.432374900121733],[121.85105546364589,13.432504821485711],[121.8510045119414,13.432550357621764]]]}},{"type":"Feature","properties":{"Id":0,"CLN":"11063 RW","PSGC":"174001060","Barangay":"Tumapon","Land_Class":null,"PIN":"030-01-055-01-","ALN":null,"Section":"01","Brgy_Code":"055"},"geometry":{"type":"Polygon","coordinates":[[[121.85155736008879,13.432458859202432],[121.85160669581363,13.432422574490316],[121.85167218549329,13.43227305937496],[121.85177623345386,13.432146958863411],[121.851931883779,13.432046408423231],[121.85192255717307,13.432030550602285],[121.85175758169737,13.432116506960268],[121.85163373438355,13.43225221547846],[121.85154434252043,13.432396522695624],[121.8514443739645,13.432393173105654],[121.85130483935622,13.432343267678705],[121.85135362200549,13.432408505159719],[121.85155736008879,13.432458859202432]]]}},{"type":"Feature","properties":{"Id":0,"CLN":"11055 RW","PSGC":"174001060","Barangay":"Tumapon","Land_Class":null,"PIN":"030-01-055-01-","ALN":null,"Section":"01","Brgy_Code":"055"},"geometry":{"type":"Polygon","coordinates":[[[121.85103194984649,13.43255722033913],[121.85106844951339,13.43258247846154],[121.85109736250779,13.432515205743242],[121.85115031439281,13.432384169613567],[121.85113118193362,13.432396567026961],[121.85107533459477,13.432521842467466],[121.85103194984649,13.43255722033913]]]}},{"type":"Feature","properties":{"Id":0,"CLN":"11043","PSGC":"174001060","Barangay":"Tumapon","Land_Class":"AGRICULTURAL","PIN":"030-01-055-01-057","ALN":"057","Section":"01","Brgy_Code":"055","Owner":"REALINO NEPOMUCENO SANTOS, KENNETH RAFAEL B. SANTOS, KEITH RYAN B. SANTOS, AND ANTONIO NEPOMUCENO SANTOS","TaxDecNo":"31968"},"geometry":{"type":"Polygon","coordinates":[[[121.8534598521368,13.430431381718888],[121.85379692788523,13.430582644167458],[121.8538469857538,13.430325913577507],[121.85371250580954,13.430148688415338],[121.8534598521368,13.430431381718888]]]}},{"type":"Feature","properties":{"Id":0,"CLN":"11049 RW","PSGC":"174001060","Barangay":"Tumapon","Land_Class":null,"PIN":"030-01-055-01-","ALN":null,"Section":"01","Brgy_Code":"055"},"geometry":{"type":"Polygon","coordinates":[[[121.8527684366634,13.431815454697684],[121.85288125424957,13.431884121950228],[121.85289510047342,13.431844859372637],[121.8528174048424,13.431793382276783],[121.85274621679325,13.431763894353677],[121.8527684366634,13.431815454697684]]]}},{"type":"Feature","properties":{"Id":0,"CLN":"11046 RW","PSGC":"174001060","Barangay":"Tumapon","Land_Class":null,"PIN":"030-01-055-01-","ALN":null,"Section":"01","Brgy_Code":"055"},"geometry":{"type":"Polygon","coordinates":[[[121.85289510047342,13.431844859372637],[121.85288125424957,13.431884121950228],[121.8529389883225,13.43191003580572],[121.85351553324274,13.432026384152907],[121.85354991294406,13.432006033020826],[121.85289510047342,13.431844859372637]]]}},{"type":"Feature","properties":{"Id":0,"CLN":"11068","PSGC":"174001060","Barangay":"Tumapon","Land_Class":"AGRICULTURAL","PIN":"030-01-055-01-041","ALN":"041","Section":"01","Brgy_Code":"055","Owner":"DE LA SANTA, RICARDO","TaxDecNo":"28612"},"geometry":{"type":"Polygon","coordinates":[[[121.85274621679325,13.431763894353677],[121.85223460956216,13.430707467782852],[121.85222993680595,13.431619372545093],[121.85265205829828,13.431733642988805],[121.85274621679325,13.431763894353677]]]}},{"type":"Feature","properties":{"Id":0,"CLN":"11047","PSGC":"174001060","Barangay":"Tumapon","Land_Class":"AGRICULTURAL","PIN":"030-01-055-01-039","ALN":"039","Section":"01","Brgy_Code":"055","Owner":"OLIVAR, ERLINDA","TaxDecNo":"28610"},"geometry":{"type":"Polygon","coordinates":[[[121.8535766832063,13.431983782929407],[121.85358083780659,13.431432161019027],[121.85348704139327,13.43149048467501],[121.85347854929252,13.431467622874488],[121.85317144651349,13.431457510156001],[121.85289510047342,13.431844859372637],[121.85354991294406,13.432006033020826],[121.85384500656038,13.432031611995454],[121.85388315112326,13.432020599576678],[121.8538413213479,13.432005494659146],[121.8535766832063,13.431983782929407]]]}},{"type":"Feature","properties":{"Id":0,"CLN":"16191 RW","PSGC":"174001060","Barangay":"Tumapon","Land_Class":null,"PIN":"030-01-055-01-","ALN":null,"Section":"01","Brgy_Code":"055"},"geometry":{"type":"Polygon","coordinates":[[[121.85265205829828,13.431733642988805],[121.85222993680595,13.431619372545093],[121.852227039238,13.43167476752065],[121.85265191067082,13.431778478267969],[121.8527684366634,13.431815454697684],[121.85274621679325,13.431763894353677],[121.85265205829828,13.431733642988805]]]}},{"type":"Feature","properties":{"Id":0,"CLN":"11041 RW","PSGC":"174001060","Barangay":"Tumapon","Land_Class":null,"PIN":"030-01-055-01-","ALN":null,"Section":"01","Brgy_Code":"055"},"geometry":{"type":"Polygon","coordinates":[[[121.85446916531484,13.431215051576595],[121.85450967451023,13.4312308785164],[121.85462658699595,13.430913024431597],[121.85477646080444,13.43063592099098],[121.85497623303482,13.430278878127055],[121.85515296430567,13.429960881236111],[121.85521854138811,13.42978779673365],[121.8554298190499,13.429414026707736],[121.85559484600951,13.429154143256211],[121.8555802589553,13.429145155649277],[121.85539793953588,13.429393128249846],[121.85518347235434,13.429776918950372],[121.85459820995968,13.430897015794123],[121.85446916531484,13.431215051576595]]]}},{"type":"Feature","properties":{"Id":0,"CLN":"11039 RW","PSGC":"174001060","Barangay":"Tumapon","Land_Class":null,"PIN":"030-01-055-01-","ALN":null,"Section":"01","Brgy_Code":"055"},"geometry":{"type":"Polygon","coordinates":[[[121.8555802589553,13.429145155649277],[121.85559484600951,13.429154143256211],[121.85569486546856,13.429053896173254],[121.85572114304495,13.428867582711181],[121.85567444959588,13.428539248941576],[121.85553761969646,13.428327060830288],[121.85549375453921,13.428362617306979],[121.85564750628382,13.428552544336235],[121.85569111744495,13.428868123633084],[121.8556709791544,13.42903833804737],[121.8555802589553,13.429145155649277]]]}},{"type":"Feature","properties":{"Id":0,"CLN":"11038 RW","PSGC":"174001060","Barangay":"Tumapon","Land_Class":null,"PIN":"030-01-055-01-","ALN":null,"Section":"01","Brgy_Code":"055"},"geometry":{"type":"Polygon","coordinates":[[[121.85549375453921,13.428362617306979],[121.85553761969646,13.428327060830288],[121.85549669761546,13.428001515219753],[121.85545705334793,13.428015986704812],[121.85549375453921,13.428362617306979]]]}},{"type":"Feature","properties":{"Id":0,"CLN":"11095 RW","PSGC":"174001060","Barangay":"Tumapon","Land_Class":null,"PIN":"030-01-055-01-","ALN":null,"Section":"01","Brgy_Code":"055"},"geometry":{"type":"Polygon","coordinates":[[[121.855608592786,13.428183615057627],[121.85559500609033,13.428035343481126],[121.85572647031884,13.427489279607425],[121.85558942879558,13.427195405146374],[121.855553356365,13.427205184044144],[121.85568094927676,13.42749525473978],[121.85560733561627,13.427786584227277],[121.85556108086693,13.42802058900512],[121.85556804536498,13.428214096450281],[121.855608592786,13.428183615057627]]]}},{"type":"Feature","properties":{"Id":0,"CLN":"16193 RW","PSGC":"174001060","Barangay":"Tumapon","Land_Class":null,"PIN":"030-01-055-01-","ALN":null,"Section":"01","Brgy_Code":"055"},"geometry":{"type":"Polygon","coordinates":[[[121.85393339572717,13.432138746806705],[121.85402332018062,13.43214002978626],[121.854010565129,13.432118735919863],[121.8539548182774,13.432108328583961],[121.85393339572717,13.432138746806705]]]}},{"type":"Feature","properties":{"Id":0,"CLN":"11070","PSGC":"174001060","Barangay":"Tumapon","Land_Class":"AGRICULTURAL","PIN":"030-01-055-01-024","ALN":"024","Section":"01","Brgy_Code":"055","Owner":"DE LA SANTA, RICARDO","TaxDecNo":"28597"},"geometry":{"type":"Polygon","coordinates":[[[121.85282763840266,13.43198550006449],[121.8529185339566,13.43220637048837],[121.85370641479652,13.432108350962306],[121.85282763840266,13.43198550006449]]]}},{"type":"Feature","properties":{"Id":0,"CLN":"11071 RW","PSGC":"174001060","Barangay":"Tumapon","Land_Class":null,"PIN":"030-01-055-01-","ALN":null,"Section":"01","Brgy_Code":"055"},"geometry":{"type":"Polygon","coordinates":[[[121.85370641479652,13.432108350962306],[121.85382936599012,13.432086538465816],[121.85281496860972,13.431946291528025],[121.85282763840266,13.43198550006449],[121.85370641479652,13.432108350962306]]]}},{"type":"Feature","properties":{"Id":0,"CLN":"16189 RW","PSGC":"174001060","Barangay":"Tumapon","Land_Class":null,"PIN":"030-01-055-01-","ALN":null,"Section":"01","Brgy_Code":"055"},"geometry":{"type":"Polygon","coordinates":[[[121.85354991294406,13.432006033020826],[121.85351553324274,13.432026384152907],[121.85385438778712,13.432061483899119],[121.85391542263426,13.43204311831002],[121.85388315112326,13.432020599576678],[121.85384500656038,13.432031611995454],[121.85354991294406,13.432006033020826]]]}},{"type":"Feature","properties":{"Id":0,"CLN":"11044","PSGC":"174001060","Barangay":"Tumapon","Land_Class":"AGRICULTURAL","PIN":"030-01-055-01-038","ALN":"038","Section":"01","Brgy_Code":"055","Owner":"DE LA SANTA, RICARDO","TaxDecNo":"28609"},"geometry":{"type":"Polygon","coordinates":[[[121.85402164611986,13.431891614498872],[121.85446916531484,13.431215051576595],[121.8543339809654,13.431186052579248],[121.8542671007013,13.431166302778436],[121.85428520368427,13.431280445078805],[121.85419688801478,13.431559155652018],[121.85410448036622,13.431681733957145],[121.8540541830449,13.431474142158038],[121.85392006172768,13.431221227250813],[121.85358083780659,13.431432161019027],[121.8535766832063,13.431983782929407],[121.8538413213479,13.432005494659146],[121.85388315112326,13.432020599576678],[121.8539079459727,13.432013255072636],[121.85402164611986,13.431891614498872]]]}},{"type":"Feature","properties":{"Id":0,"CLN":"11045 RW","PSGC":"174001060","Barangay":"Tumapon","Land_Class":null,"PIN":"030-01-055-01-","ALN":null,"Section":"01","Brgy_Code":"055"},"geometry":{"type":"Polygon","coordinates":[[[121.85450967451023,13.4312308785164],[121.85446916531484,13.431215051576595],[121.85402164611986,13.431891614498872],[121.8539079459727,13.432013255072636],[121.85388315112326,13.432020599576678],[121.85391542263426,13.43204311831002],[121.85407313307994,13.431891764997745],[121.85450967451023,13.4312308785164]]]}},{"type":"Feature","properties":{"Id":0,"CLN":"11067 RW","PSGC":"174001060","Barangay":"Tumapon","Land_Class":null,"PIN":"030-01-055-01-","ALN":null,"Section":"01","Brgy_Code":"055"},"geometry":{"type":"Polygon","coordinates":[[[121.85208651451941,13.431741142549141],[121.85214090073084,13.431737842319784],[121.85216610437625,13.431773437496286],[121.85265059830954,13.431884053100573],[121.85282763840266,13.43198550006449],[121.85281496860972,13.431946291528025],[121.85272617679679,13.431884202286968],[121.8526519622298,13.431858730709807],[121.85260438025027,13.431839298610528],[121.85251388269717,13.43181405018296],[121.85240890353832,13.431785187723014],[121.85230335384216,13.431759557002728],[121.85219532068348,13.43172744616364],[121.85213022932443,13.431695217286594],[121.85206498612963,13.431694920009814],[121.85204672803617,13.431723221088149],[121.85203192582793,13.431787018253594],[121.85206282848182,13.431880678028358],[121.85205318418859,13.431958788492828],[121.85192255717307,13.43203055060229],[121.851931883779,13.43204640842323],[121.85207620306441,13.431970394076785],[121.85207591478785,13.431825636484014],[121.85208651451941,13.431741142549141]]]}},{"type":"Feature","properties":{"Id":0,"CLN":"11069","PSGC":"174001060","Barangay":"Tumapon","Land_Class":"AGRICULTURAL","PIN":"030-01-055-01-023","ALN":"023","Section":"01","Brgy_Code":"055","Owner":"MAJOR XAVIER APOSTOL","TaxDecNo":"28596"},"geometry":{"type":"Polygon","coordinates":[[[121.8539627994756,13.432161474474283],[121.85393339572717,13.432138746806705],[121.85370641479652,13.432108350962306],[121.8529185339566,13.43220637048837],[121.85282763840266,13.43198550006449],[121.85240914704583,13.432295403817143],[121.85251150983122,13.432523704739799],[121.85283315433662,13.432866921631968],[121.8536291458455,13.432593358884185],[121.85364812381253,13.43247385188414],[121.8539627994756,13.432161474474283]]]}},{"type":"Feature","properties":{"Id":0,"CLN":"11094","PSGC":"174001060","Barangay":"Tumapon","Land_Class":"AGRICULTURAL","PIN":"030-01-055-01-025","ALN":"025","Section":"01","Brgy_Code":"055","Owner":"DE LA SANTA, RICARDO","TaxDecNo":"28598"},"geometry":{"type":"Polygon","coordinates":[[[121.85369526207354,13.43268242702946],[121.85395455078283,13.43226446654034],[121.8540134766097,13.432161638383953],[121.85402332018062,13.43214002978626],[121.85393339572717,13.432138746806705],[121.8539627994756,13.432161474474283],[121.85364812381253,13.43247385188414],[121.8536291458455,13.432593358884185],[121.85369526207354,13.43268242702946]]]}},{"type":"Feature","properties":{"Id":0,"CLN":"11073","PSGC":"174001060","Barangay":"Tumapon","Land_Class":"AGRICULTURAL","PIN":"030-01-055-01-012","ALN":"012","Section":"01","Brgy_Code":"055","Owner":"APOSTOL, MARIA","TaxDecNo":"28585"},"geometry":{"type":"Polygon","coordinates":[[[121.8536291458455,13.432593358884185],[121.85283315433662,13.432866921631968],[121.85287155562902,13.432949370130704],[121.85285089615074,13.433215083147191],[121.85308362026646,13.433222471589072],[121.85321667151067,13.433083408591989],[121.85329315327141,13.43301261028105],[121.85350674552583,13.432864513719142],[121.85369526207354,13.43268242702946],[121.8536291458455,13.432593358884185]]]}},{"type":"Feature","properties":{"Id":0,"CLN":"16194","PSGC":"174001060","Barangay":"Tumapon","Land_Class":"AGRICULTURAL","PIN":"030-01-055-01-026","ALN":"026","Section":"01","Brgy_Code":"055","Owner":"DE LA SANTA, RICARDO","TaxDecNo":"28599"},"geometry":{"type":"Polygon","coordinates":[[[121.85371269976595,13.43270458963563],[121.8535742006375,13.432866514621793],[121.85459231011384,13.432754680353586],[121.85485146600793,13.432641941166375],[121.85377127203432,13.432769914364993],[121.85371269976595,13.43270458963563]]]}},{"type":"Feature","properties":{"Id":0,"CLN":"11093","PSGC":"174001060","Barangay":"Tumapon","Land_Class":"AGRICULTURAL","PIN":"030-01-055-01-027","ALN":"027","Section":"01","Brgy_Code":"055","Owner":"DE LA SANTA, RICARDO","TaxDecNo":"28600"},"geometry":{"type":"Polygon","coordinates":[[[121.85523901632114,13.432236492300978],[121.85528686193727,13.432027694208255],[121.8552874950734,13.432002064819345],[121.85528891459407,13.43187562157385],[121.8558014214265,13.431865753985145],[121.85580430832921,13.43104476811287],[121.85584628394083,13.430251512167606],[121.85553905051893,13.430124115155264],[121.85566423253206,13.42999207389053],[121.85568170659408,13.430006902601715],[121.85618247886329,13.428962547213006],[121.85610655621359,13.42887027273598],[121.85573817802127,13.4281251352041],[121.855608592786,13.428183615057627],[121.85575377917348,13.428471177626816],[121.85583786349052,13.428918790986103],[121.85566096532571,13.429240226424007],[121.85533827781408,13.429798854834686],[121.85525965882589,13.430016839418016],[121.85503000064003,13.43038602753873],[121.85466757211897,13.431143829672674],[121.85409244662544,13.432134838639067],[121.85407245119183,13.43212500221831],[121.85405665870314,13.432161834814746],[121.85371269976595,13.43270458963563],[121.85377127203432,13.432769914364993],[121.85485146600793,13.432641941166375],[121.85494581819427,13.432435136454334],[121.8549625483943,13.43239562505208],[121.85518892663686,13.43237766766805],[121.85523901632114,13.432236492300978]]]}},{"type":"Feature","properties":{"Id":0,"CLN":"16197","PSGC":"174001060","Barangay":"Tumapon","Land_Class":"AGRICULTURAL","PIN":"030-01-055-01-029","ALN":"029","Section":"01","Brgy_Code":"055","Owner":"SPS. DANTE LAYLAY LAMANDO AND MA. REBECCA MASBAD LAMANDO","TaxDecNo":"29279"},"geometry":{"type":"Polygon","coordinates":[[[121.85569807127912,13.432721733199685],[121.8557157272389,13.433088880676886],[121.85584548518798,13.432994538875427],[121.856008259901,13.432754785764237],[121.85569807127912,13.432721733199685]]]}},{"type":"Feature","properties":{"Id":0,"CLN":"11065","PSGC":"174001060","Barangay":"Tumapon","Land_Class":"AGRICULTURAL","PIN":"030-01-055-01-018","ALN":"018","Section":"01","Brgy_Code":"055","Owner":"APOSTOL, SEVERO","TaxDecNo":"28591"},"geometry":{"type":"Polygon","coordinates":[[[121.8516313693301,13.432945502109483],[121.85170149852158,13.432789689272777],[121.8515526809677,13.432723320612695],[121.85142625254478,13.432875713587032],[121.8516313693301,13.432945502109483]]]}},{"type":"Feature","properties":{"Id":0,"CLN":"11051","PSGC":"174001060","Barangay":"Tumapon","Land_Class":"AGRICULTURAL","PIN":"030-01-055-01-042","ALN":"042","Section":"01","Brgy_Code":"055","Owner":"MONROYO, PABLO","TaxDecNo":"28613"},"geometry":{"type":"Polygon","coordinates":[[[121.8510486619248,13.43155907433851],[121.85145681100435,13.431958115098086],[121.85163325733527,13.431996340232528],[121.85173665508727,13.431948857595248],[121.8519430686199,13.431929750532724],[121.85191956251009,13.431786506219147],[121.85193475286364,13.431641106048321],[121.85201125799193,13.431559849890482],[121.85213801845886,13.431581715679068],[121.85222993680595,13.431619372545093],[121.85223460956216,13.430707467782852],[121.85177051564166,13.430650061840275],[121.85146236852243,13.430903538689147],[121.85146236438666,13.430904433068978],[121.85102376551703,13.431425673459193],[121.8510486619248,13.43155907433851]]]}},{"type":"Feature","properties":{"Id":0,"CLN":"16192 RW","PSGC":"174001060","Barangay":"Tumapon","Land_Class":null,"PIN":"030-01-055-01-","ALN":null,"Section":"01","Brgy_Code":"055"},"geometry":{"type":"Polygon","coordinates":[[[121.8539548182774,13.432108328583961],[121.85382936599012,13.432086538465816],[121.85370641479652,13.432108350962306],[121.85393339572717,13.432138746806705],[121.8539548182774,13.432108328583961]]]}},{"type":"Feature","properties":{"Id":0,"CLN":"16190 RW","PSGC":"174001060","Barangay":"Tumapon","Land_Class":null,"PIN":"030-01-055-01-","ALN":null,"Section":"01","Brgy_Code":"055"},"geometry":{"type":"Polygon","coordinates":[[[121.85407245119183,13.43212500221831],[121.85409244662544,13.432134838639067],[121.85466757211897,13.431143829672674],[121.85503000064003,13.43038602753873],[121.85525965882589,13.430016839418016],[121.85533827781408,13.429798854834686],[121.85566096532571,13.429240226424007],[121.85583786349052,13.428918790986103],[121.85575377917348,13.428471177626816],[121.855608592786,13.428183615057627],[121.85556804536498,13.428214096450281],[121.85570211826338,13.428501949931913],[121.85579041833617,13.428922169952349],[121.85562195799149,13.429221906967962],[121.85527159723975,13.429799223750303],[121.85519833839962,13.43001542909579],[121.85498172921275,13.430376814814405],[121.85460341827829,13.431135188311695],[121.85409040991523,13.432083117326798],[121.85407245119183,13.43212500221831]]]}},{"type":"Feature","properties":{"Id":0,"CLN":"11042 pt","PSGC":"174001060","Barangay":"Tumapon","Land_Class":"AGRICULTURAL","PIN":"030-01-055-01-043","ALN":"043","Section":"01","Brgy_Code":"055","Owner":"REALINO NEPOMUCENO SANTOS, KENNETH RAFAEL B. SANTOS, KEITH RYAN B. SANTOS, AND ANTONIO NEPOMUCENO SANTOS","TaxDecNo":"31969"},"geometry":{"type":"Polygon","coordinates":[[[121.85428854513354,13.428407601445539],[121.85230591163594,13.428171183760048],[121.85220195872924,13.427926436019678],[121.85220195872924,13.427926436019675],[121.85170820264035,13.428170884477419],[121.8516142650116,13.428219731876647],[121.85142161976425,13.428190459045192],[121.85111513858189,13.428639325907145],[121.85104758366559,13.428669288278082],[121.85072666074369,13.428989943830045],[121.85074023143484,13.42918896161034],[121.8506422738518,13.42943484112367],[121.84998878993443,13.429448933693058],[121.84992646885298,13.429488012622286],[121.84996529071714,13.429709378437108],[121.84989287199853,13.430029988224652],[121.84992782109578,13.430134236510952],[121.84999811190555,13.430260331265291],[121.85016132198747,13.43041287226947],[121.8502113395079,13.430925698576038],[121.85046996431436,13.431115933375178],[121.8507290114453,13.431217550491176],[121.85084913033191,13.431342165537488],[121.85102376551703,13.431425673459193],[121.85146236426714,13.430904433068433],[121.85177051564166,13.430650061840275],[121.85223460956216,13.430707467782852],[121.8525698397812,13.430590627243305],[121.85317144651349,13.431457510156001],[121.85347854929252,13.431467622874488],[121.85348704139327,13.43149048467501],[121.85358083780659,13.431432161019027],[121.85392006172768,13.431221227250813],[121.8540541830449,13.431474142158038],[121.85410448036622,13.431681733957145],[121.85419688801478,13.431559155652018],[121.85428520368427,13.431280445078805],[121.8542671007013,13.431166302778436],[121.8543339809654,13.431186052579248],[121.85446916531484,13.431215051576595],[121.85459820995968,13.430897015794123],[121.85518347235434,13.429776918950372],[121.85539793953588,13.429393128249846],[121.8555802589553,13.429145155649277],[121.85538107204805,13.429024406041641],[121.85518113764189,13.429061343489153],[121.85502240797281,13.428562320009627],[121.8548563676705,13.428246184321734],[121.85428854513354,13.428407601445539]],[[121.8534598521368,13.430431381718888],[121.85371250580954,13.430148688415338],[121.8538469857538,13.430325913577507],[121.85379692788523,13.430582644167458],[121.8534598521368,13.430431381718888]]]}}]}