{"type":"FeatureCollection","name":"Tumagabok","crs":{"type":"name","properties":{"name":"urn:ogc:def:crs:OGC:1.3:CRS84"}},"features":[{"type":"Feature","properties":{"Id":0,"CLN":"19645","PSGC":"174001059","Barangay":"Tumagabok","Land_Class":"AGRICULTURAL","PIN":"030-01-054-02-012","ALN":"012","Section":"02","Brgy_Code":"054","Owner":"LOGATOC, JUAN","TaxDecNo":"28499"},"geometry":{"type":"Polygon","coordinates":[[[121.9680945503576,13.345598426778635],[121.96770781274029,13.34620451697133],[121.9672692754959,13.348568283275414],[121.96710868132057,13.349042394601065],[121.96808596849866,13.349041247822585],[121.96902690555528,13.349162224928847],[121.97010145259615,13.348609705018703],[121.97096999069494,13.348116643585994],[121.97151840530118,13.347912606256179],[121.97169899794218,13.346945346534916],[121.97183547310335,13.346776039266407],[121.97197341395895,13.346261573605386],[121.9727851935815,13.342158657959857],[121.97262976520474,13.341611273091381],[121.97219759831066,13.341163227828572],[121.97159504557314,13.340900544998355],[121.96846951903777,13.341643912901613],[121.96834576866028,13.343612820082695],[121.96840844170198,13.344186880367811],[121.96840456272605,13.345100702456055],[121.9680945503576,13.345598426778635]]]}},{"type":"Feature","properties":{"Id":0,"CLN":"19644","PSGC":"174001059","Barangay":"Tumagabok","Land_Class":"AGRICULTURAL","PIN":"030-01-054-02-013","ALN":"013","Section":"02","Brgy_Code":"054","Owner":"BARANGAY TUMAGABOK","TaxDecNo":"28500"},"geometry":{"type":"Polygon","coordinates":[[[121.96808656563181,13.34123939630478],[121.96846951903777,13.341643912901613],[121.97159504557314,13.340900544998355],[121.97117296219476,13.34039201876803],[121.97115053254593,13.340090136546419],[121.97176131252266,13.339704806468376],[121.9716950352221,13.339326504406197],[121.97110472892734,13.339473661257477],[121.97023519124141,13.340442216301078],[121.96915659727416,13.340687085590268],[121.96809027976403,13.340364417010331],[121.96763567303591,13.340264905784405],[121.96747445893254,13.340798330146159],[121.96808656563181,13.34123939630478]]]}},{"type":"Feature","properties":{"Id":0,"CLN":"19647","PSGC":"174001059","Barangay":"Tumagabok","Land_Class":"AGRICULTURAL","PIN":"030-01-054-02-011","ALN":"011","Section":"02","Brgy_Code":"054","Owner":"LAYLAY, DOMINADOR","TaxDecNo":"28498"},"geometry":{"type":"Polygon","coordinates":[[[121.97197341395895,13.346261573605386],[121.97428052072212,13.345256678471605],[121.97385544127619,13.343487390653515],[121.97348544272248,13.34302803251731],[121.9727851935815,13.342158657959857],[121.97197341395895,13.346261573605386]]]}},{"type":"Feature","properties":{"Id":0,"CLN":"19648","PSGC":"174001059","Barangay":"Tumagabok","Land_Class":"AGRICULTURAL","PIN":"030-01-054-01-010","ALN":"010","Section":"01","Brgy_Code":"054","Owner":"LANOT, GERONIMO, JR.","TaxDecNo":"28482"},"geometry":{"type":"Polygon","coordinates":[[[121.97197341395895,13.346261573605386],[121.97183547310335,13.346776039266407],[121.97169899794218,13.346945346534916],[121.97151840530118,13.347912606256179],[121.97096999069494,13.348116643585994],[121.97010145259615,13.348609705018703],[121.96902690555528,13.349162224928847],[121.96870914185428,13.35010624421111],[121.96880420956545,13.350453245714355],[121.96934322017268,13.350455439005252],[121.96948151205544,13.351992134406899],[121.96839272895281,13.352625788684403],[121.96817450983518,13.352861227931568],[121.96809460327471,13.353154898668475],[121.96809125436931,13.353355544950835],[121.96844593234475,13.353358622243396],[121.96815410231969,13.353877355228134],[121.96815262960476,13.354223963618908],[121.96944788405186,13.354229236922956],[121.9692602797135,13.354412284264274],[121.96900223561389,13.354553030851541],[121.96905003783016,13.354663511848262],[121.96970992861479,13.355041696064168],[121.97009622650437,13.355011756771752],[121.97042774508152,13.354619224407381],[121.97162799613746,13.354261730569823],[121.97181730879586,13.355152668777095],[121.97196999889347,13.355192676629116],[121.97223991191005,13.354955782671585],[121.97257688093154,13.354367990275799],[121.97309176564414,13.35437007831831],[121.97322973094921,13.35408704364519],[121.97303070298484,13.353589947286931],[121.97317601345642,13.3534723722182],[121.97352341536953,13.353127165328443],[121.97375818596426,13.352781501611268],[121.97375955066096,13.35245852500354],[121.97302896833754,13.350194689525154],[121.97303346400439,13.349131229960323],[121.97434637942386,13.348758422341712],[121.97575184604781,13.34809170578199],[121.97576951415525,13.347478799858306],[121.97551622944198,13.346731863827351],[121.97557247956752,13.345912326298887],[121.97551432299778,13.345395122326627],[121.97509963847612,13.345363904648476],[121.97489675262167,13.345185837669979],[121.97428052072212,13.345256678471605],[121.97197341395895,13.346261573605386]]]}},{"type":"Feature","properties":{"Id":0,"CLN":"19646","PSGC":"174001059","Barangay":"Tumagabok","Land_Class":"AGRICULTURAL","PIN":"030-01-054-02-010","ALN":"010","Section":"02","Brgy_Code":"054","Owner":"PUBLIC LAND","TaxDecNo":"28497"},"geometry":{"type":"Polygon","coordinates":[[[121.97551432299778,13.345395122326627],[121.97725679347505,13.345636300377897],[121.97922346716847,13.346668320934327],[121.97891545377512,13.3457808468928],[121.9785248010375,13.345414932387142],[121.97865114239234,13.344066397662143],[121.9776276740556,13.3435305317052],[121.9771172262991,13.342957344459613],[121.97682622746184,13.342808464557589],[121.97654458001715,13.342827021634047],[121.97517216492348,13.34396373197805],[121.97440945260713,13.343596307109799],[121.97385544127619,13.343487390653515],[121.97428052072212,13.345256678471605],[121.97489675262167,13.345185837669979],[121.97509963847612,13.345363904648476],[121.97551432299778,13.345395122326627]]]}},{"type":"Feature","properties":{"Id":0,"CLN":"19654","PSGC":"174001059","Barangay":"Tumagabok","Land_Class":"AGRICULTURAL","PIN":"030-01-054-02-005","ALN":"005","Section":"02","Brgy_Code":"054","Owner":"MALING, FELICIANO","TaxDecNo":"28492"},"geometry":{"type":"Polygon","coordinates":[[[121.97926349595868,13.347056723953248],[121.97885573348036,13.347798416882753],[121.9789562013317,13.34812008121301],[121.97919312515651,13.348276126568013],[121.98029531801826,13.34847996691667],[121.98122953454272,13.34827324423502],[121.98206081769595,13.348331974665394],[121.98275708585733,13.348212913612228],[121.98315432051811,13.347909865008914],[121.98347509681618,13.346952911258173],[121.98336915207314,13.34658691463482],[121.98324837639493,13.34643268538787],[121.98128744799074,13.346424810506022],[121.98098390855694,13.346866707001375],[121.97926349595868,13.347056723953248]]]}},{"type":"Feature","properties":{"Id":0,"CLN":"19653","PSGC":"174001059","Barangay":"Tumagabok","Land_Class":"AGRICULTURAL","PIN":"030-01-054-02-006","ALN":"006","Section":"02","Brgy_Code":"054","Owner":"FIDELINO, MENILDO L.","TaxDecNo":"28493"},"geometry":{"type":"Polygon","coordinates":[[[121.9796957965575,13.348459755783935],[121.97925023223961,13.34836286047733],[121.97883722738251,13.348163913438725],[121.97875391558043,13.347798006562176],[121.97834033574308,13.347951331298132],[121.97833416455131,13.349217104549915],[121.9796904542846,13.34952979724835],[121.9796957965575,13.348459755783935]]]}},{"type":"Feature","properties":{"Id":0,"CLN":"19650","PSGC":"174001059","Barangay":"Tumagabok","Land_Class":"AGRICULTURAL","PIN":"030-01-054-02-007","ALN":"007","Section":"02","Brgy_Code":"054","Owner":"JANDA, ALVARO & JANDA, ANGELA J.","TaxDecNo":"01-23354"},"geometry":{"type":"Polygon","coordinates":[[[121.9785857754665,13.35478876936329],[121.97869513073721,13.354677954071985],[121.97910219034254,13.354732769091559],[121.97967958066748,13.352623892084933],[121.98026155719273,13.351975018307389],[121.98112110194006,13.351642364621938],[121.98215152286375,13.351488954105955],[121.98298119959027,13.350982606498667],[121.98326721994123,13.347965707661599],[121.98313858145801,13.348071349441428],[121.98273444472831,13.348345948873408],[121.98203884852671,13.348451670961987],[121.98167580118152,13.348418682185876],[121.98115560433023,13.348367109306986],[121.98034660804701,13.348566313076232],[121.97969579655744,13.348459755783935],[121.9796904542846,13.34952979724835],[121.97833416455131,13.349217104549915],[121.97834033574308,13.347951331298132],[121.97875391558043,13.347798006562176],[121.97916166342605,13.347013117583694],[121.97922346716845,13.346668320934329],[121.97725679347502,13.345636300377901],[121.9758289226517,13.346800268048485],[121.97693362084784,13.34775004497692],[121.9764122230919,13.347984268045796],[121.97692415074346,13.348207893571377],[121.97724209925443,13.347928536746458],[121.97758136797954,13.347959446950137],[121.97768437771452,13.34857284020059],[121.97771812653099,13.350249102554667],[121.97715527863704,13.350175932284616],[121.97674448870065,13.350292437859174],[121.97631804006734,13.350306470409835],[121.97648500439364,13.352686186143053],[121.97546371811181,13.352579648587293],[121.97462606408959,13.352612869704979],[121.97473836876107,13.352895413245385],[121.97527352986083,13.353334786401229],[121.97537021996561,13.353299728263432],[121.97562550784252,13.352857644832971],[121.97586114886957,13.352781790863501],[121.976488113418,13.35291430559451],[121.97699951614676,13.353264956096456],[121.97781104351273,13.353989034594225],[121.97787557251057,13.35426592603018],[121.97820708710084,13.354510555606247],[121.97831452756161,13.354788675191175],[121.9785857754665,13.35478876936329]]]}},{"type":"Feature","properties":{"Id":0,"CLN":"19649","PSGC":"174001059","Barangay":"Tumagabok","Land_Class":"AGRICULTURAL","PIN":"030-01-054-02-009","ALN":"009","Section":"02","Brgy_Code":"054","Owner":"FEDELINO, NELIA GONZALES","TaxDecNo":"28496"},"geometry":{"type":"Polygon","coordinates":[[[121.97551622944201,13.346731863827353],[121.9758289226517,13.346800268048485],[121.97725679347505,13.345636300377897],[121.97551432299778,13.345395122326627],[121.97557247956752,13.34591232629889],[121.97551622944201,13.346731863827353]]]}},{"type":"Feature","properties":{"Id":0,"CLN":"19651","PSGC":"174001059","Barangay":"Tumagabok","Land_Class":"AGRICULTURAL","PIN":"030-01-054-02-008","ALN":"008","Section":"02","Brgy_Code":"054","Owner":"LIM, BENITO","TaxDecNo":"28495"},"geometry":{"type":"Polygon","coordinates":[[[121.97575184604784,13.348091705781991],[121.9764122230919,13.347984268045796],[121.97693362084784,13.347750044976916],[121.9758289226517,13.346800268048485],[121.97551622944201,13.346731863827353],[121.97576951415525,13.347478799858306],[121.97575184604784,13.348091705781991]]]}},{"type":"Feature","properties":{"Id":0,"CLN":"19659","PSGC":"174001059","Barangay":"Tumagabok","Land_Class":"AGRICULTURAL","PIN":"030-01-054-01-008","ALN":"008","Section":"01","Brgy_Code":"054","Owner":"LAYLAY, PEDRO","TaxDecNo":"01-23340"},"geometry":{"type":"Polygon","coordinates":[[[121.97768437771452,13.348572840200585],[121.97758136797954,13.347959446950137],[121.97724209925443,13.347928536746458],[121.97692415074346,13.348207893571377],[121.9764122230919,13.347984268045796],[121.97674965613776,13.348395051820383],[121.97627638136676,13.348657909990715],[121.97540117544446,13.348731179287507],[121.97575184604784,13.348091705781991],[121.97434637942386,13.348758422341708],[121.9730334640044,13.34913122996032],[121.97302896833757,13.350194689525152],[121.97375955066096,13.35245852500354],[121.97456250959655,13.352615390144138],[121.97546371811181,13.352579648587293],[121.97648500439364,13.352686186143053],[121.97631804006734,13.350306470409835],[121.97674448870065,13.350292437859174],[121.97715527863707,13.350175932284618],[121.97771812653099,13.350249102554667],[121.97768437771452,13.348572840200585]]]}},{"type":"Feature","properties":{"Id":0,"CLN":"19655","PSGC":"174001059","Barangay":"Tumagabok","Land_Class":"AGRICULTURAL","PIN":"030-01-054-02-004","ALN":"004","Section":"02","Brgy_Code":"054","Owner":"ROLDAN, RODRIGO","TaxDecNo":"28491"},"geometry":{"type":"Polygon","coordinates":[[[121.9847483748436,13.35356568185308],[121.98488751756571,13.353421861398408],[121.98615181385954,13.352652946767614],[121.98678960077673,13.351639282750929],[121.98797738787812,13.350403301376556],[121.9879783478107,13.350172884072592],[121.98737155171324,13.349544186810624],[121.98681194416972,13.349175639221697],[121.98646228521874,13.349103342003263],[121.98641441000704,13.349008618777086],[121.98657001529838,13.348589038849763],[121.98653872285898,13.348376217313708],[121.9868786128351,13.347897040179692],[121.98638252417842,13.34724908948082],[121.98605258582792,13.3472714024814],[121.98554700872334,13.346970028657784],[121.98519609448734,13.346236002974827],[121.98474323896986,13.346334920323336],[121.98422620925328,13.346274061887307],[121.98368404784479,13.346065100239088],[121.98341111375717,13.346403728717105],[121.98364287808198,13.346892087183399],[121.98326721994123,13.347965707661599],[121.98298119959027,13.350982606498667],[121.98395012876787,13.352065730423286],[121.98436959737127,13.353721716113494],[121.9847483748436,13.35356568185308]]]}},{"type":"Feature","properties":{"Id":0,"CLN":"19664","PSGC":"174001059","Barangay":"Tumagabok","Land_Class":"AGRICULTURAL","PIN":"030-01-054-01-003","ALN":"003","Section":"01","Brgy_Code":"054","Owner":"HONORICA, JAIME","TaxDecNo":"28475"},"geometry":{"type":"Polygon","coordinates":[[[121.96808862660681,13.356410166836563],[121.96865952723977,13.356343133159646],[121.9695570496677,13.355283310392569],[121.96874454128223,13.354795530920025],[121.9674422500124,13.356503646475925],[121.96808862660681,13.356410166836563]]]}},{"type":"Feature","properties":{"Id":0,"CLN":"19665","PSGC":"174001059","Barangay":"Tumagabok","Land_Class":"AGRICULTURAL","PIN":"030-01-054-01-002","ALN":"002","Section":"01","Brgy_Code":"054","Owner":"ISSA, LODALINA LARA","TaxDecNo":"28474"},"geometry":{"type":"Polygon","coordinates":[[[121.96874454128223,13.354795530920025],[121.96880640647313,13.354547843368657],[121.96916274606619,13.35439076568196],[121.96808649756294,13.354474652589733],[121.96798830965925,13.354228092736477],[121.96796305855517,13.353942962706514],[121.96808996576318,13.353658452594487],[121.96809070891877,13.353483552588571],[121.96650845723043,13.353742695179863],[121.96623757706992,13.353657377273182],[121.96627178541867,13.353391923522867],[121.96520100227812,13.3531673033067],[121.96442923335356,13.354187654899926],[121.9674422500124,13.356503646475925],[121.96874454128223,13.354795530920025]]]}},{"type":"Feature","properties":{"Id":0,"CLN":"19671","PSGC":"174001059","Barangay":"Tumagabok","Land_Class":"AGRICULTURAL","PIN":"030-01-054-01-001","ALN":"001","Section":"01","Brgy_Code":"054","Owner":"MARQUEZ, MILA SALVO","TaxDecNo":"28473"},"geometry":{"type":"Polygon","coordinates":[[[121.96520100227812,13.3531673033067],[121.96448119613166,13.351655014769443],[121.96385896365034,13.351938972026351],[121.96276276702604,13.351272267611245],[121.9618241688902,13.35108056450093],[121.96082146038718,13.351957444891061],[121.96087352539642,13.352158472667965],[121.96134209169585,13.35242598728906],[121.96144597350914,13.352886342566924],[121.96066342682522,13.353330106479575],[121.96024465020903,13.353794794890893],[121.95956323915145,13.353830750367276],[121.96318670821289,13.357510532860164],[121.9674422500124,13.356503646475925],[121.96442923335356,13.354187654899926],[121.96520100227812,13.3531673033067]]]}},{"type":"Feature","properties":{"Id":0,"CLN":"19670","PSGC":"174001059","Barangay":"Tumagabok","Land_Class":"AGRICULTURAL","PIN":"030-01-054-01-012","ALN":"012","Section":"01","Brgy_Code":"054","Owner":"LARA, ROMAN","TaxDecNo":"28484"},"geometry":{"type":"Polygon","coordinates":[[[121.96448119613166,13.351655014769443],[121.96520100227812,13.3531673033067],[121.96627178541866,13.353391923522866],[121.96665055657117,13.352395187952034],[121.96661548354957,13.35189219881336],[121.96645574959976,13.351825958557871],[121.96600534091763,13.35185691487095],[121.96550209000387,13.352062557519542],[121.96520974244353,13.351678763379654],[121.96509486563413,13.351565335985585],[121.96491613806312,13.351590112470845],[121.9647190683498,13.351552869096029],[121.96448119613166,13.351655014769443]]]}},{"type":"Feature","properties":{"Id":0,"CLN":"19666","PSGC":"174001059","Barangay":"Tumagabok","Land_Class":"AGRICULTURAL","PIN":"030-01-054-01-011","ALN":"011","Section":"01","Brgy_Code":"054","Owner":"LANOT, GERONIMO, JR.","TaxDecNo":"28483"},"geometry":{"type":"Polygon","coordinates":[[[121.96809125436931,13.353355544950833],[121.96809460327471,13.353154898668475],[121.96817450983518,13.352861227931568],[121.96839272895281,13.352625788684403],[121.96948151205544,13.351992134406904],[121.96934322017268,13.350455439005252],[121.9688042095654,13.350453245714354],[121.96870914185425,13.350106244211108],[121.96902690555528,13.349162224928847],[121.96808596849866,13.34904124782259],[121.96710868132057,13.349042394601065],[121.96649683976801,13.349368742129258],[121.96649492905962,13.349817867983587],[121.96703796901699,13.349820082519235],[121.96654584514334,13.351672191364662],[121.9667589318946,13.35190430025238],[121.96679044658113,13.352383417578515],[121.96634366934815,13.353601057197062],[121.96654697415676,13.353631037249098],[121.96809125436931,13.353355544950833]]]}},{"type":"Feature","properties":{"Id":0,"CLN":"19667","PSGC":"174001059","Barangay":"Tumagabok","Land_Class":"AGRICULTURAL","PIN":"030-01-054-01-013","ALN":"013","Section":"01","Brgy_Code":"054","Owner":"HONORICA, JAIME","TaxDecNo":"28485"},"geometry":{"type":"Polygon","coordinates":[[[121.96649492905962,13.349817867983589],[121.96564063258813,13.349745464252242],[121.96537788502815,13.350699073334802],[121.96522110032646,13.351555939873876],[121.96551238841775,13.351897218540639],[121.96611349176759,13.351724769518402],[121.96654584514334,13.351672191364662],[121.96703796901699,13.349820082519235],[121.96649492905962,13.349817867983589]]]}},{"type":"Feature","properties":{"Id":0,"CLN":"19668","PSGC":"174001059","Barangay":"Tumagabok","Land_Class":"AGRICULTURAL","PIN":"030-01-054-01-014","ALN":"014","Section":"01","Brgy_Code":"054","Owner":"LARA, MANUEL","TaxDecNo":"28486"},"geometry":{"type":"Polygon","coordinates":[[[121.96522110032647,13.351555939873881],[121.96537788502815,13.350699073334802],[121.96564063258813,13.349745464252242],[121.96444194648974,13.350430462598947],[121.96441233311197,13.351557493483853],[121.96479477239617,13.351466746675847],[121.96522110032647,13.351555939873881]]]}},{"type":"Feature","properties":{"Id":0,"CLN":"19669","PSGC":"174001059","Barangay":"Tumagabok","Land_Class":"AGRICULTURAL","PIN":"030-01-054-01-015","ALN":"015","Section":"01","Brgy_Code":"054","Owner":"LARA, ROSALINDA L","TaxDecNo":"28487"},"geometry":{"type":"Polygon","coordinates":[[[121.96441233311197,13.351557493483853],[121.96444194648974,13.350430462598947],[121.96290407550164,13.350370729534275],[121.96277650866342,13.35119613723658],[121.96394982355287,13.351808239860285],[121.96441233311197,13.351557493483853]]]}},{"type":"Feature","properties":{"Id":0,"CLN":"19656","PSGC":"174001059","Barangay":"Tumagabok","Land_Class":"AGRICULTURAL","PIN":"030-01-054-02-003","ALN":"003","Section":"02","Brgy_Code":"054","Owner":"JIMENA, VINARD P. & JIMENA, ABEVIE P. & JIMENA, ABEGAIL P.","TaxDecNo":"28490"},"geometry":{"type":"Polygon","coordinates":[[[121.98436959737128,13.353721716113494],[121.9839501287679,13.352065730423288],[121.98298119959027,13.350982606498667],[121.98294991184223,13.352130372521383],[121.98215053284768,13.352824332325104],[121.98226368928574,13.353179280400902],[121.98353602622888,13.354017733749581],[121.98382184404393,13.354284465976635],[121.98436959737128,13.353721716113494]]]}},{"type":"Feature","properties":{"Id":0,"CLN":"19658","PSGC":"174001059","Barangay":"Tumagabok","Land_Class":"AGRICULTURAL","PIN":"030-01-054-02-001","ALN":"001","Section":"02","Brgy_Code":"054","Owner":"MADRIGAL, JOSE","TaxDecNo":"28488"},"geometry":{"type":"Polygon","coordinates":[[[121.98226368928574,13.353179280400902],[121.98215053284768,13.352824332325104],[121.98294991184221,13.35213037252138],[121.98298119959027,13.350982606498667],[121.98215152286375,13.351488954105955],[121.98112110194006,13.351642364621938],[121.98026155719273,13.351975018307389],[121.97967958066748,13.352623892084933],[121.97910219034254,13.354732769091559],[121.98065571139959,13.356130986839126],[121.98258417834228,13.35526432449997],[121.9815973533325,13.354610454003934],[121.98226368928574,13.353179280400902]]]}},{"type":"Feature","properties":{"Id":0,"CLN":"19657","PSGC":"174001059","Barangay":"Tumagabok","Land_Class":"AGRICULTURAL","PIN":"030-01-054-02-002","ALN":"002","Section":"02","Brgy_Code":"054","Owner":"LINGA, PEDRO","TaxDecNo":"28489"},"geometry":{"type":"Polygon","coordinates":[[[121.98258417834228,13.35526432449997],[121.98353602622888,13.354017733749581],[121.98226368928574,13.353179280400902],[121.98159735333253,13.354610454003934],[121.98258417834228,13.35526432449997]]]}},{"type":"Feature","properties":{"Id":0,"CLN":"19660","PSGC":"174001059","Barangay":"Tumagabok","Land_Class":"AGRICULTURAL","PIN":"030-01-054-01-007","ALN":"007","Section":"01","Brgy_Code":"054","Owner":"LINGA, ALEJANDRO","TaxDecNo":"28479"},"geometry":{"type":"Polygon","coordinates":[[[121.98065571139962,13.35613098683913],[121.97910219034254,13.354732769091559],[121.97869513073721,13.354677954071985],[121.9785857754665,13.35478876936329],[121.97831452756165,13.354788675191175],[121.97820708710084,13.354510555606247],[121.97787557251057,13.35426592603018],[121.97778759929477,13.354256515194395],[121.97711850444877,13.360303824415087],[121.98091947932232,13.35956815201055],[121.98065571139962,13.35613098683913]]]}},{"type":"Feature","properties":{"Id":0,"CLN":"19661","PSGC":"174001059","Barangay":"Tumagabok","Land_Class":"AGRICULTURAL","PIN":"030-01-054-01-006","ALN":"006","Section":"01","Brgy_Code":"054","Owner":"MARQUEZ, NAZARIO","TaxDecNo":"28478"},"geometry":{"type":"Polygon","coordinates":[[[121.97711850444882,13.36030382441509],[121.97778759929477,13.354256515194395],[121.97769872422434,13.354027705494051],[121.97701477738664,13.35341574153958],[121.97640503563426,13.353014145637708],[121.97586914273258,13.352906944691785],[121.97569720528566,13.352979773923305],[121.9755132561384,13.353357155626586],[121.9752232355864,13.353450513863704],[121.97462938064854,13.353016160902252],[121.974518464474,13.352691410621764],[121.97393971102063,13.352573528698061],[121.97365837590948,13.353150080595956],[121.97330279588365,13.353526764979403],[121.97342942990485,13.354020941894213],[121.97307300425743,13.354597188522574],[121.97358131871874,13.356153764209576],[121.97214138725234,13.356746622350615],[121.97291356201603,13.359323107187146],[121.97711850444882,13.36030382441509]]]}},{"type":"Feature","properties":{"Id":0,"CLN":"19662","PSGC":"174001059","Barangay":"Tumagabok","Land_Class":"AGRICULTURAL","PIN":"030-01-054-01-005","ALN":"005","Section":"01","Brgy_Code":"054","Owner":"FEDELINO, NELIA GONZALES","TaxDecNo":"28477"},"geometry":{"type":"Polygon","coordinates":[[[121.97214138725234,13.356746622350615],[121.97358131871874,13.35615376420958],[121.97307300425744,13.354597188522574],[121.97257413279456,13.354553807917691],[121.97232777579195,13.35502251087952],[121.97204808639535,13.355238618402185],[121.97169283614178,13.35534783917863],[121.97214138725234,13.356746622350615]]]}},{"type":"Feature","properties":{"Id":0,"CLN":"19663","PSGC":"174001059","Barangay":"Tumagabok","Land_Class":"AGRICULTURAL","PIN":"030-01-054-01-004","ALN":"004","Section":"01","Brgy_Code":"054","Owner":"MALING, FELICIANO","TaxDecNo":"28476"},"geometry":{"type":"Polygon","coordinates":[[[121.97291356201606,13.359323107187146],[121.97214138725234,13.356746622350615],[121.97169283614178,13.355347839178629],[121.97156081244682,13.354747234477191],[121.97142383950143,13.3545064688416],[121.97116579638498,13.354647217716247],[121.97040084602057,13.3548016614],[121.97014186661455,13.355162978260484],[121.9695570496677,13.355283310392569],[121.9686595272398,13.356343133159644],[121.96956838529218,13.359746800528823],[121.97291356201606,13.359323107187146]]]}},{"type":"Feature","properties":{"Id":0,"CLN":"19672","PSGC":"174001059","Barangay":"Tumagabok","Land_Class":"AGRICULTURAL","PIN":"030-01-054-03-001","ALN":"001","Section":"03","Brgy_Code":"054","Owner":"BALUTAN, LEONOR P.","TaxDecNo":"28566"},"geometry":{"type":"Polygon","coordinates":[[[121.9985925613661,13.332075345591116],[121.99797718559074,13.332059218418966],[121.99713162793648,13.332490024598483],[121.9962560203227,13.33327082768487],[121.99542666558139,13.333239535012186],[121.9945982952898,13.332970162835895],[121.9938685870776,13.333051298037825],[121.9932394505935,13.33302079235051],[121.99220750233596,13.333562879337462],[121.99076226641922,13.333753199379123],[121.9906059409869,13.33351449689819],[121.990635473222,13.333290538708688],[121.99115205867548,13.332872451775456],[121.99099550098495,13.33268976754339],[121.99018050946181,13.33264451028759],[121.9894936469897,13.332739808154876],[121.98857959601371,13.332442066085639],[121.98750784580987,13.33567288071843],[121.98710431747139,13.336413519329334],[121.98720361043645,13.336609981901587],[121.98682803430381,13.338364322541825],[121.98670690601308,13.33847412562638],[121.9863467060515,13.338039415235054],[121.98599238375537,13.338124652731038],[121.98543829462002,13.337886106958093],[121.98534297615414,13.337594252613053],[121.98506187724543,13.337482840637152],[121.98476367126906,13.337566564074624],[121.98432011066046,13.337830658383586],[121.98363257795992,13.338723985543766],[121.98282783141165,13.338789687910898],[121.9818930198636,13.33869731269504],[121.98037786830484,13.337913307922943],[121.97986515235256,13.337881704652819],[121.97861742078936,13.338073622784608],[121.97751170960466,13.337970696230531],[121.9773088979838,13.338373606867341],[121.9777393116565,13.338827746239382],[121.97809580676488,13.34015909334896],[121.97794207235054,13.340847766246382],[121.97771885716142,13.341319524000617],[121.97715973781065,13.342754935694288],[121.97779006923331,13.343515699976974],[121.9787736038119,13.343982475151387],[121.9786371244536,13.34535066321066],[121.97910810120312,13.345746442229393],[121.97932532136853,13.346702479677633],[121.97926349595868,13.347056723953248],[121.98098390855691,13.346866707001372],[121.9812874479907,13.346424810506031],[121.9832483763949,13.34643268538787],[121.98359238254783,13.345931865854867],[121.98437560038317,13.346210723176211],[121.9847476327704,13.3462220608801],[121.98522896466176,13.346070704107754],[121.98561983998859,13.346867910844415],[121.98606112378748,13.347153271992223],[121.98643148347874,13.3470838547785],[121.987079669525,13.347913599236012],[121.98667532204801,13.348416151836323],[121.98672236174257,13.348587812994547],[121.9865515782916,13.349028278026053],[121.98687304705022,13.349108340044376],[121.9874350762064,13.349378426610075],[121.98809167734194,13.35012154850114],[121.98809059446536,13.350381506494948],[121.98803404739485,13.3503924078191],[121.98797738787812,13.350403301376556],[121.98678960077673,13.351639282750929],[121.98615181385954,13.352652946767614],[121.98488751756571,13.353421861398408],[121.9847483748436,13.35356568185308],[121.98436959737127,13.353721716113494],[121.98382184404392,13.354284465976631],[121.98353602622888,13.354017733749581],[121.98258417834228,13.35526432449997],[121.98065571139962,13.35613098683913],[121.98091947932232,13.35956815201055],[122.00125189970382,13.365409208562543],[121.9985925613661,13.332075345591116]]]}},{"type":"Feature","properties":{"Id":0,"CLN":"19652","PSGC":"174001059","Barangay":"Tumagabok","Land_Class":"AGRICULTURAL","PIN":"030-01-054-01-009","ALN":"009","Section":"01","Brgy_Code":"054","Owner":"LAYLAY, PEDRO","TaxDecNo":"28481"},"geometry":{"type":"Polygon","coordinates":[[[121.97575184604781,13.34809170578199],[121.97540117544446,13.348731179287507],[121.97627638136676,13.348657909990715],[121.97674965613776,13.348395051820383],[121.9764122230919,13.347984268045796],[121.97575184604781,13.34809170578199]]]}}]}